{"type":"FeatureCollection","name":"world_bc123000","crs":{"type":"name","properties":{"name":"urn:ogc:def:crs:OGC:1.3:CRS84"}},"features":[{"type":"Feature","properties":{"NAME":"Homo heidelbergensis","ABBREVN":"H. heidelbergensis","type":null,"weblinks":null,"SUBJECTO":"Homo heidelbergensis","BORDERPRECISION":1,"PARTOF":"Homo heidelbergensis"},"geometry":{"type":"MultiPolygon","coordinates":[[[[23.06599,-26.18481],[24.67624,-22.68975],[25.54329,-14.35999],[28.88765,-8.04517],[31.36496,-1.63053],[31.48882,5.05142],[27.15354,12.02895],[21.33187,16.23199],[15.01475,17.4176],[10.43173,19.0645],[0.15091,22.19392],[-11.12082,25.03089],[-11.7241,28.16991],[-11.57646,28.22862],[-11.37266,28.36886],[-10.85623,28.75123],[-10.33931,29.14632],[-9.86959,29.64298],[-9.66259,29.95482],[-9.60267,30.18372],[-9.62504,30.4061],[-9.81704,30.75522],[-9.85776,31.06019],[-9.81327,31.28906],[-9.63532,31.5754],[-9.31756,31.96372],[-9.22225,32.25625],[-9.25077,32.42142],[-9.21869,32.58036],[-8.64026,33.12173],[-8.31441,33.33848],[-7.90241,33.48549],[-7.33262,33.69637],[-7.00401,33.87498],[-6.75297,34.12335],[-6.51147,34.4543],[-6.47205,34.53094],[-6.32767,34.81162],[-6.30205,34.86144],[-5.92876,35.72786],[-5.80789,35.78542],[-5.565,35.86234],[-5.47936,35.80521],[-5.17179,35.42376],[-5.10963,35.37931],[-4.59298,35.15119],[-4.29535,35.15179],[-4.02789,35.13324],[-3.4408,35.16628],[-3.20577,35.26861],[-3.00903,35.38998],[-2.82988,35.14206],[-2.71481,35.09774],[-2.35566,35.05392],[-2.32594,35.05398],[-2.19297,35.05425],[-2.03525,35.05457],[-1.73833,35.11883],[-1.4951,35.2339],[-1.32911,35.48891],[-1.14667,35.62937],[-0.91749,35.66804],[-0.73431,35.73846],[-0.42877,35.86007],[-0.28299,35.75848],[-0.20366,35.75072],[-0.09165,35.73977],[0.01531,35.80367],[0.19867,36.03331],[0.47439,36.22496],[0.78124,36.38485],[1.0576,36.46186],[1.57969,36.51389],[2.29377,36.54082],[2.52436,36.57315],[2.80987,36.7139],[3.07001,36.61886],[3.32384,36.65123],[3.58687,36.79195],[3.74122,36.83687],[4.16392,36.83135],[4.39462,36.83819],[4.53255,36.81298],[4.63212,36.79407],[4.77719,36.74338],[5.14447,36.66768],[5.38273,36.67453],[5.73016,36.7517],[6.04739,36.84156],[6.32287,37.09065],[6.77054,36.86215],[6.92304,36.81784],[7.06324,36.88185],[7.20485,36.99047],[7.30698,37.06078],[7.54492,37.04214],[7.71904,36.95328],[7.79204,36.83236],[7.91317,36.77525],[8.14501,36.81395],[8.63671,36.88526],[8.86552,36.96835],[9.15028,37.17287],[9.41612,37.27538],[9.7322,37.2824],[10.02135,37.20013],[10.13273,37.10475],[10.15887,36.99647],[10.27151,36.75455],[10.3928,36.71657],[10.58058,36.79342],[10.84325,36.99149],[11.02376,37.06832],[11.0394,36.90905],[10.92006,36.65394],[10.63341,36.42401],[10.50924,36.21355],[10.51146,36.08617],[10.60261,35.88895],[10.83083,35.67928],[10.98895,35.6223],[11.12511,35.24061],[11.0828,35.14503],[10.83936,34.80115],[10.57403,34.64811],[10.11642,34.23417],[10.01948,34.08147],[10.14866,33.8784],[10.4126,33.63113],[10.65022,33.49818],[10.77814,33.47303],[10.95654,33.57506],[11.09912,33.53723],[11.20892,33.25152],[11.47069,33.14409],[12.11702,32.8785],[12.56476,32.73964],[12.79886,32.73377],[13.18713,32.79176],[13.45878,32.77961],[14.15702,32.67938],[14.43343,32.46391],[14.79081,32.36299],[15.00979,32.36344],[15.1637,32.27481],[15.24144,32.1733],[15.35813,31.80502],[15.53341,31.55122],[15.84333,31.285],[16.01338,31.22817],[16.31839,31.16526],[16.78252,31.1281],[16.98378,31.09674],[17.42163,30.99599],[17.70898,30.89492],[17.95716,30.76836],[18.53721,30.41375],[18.60825,30.37447],[18.88543,30.22122],[18.91503,30.20486],[19.12454,30.19894],[19.3188,30.25537],[19.32282,30.25654],[19.66391,30.4415],[19.98154,30.72173],[20.11677,30.9571],[20.11668,31.07147],[19.9921,31.35077],[19.94158,31.61117],[19.96147,31.79547],[20.06836,32.03714],[20.36572,32.29824],[20.51552,32.38751],[20.76505,32.49603],[21.0545,32.63005],[21.67342,32.81559],[22.21599,32.79129],[22.54313,32.72207],[22.92285,32.55766],[23.00733,32.48159],[23.02666,32.25291],[23.15334,32.13881],[23.28864,32.13273],[23.71403,32.07642],[23.74242,32.0641],[24.0344,31.93731],[24.23692,31.92502],[24.81586,31.90715],[24.95153,31.81849],[24.98224,31.64701],[25.10655,31.51384],[25.25823,31.43792],[25.50716,31.44478],[25.7895,31.48984],[26.14333,31.49058],[26.82399,31.35856],[27.0881,31.30673],[27.43875,31.25182],[27.76333,31.18261],[27.91945,30.99869],[28.09983,30.99906],[28.51718,30.9618],[28.96642,30.78484],[29.24885,30.75366],[29.35938,30.81107],[29.6831,31.05317],[30.09914,31.23193],[30.47606,31.31529],[30.82706,31.43674],[30.99596,31.46885],[31.15138,31.44375],[31.39227,31.44426],[31.71742,31.38775],[31.80812,31.17828],[32.07651,31.01365],[32.30938,31.08402],[32.59724,30.9639],[32.76873,30.95155],[33.02139,31.13207],[33.12957,31.05169],[33.2546,31.02653],[33.5576,30.96772],[32.64796,29.8522],[32.43838,29.77552],[32.31849,29.5402],[32.59058,28.9372],[32.64934,28.76578],[32.93468,28.37883],[33.35422,27.90955],[33.56694,27.36995],[33.80406,26.93207],[33.92881,26.56382],[34.10422,26.35452],[34.51484,25.57392],[34.9974,24.7172],[35.18986,24.39992],[35.45346,24.15269],[35.65657,23.99427],[35.7247,23.91182],[35.6163,23.83535],[35.48793,23.7906],[35.46849,23.72067],[35.57585,23.23166],[35.68929,23.02132],[35.7463,22.91434],[36.11136,22.64826],[36.29022,22.57238],[36.47325,22.33768],[36.66043,22.16654],[36.80011,21.9149],[36.9035,21.72865],[37.12777,21.22718],[37.16503,20.76427],[37.25457,19.65173],[37.39818,18.915],[37.47999,18.81987],[37.76124,18.64255],[37.89512,18.56012],[38.0286,18.47794],[38.30665,18.24978],[38.52747,18.16132],[38.64174,18.06071],[38.68567,18.00281],[38.75623,17.79626],[38.90386,17.36407],[38.96278,17.19158],[39.00883,17.05678],[39.20794,16.32651],[39.51793,15.46305],[39.79645,15.08877],[39.88854,15.18427],[39.85619,15.40024],[39.89788,15.50199],[40.03721,15.38792],[40.21745,15.08332],[40.38988,14.90579],[40.63053,14.92535],[40.73914,14.91924],[41.34125,14.34232],[41.70526,13.9301],[41.76109,13.88575],[42.07898,13.86101],[42.35708,13.46767],[42.36642,13.35968],[42.35496,13.2707],[42.40844,13.1755],[42.63644,13.09338],[43.04802,12.70231],[43.33048,12.43407],[43.45868,12.22466],[43.47482,12.09762],[43.42193,12.04667],[43.25914,11.96372],[43.06185,11.91882],[42.80996,11.77849],[42.55533,11.56825],[42.66877,11.51131],[42.95915,11.53736],[43.10357,11.53131],[43.29848,11.47555],[43.36809,11.45563],[43.78858,10.94186],[44.05242,10.66285],[44.16155,10.49152],[44.28084,10.39647],[44.44821,10.42861],[44.6361,10.42901],[44.84515,10.41675],[45.01258,10.44888],[45.27016,10.57016],[45.64632,10.7616],[45.90937,10.83206],[46.08828,10.78797],[46.43031,10.66798],[46.67734,10.70028],[46.92916,10.84696],[47.27976,11.10188],[47.39071,11.15931],[47.59234,11.14067],[47.80732,11.09667],[47.99616,11.11613],[48.44251,11.29647],[48.53374,11.33333],[48.66335,11.32089],[48.97027,11.2326],[49.3035,11.24603],[49.64723,11.32937],[50.08087,11.47644],[50.48607,11.77595],[50.69729,11.94796],[50.96875,11.87865],[51.14483,11.78372],[51.18071,11.77745],[51.24702,11.65686],[51.06053,11.24346],[51.07025,10.98932],[51.12976,10.70988],[51.05567,10.50639],[50.88676,10.27728],[50.87398,9.97226],[50.85271,9.59732],[50.77938,9.36842],[50.21083,8.35053],[49.83185,7.99388],[49.77715,7.85397],[49.82292,7.69521],[49.42105,6.98903],[49.04607,6.41634],[48.94952,5.99039],[48.79181,5.70411],[48.47158,5.20143],[48.0782,4.66682],[47.63647,4.09604],[47.55638,3.99256],[47.38399,3.79478],[46.37718,2.6862],[46.3605,2.66783],[46.22544,2.5523],[45.54126,1.96707],[44.56747,1.46295],[44.3007,1.29081],[43.72431,0.80025],[43.09934,0.17002],[42.94123,0.01059],[42.91478,-0.01697],[42.44007,-0.51158],[41.88418,-1.21816],[41.60732,-1.59368],[41.6522,-1.75245],[41.60989,-1.87674],[41.33932,-2.0518],[41.08861,-2.1286],[40.91537,-2.07814],[40.87686,-2.42773],[40.74981,-2.59323],[40.4485,-2.64473],[40.27134,-2.81669],[40.2317,-3.03283],[40.23442,-3.19171],[40.07403,-3.47167],[39.64013,-4.08267],[39.6814,-4.32407],[39.52981,-4.61672],[39.41737,-4.73135],[39.26727,-4.77616],[39.22912,-4.84489],[39.12247,-5.03702],[38.93381,-5.63479],[38.87237,-6.09247],[38.92153,-6.34021],[39.22088,-6.78441],[39.56643,-7.04422],[39.55542,-7.17134],[39.43721,-7.33047],[39.27013,-7.80109],[39.28673,-7.87733],[39.4243,-7.89609],[39.43894,-7.92393],[39.47773,-7.99765],[39.40043,-8.30921],[39.39183,-8.73502],[39.57677,-9.54171],[39.65761,-9.79574],[39.83822,-10.00506],[40.20879,-10.25211],[40.38687,-10.37248],[40.46619,-10.47526],[40.52401,-10.55012],[40.61952,-10.76599],[40.53641,-11.02673],[40.40044,-11.23039],[40.31134,-11.34497],[40.39252,-11.54817],[40.45038,-11.87215],[40.44549,-12.08189],[40.52702,-12.58378],[40.48177,-12.84444],[40.36584,-12.99086],[40.53394,-13.30827],[40.60333,-13.53055],[40.60086,-14.03262],[40.59921,-14.40124],[40.61833,-14.48381],[40.70134,-14.54084],[40.84862,-14.57865],[40.85544,-14.69938],[40.78104,-14.92198],[40.52744,-15.1831],[40.61016,-15.35452],[40.57407,-15.4817],[40.3858,-15.73633],[40.02516,-16.14384],[39.79506,-16.42397],[39.47126,-16.71702],[38.85897,-17.05516],[38.19268,-17.34893],[37.86389,-17.45133],[37.27532,-17.71316],[36.89233,-17.99997],[36.31359,-18.64946],[35.91478,-19.03164],[35.37789,-19.42682],[34.84679,-19.80293],[34.7262,-19.86038],[34.7103,-20.29258],[34.67332,-20.51511],[34.69902,-20.57225],[35.02254,-20.81307],[35.10715,-20.98449],[35.03267,-21.18803],[34.99419,-21.27073],[35.20165,-21.95032],[35.23385,-22.20448],[35.26076,-22.27433],[35.37144,-22.28045],[35.44829,-22.22309],[35.51176,-22.18482],[35.53088,-22.45807],[35.42541,-23.45611],[35.29743,-23.82501],[35.444,-23.91367],[35.51223,-23.93895],[35.50087,-24.08517],[35.43009,-24.22513],[35.19803,-24.47984],[34.88372,-24.72202],[34.5848,-24.87518],[34.01503,-25.0607],[33.65691,-25.20127],[33.34727,-25.30361],[32.94486,-25.53962],[32.6511,-25.83896],[32.49971,-26.06809],[32.63101,-26.22034],[32.89596,-26.37233],[32.91597,-26.51846],[32.88739,-26.71505],[32.84904,-26.97888],[32.76723,-27.51663],[32.60903,-27.89831],[32.52743,-27.9811],[32.34548,-28.02598],[32.30344,-28.13411],[32.39325,-28.37545],[32.34622,-28.58529],[32.23474,-28.74442],[31.97833,-28.94835],[31.56308,-29.2098],[31.32681,-29.50941],[31.29699,-29.54721],[30.6749,-30.43834],[30.48716,-30.68672],[30.39101,-30.81393],[30.29479,-30.92022],[29.83187,-31.43162],[29.29514,-31.90943],[29.08636,-32.12671],[28.92185,-32.29791],[28.27692,-32.76323],[27.65636,-33.25392],[27.40815,-33.42601],[26.96297,-33.71298],[26.65866,-33.84707],[26.30665,-33.89229],[25.86573,-33.88683],[25.61852,-33.91912],[25.5591,-34.07815],[25.56506,-34.13534],[25.51586,-34.17358],[25.31367,-34.1295],[25.06467,-34.0728],[24.92859,-34.07945],[24.81607,-34.16864],[24.69349,-34.30873],[24.59222,-34.35979],[24.42994,-34.3347],[24.08467,-34.15109],[23.74292,-34.07551],[23.49922,-34.06966],[23.35976,-34.1208],[23.18892,-34.2419],[22.97186,-34.19785],[22.68178,-34.10312],[22.58853,-34.13458],[22.54913,-34.14788],[22.26213,-34.16753],[21.99722,-34.26341],[21.6693,-34.50561],[21.34551,-34.5444],[21.14706,-34.53845],[20.84691,-34.50092],[20.51483,-34.53339],[20.25607,-34.62289],[19.88381,-34.99229],[19.32089,-34.73286],[19.27935,-34.50413],[19.18137,-34.42172],[18.96636,-34.39673],[18.84006,-34.43512],[18.72424,-34.21927],[18.57027,-34.19417],[18.50307,-34.3087],[18.48716,-34.39772],[18.34633,-34.34716],[18.29292,-34.24558],[18.41277,-34.02288],[18.45908,-33.83213],[18.07305,-33.22279],[17.92774,-33.09597],[17.86761,-32.99441],[17.94546,-32.91798],[18.23151,-32.89832],[18.3087,-32.70751],[18.33569,-32.33882],[18.26231,-32.04027],[18.17856,-31.8053],[17.90387,-31.29107],[17.56654,-30.82782],[17.43211,-30.57048],[17.35429,-30.42151],[17.07853,-29.79927],[17.00376,-29.62914],[23.06599,-26.18481]]],[[[45.2998,15.93445],[50.62601,16.58845],[55.08516,18.71292],[56.63347,20.17289],[56.01414,23.22228],[54.8288,24.78541],[55.0908,25.02004],[55.4572,25.42018],[55.53049,25.37295],[55.63346,25.45317],[56.01546,25.77163],[56.15673,25.96648],[56.29731,26.15973],[56.36705,26.23612],[56.40503,25.86138],[56.21485,25.54334],[56.16131,25.47334],[56.28164,25.4624],[56.36602,25.45472],[56.40626,25.30869],[56.40648,25.07998],[56.40526,24.91875],[56.40538,24.81951],[56.6108,24.47688],[56.79419,24.26761],[57.1462,23.98247],[57.35937,23.85851],[57.3963,23.83704],[57.45101,23.80522],[57.90422,23.57111],[58.08072,23.50161],[58.20529,23.49552],[58.46466,23.50877],[58.62849,23.4583],[59.02164,23.02076],[59.25432,22.72901],[59.46142,22.53887],[59.82569,22.37445],[59.83728,22.27918],[59.53569,21.80205],[59.25885,21.47745],[58.86135,21.11448],[58.77406,20.94123],[58.51205,20.42123],[58.40309,20.35747],[58.15045,20.39506],[58.04437,20.43295],[57.93127,20.40094],[57.80608,20.17196],[57.77755,19.66999],[57.77843,19.31421],[57.83863,19.03481],[57.65703,18.97089],[57.18621,18.93811],[56.90431,18.8168],[56.73889,18.68938],[56.6086,18.46674],[56.54936,18.21883],[56.45755,18.09156],[56.25759,17.97677],[56.01284,17.93179],[55.88155,17.93151],[55.70812,17.95018],[55.56107,17.93717],[55.38949,17.80974],[55.29041,17.6761],[55.23444,17.44726],[55.23564,17.28843],[55.19484,17.14856],[54.91061,16.97006],[54.75608,16.95067],[54.40687,17.04522],[54.08426,17.01912],[53.68125,16.89754],[53.33573,16.76338],[53.20845,16.71863],[53.02095,16.65377],[52.89432,16.60995],[52.65217,16.48872],[52.3566,16.23395],[52.23764,16.10026],[52.16286,15.87137],[52.13517,15.68706],[51.95041,15.54053],[51.599,15.37875],[51.31256,15.24689],[50.29112,14.95878],[49.71286,14.77329],[49.33385,14.6327],[49.17318,14.49892],[48.96039,14.2189],[48.8793,14.16872],[48.7646,14.09775],[48.53675,14.04644],[48.27014,14.07763],[48.03617,14.04536],[47.6623,13.84759],[47.36957,13.66905],[46.93939,13.49022],[46.87773,13.47387],[46.6012,13.40055],[46.07929,13.39942],[45.8259,13.40523],[45.69248,13.34776],[45.51864,13.2076],[45.39598,13.0739],[45.19342,12.93368],[44.96357,12.82517],[44.7888,12.80574],[44.68107,12.82456],[44.44054,12.63978],[44.06275,12.61355],[43.84059,12.66391],[43.6049,12.82889],[43.56005,12.86028],[43.48365,12.93],[43.34085,13.12667],[43.30285,13.24095],[43.38398,13.56518],[43.34756,13.85104],[43.20694,14.07947],[43.05326,14.60651],[42.79588,15.47008],[42.76353,15.66698],[42.88388,15.98492],[42.82805,16.32148],[42.8144,16.40413],[42.76366,16.64546],[42.53529,17.07067],[42.20652,17.51474],[42.00944,17.73668],[41.62856,18.0472],[41.39918,18.44064],[41.32923,18.60193],[43.93728,17.88972],[45.2998,15.93445]]]]}},{"type":"Feature","properties":{"NAME":"Neanderthal","ABBREVN":null,"type":null,"weblinks":null,"SUBJECTO":"Neanderthal","BORDERPRECISION":1,"PARTOF":"Neanderthal"},"geometry":{"type":"MultiPolygon","coordinates":[[[[49.6052,40.68708],[49.6052,40.68708],[49.71921,40.62707],[49.8073,40.5807],[50.02005,40.60198],[50.19025,40.57007],[50.12643,40.34668],[50.06745,40.22831],[49.75551,39.90874],[49.46483,39.11939],[49.54622,38.52151],[50.2206,37.71654],[51.02288,37.10701],[51.99305,36.4589],[52.69498,36.14541],[53.33668,36.25495],[53.312,37.6845],[53.94359,38.05689],[53.76865,38.38487],[53.16033,38.75789],[52.9762,39.39706],[52.84578,39.93919],[52.91249,40.04629],[52.84545,40.18038],[52.84545,40.33363],[52.82629,40.46772],[52.90292,40.5635],[52.92485,40.62931],[55.48772,40.58472],[57.96502,41.19337],[63.35316,40.53766],[67.56458,40.25467],[69.79415,38.28914],[70.10382,36.01884],[66.01626,34.50182],[64.40602,33.21613],[68.98903,32.9047],[69.23198,31.97722],[68.4626,31.56892],[64.37505,26.81323],[64.26647,26.48848],[57.10057,26.1356],[57.06634,26.30747],[56.93498,26.46454],[56.92909,26.75187],[56.79043,26.97391],[56.68355,26.96836],[56.66782,27.0499],[56.43095,27.10657],[56.06777,27.11217],[55.89973,27.1048],[55.80532,27.00509],[55.65757,26.99695],[55.4249,26.96311],[55.34009,26.79935],[55.09813,26.73744],[54.92553,26.53803],[54.75988,26.41063],[54.64606,26.39132],[54.06494,26.70138],[53.63394,26.74794],[53.38068,26.90959],[52.89083,27.05232],[52.77987,27.18785],[52.63378,27.3146],[52.41039,27.58096],[51.96155,27.77695],[51.69886,27.81452],[51.6113,27.82704],[51.35013,28.03613],[51.08226,28.51202],[50.79676,29.01329],[50.70246,29.13378],[50.70472,29.40061],[50.35984,29.74293],[50.13237,30.06643],[49.71785,30.00205],[49.51097,30.02068],[49.45236,30.07773],[49.32136,30.10286],[49.23508,30.22338],[49.22223,30.47746],[49.02017,30.43257],[48.94572,30.38794],[48.80133,30.08273],[48.71384,29.99996],[48.55365,29.99462],[48.51058,29.99319],[48.21185,29.94809],[48.02828,29.97312],[47.95715,29.94756],[47.91136,29.89029],[47.93592,29.80141],[47.99603,29.49026],[47.84491,29.50315],[47.61404,29.27224],[47.80356,29.18492],[47.99151,29.27749],[48.12906,29.26819],[48.44353,28.44023],[48.46268,28.38585],[48.58751,28.09388],[48.75174,27.87188],[48.83184,27.57345],[48.85502,27.52269],[49.13191,27.53597],[49.24351,27.47903],[49.15193,27.37246],[49.22505,27.30207],[45.23787,27.85853],[37.92982,28.51358],[35.70024,29.86523],[33.89267,31.06134],[33.91697,31.07005],[34.0336,31.1405],[34.1463,31.20858],[34.19528,31.23814],[34.50066,31.6211],[34.59914,31.8179],[34.68134,32.04598],[34.7585,32.30072],[34.84289,32.6707],[34.89497,32.66283],[34.95659,32.70482],[34.95908,32.79666],[34.97201,32.93841],[35.08897,33.06926],[35.13231,33.23152],[35.20839,33.33359],[35.35609,33.63978],[35.34856,33.74447],[35.42987,33.74447],[35.49185,33.83083],[35.5244,33.97477],[35.53208,34.11871],[35.71621,34.31237],[35.82101,34.34378],[35.87307,34.42229],[35.85192,34.49295],[35.75075,34.74681],[35.80885,35.0138],[35.84138,35.04263],[35.79643,35.27072],[35.60734,35.41754],[35.66396,35.4595],[35.68043,35.52767],[35.73318,35.58536],[35.69143,35.68502],[35.7395,35.69027],[35.85594,35.8345],[35.82905,35.88478],[35.7185,36.09156],[35.66495,36.13353],[35.70863,36.21223],[35.81414,36.29849],[35.81724,36.30103],[36.09526,36.48246],[36.10452,36.56117],[36.08243,36.62153],[35.95679,36.74749],[35.89088,36.77111],[35.67174,36.60578],[35.56761,36.58742],[35.50617,36.55856],[35.5476,36.54018],[35.49459,36.4431],[35.41708,36.43261],[35.3887,36.45359],[35.35418,36.41424],[35.22053,36.388],[35.07137,36.48771],[34.86991,36.57692],[34.66238,36.64777],[34.48513,36.62678],[34.10322,36.38032],[33.95171,36.25158],[33.95405,36.15976],[33.89098,36.13877],[33.83588,36.1073],[33.8337,36.07057],[33.75318,36.14664],[33.4817,36.05428],[33.17134,35.97088],[32.90412,35.9767],[32.64034,36.008],[32.33498,36.12837],[31.90201,36.49686],[31.37069,36.71234],[30.90531,36.79422],[30.59359,36.76173],[30.54007,36.64696],[30.49665,36.37298],[30.47283,36.18825],[30.39486,36.11805],[30.27989,36.11781],[30.16613,36.18762],[29.66196,36.07835],[29.47193,36.09069],[29.29819,36.17312],[29.00225,36.6948],[28.81353,36.53516],[28.46985,36.73831],[28.26692,36.71241],[28.01419,36.52716],[27.9119,36.69894],[27.94186,36.75634],[28.05104,36.83302],[27.99881,36.90937],[27.55348,36.91483],[27.30811,36.92071],[27.26863,37.04168],[27.52564,37.13141],[27.49252,37.23967],[27.36463,37.32863],[27.16041,37.36008],[27.12256,37.49385],[27.14109,37.64687],[27.17978,37.77443],[27.13977,37.88909],[26.96138,37.94611],[26.67933,38.10494],[26.51232,38.06635],[26.39321,38.10436],[26.3916,38.21913],[26.46871,38.44476],[26.52741,38.41824],[26.74245,38.27839],[26.99743,38.40006],[26.81967,38.52725],[26.82882,38.58296],[26.6957,38.64077],[26.70947,38.69857],[26.96638,38.76993],[27.03491,38.8211],[27.00422,38.88483],[26.9368,38.92456],[26.78534,38.94033],[26.78985,39.02443],[26.87075,39.05597],[26.79714,39.12956],[26.70794,39.18213],[26.70405,39.25047],[26.60224,39.25573],[26.72016,39.33725],[26.85351,39.46077],[26.92615,39.47655],[26.95752,39.54833],[26.80427,39.56715],[26.54618,39.51335],[26.13898,39.43974],[26.06406,39.45551],[26.08489,39.60401],[26.1419,39.66058],[26.14071,39.74998],[26.12758,39.87856],[26.18601,39.9972],[26.32033,39.99192],[26.40305,40.17649],[26.48171,40.18704],[26.76528,40.37694],[26.99647,40.37166],[27.05612,40.42969],[27.27175,40.45081],[27.32923,40.35583],[27.44961,40.30979],[27.52599,40.29714],[27.76389,40.28725],[27.83016,40.34528],[27.79984,40.40332],[27.67929,40.46135],[27.80783,40.50357],[27.95381,40.48774],[28.00646,40.45081],[27.90822,40.35056],[28.00399,40.36213],[28.47772,40.3951],[28.75644,40.37645],[28.92676,40.35583],[29.05242,40.33473],[29.12229,40.41387],[29.08353,40.45608],[28.87322,40.47191],[28.77796,40.52468],[28.90162,40.62011],[29.5252,40.68829],[29.71315,40.69356],[29.88272,40.74636],[29.68345,40.75164],[29.41717,40.74107],[29.32036,40.74107],[29.28964,40.80669],[29.01453,40.97867],[29.16121,41.21637],[29.57778,41.15337],[30.13762,41.13184],[30.25609,41.18467],[30.74481,41.04032],[31.21768,41.05409],[31.40413,41.16354],[31.38567,41.28504],[31.66639,41.39481],[31.87129,41.49144],[32.41898,41.74917],[32.68791,41.84597],[33.15546,41.94961],[33.55554,41.9825],[33.89666,41.95108],[34.3039,41.89412],[34.66291,41.87558],[35.00187,42.04316],[35.09883,41.80586],[35.28607,41.67148],[35.41144,41.62682],[35.67786,41.62093],[35.95779,41.68565],[36.16137,41.3525],[36.3829,41.23752],[36.64125,41.31498],[36.81701,41.28968],[37.25283,41.02772],[37.82184,41.00963],[38.31396,40.9209],[38.65118,40.92157],[39.13864,41.04432],[39.37018,41.064],[39.663,41.0005],[40.00671,40.95633],[40.36101,40.96344],[40.60989,41.02803],[41.27776,41.28003],[41.29312,41.28582],[41.48396,41.43654],[41.52111,41.46584],[41.66611,41.72915],[41.68047,41.79334],[41.65283,42.10922],[45.2069,41.61145],[47.25068,40.91315],[49.6052,40.68708]]]]}},{"type":"Feature","properties":{"NAME":"Neanderthal","ABBREVN":null,"type":null,"weblinks":null,"SUBJECTO":"Neanderthal","BORDERPRECISION":1,"PARTOF":"Neanderthal"},"geometry":{"type":"MultiPolygon","coordinates":[[[[0.63105,50.91345],[1.54122,50.62978],[3.72752,49.86166],[11.62393,50.49623],[14.07027,51.04457],[16.17598,50.75161],[19.83001,49.90157],[23.48403,50.00119],[24.69172,49.88162],[27.41675,47.38562],[30.26274,46.02886],[30.06882,45.8614],[29.72975,45.76999],[29.62951,45.75036],[29.50043,45.52337],[29.53609,45.4522],[29.61592,45.41021],[29.68321,45.37479],[29.71076,45.25833],[29.57896,45.0575],[29.45752,44.91515],[29.26158,44.89542],[29.08975,44.87573],[28.91824,44.76575],[28.68625,44.48805],[28.57311,44.19782],[28.52989,43.84347],[28.51011,43.74308],[28.48054,43.59228],[28.44569,43.47636],[28.3281,43.43753],[28.18706,43.45012],[28.03464,43.3919],[27.88732,43.06353],[27.86991,42.79988],[27.83616,42.73552],[27.65404,42.68374],[27.50195,42.51635],[27.4947,42.4009],[27.60787,42.41678],[27.72253,42.31622],[27.73771,42.247],[27.91341,42.0781],[27.91795,41.97767],[28.0262,41.88238],[28.01818,41.75321],[28.06984,41.62497],[28.1044,41.59297],[28.37146,41.43313],[28.74022,41.32483],[29.01237,41.25483],[29.0811,41.20051],[28.96445,40.98924],[28.82781,40.9147],[28.59615,40.94699],[28.17331,41.0579],[28.02637,41.02621],[27.93218,40.95755],[27.47417,40.96283],[27.31305,40.78991],[27.26376,40.66717],[26.88893,40.52468],[26.61357,40.39804],[26.51394,40.28197],[26.37586,40.21341],[26.25516,40.08156],[26.14089,40.04465],[26.21429,40.16067],[26.2228,40.22396],[26.19482,40.30307],[26.45755,40.43497],[26.55648,40.49829],[26.45484,40.58431],[26.41806,40.57782],[26.12404,40.60285],[26.02072,40.66932],[25.99288,40.85246],[25.63571,40.87738],[25.30111,40.89594],[25.04632,40.95227],[25.01893,41.01715],[24.81212,40.93342],[24.70066,40.87834],[24.51913,40.87307],[24.50495,40.98407],[24.3543,40.97096],[24.21906,40.82968],[24.02516,40.74636],[23.88595,40.73289],[23.74839,40.80443],[23.6347,40.77275],[23.63298,40.71317],[23.70906,40.63004],[23.78517,40.47719],[23.9237,40.45081],[24.29535,40.17649],[24.22064,40.14485],[24.05478,40.26088],[24.04778,40.30836],[23.92353,40.34528],[23.77477,40.39276],[23.72217,40.34824],[23.62723,40.34528],[23.6588,40.28726],[23.65175,40.22923],[23.80366,40.15539],[23.86866,40.16067],[23.92011,40.0552],[23.90662,39.9972],[23.79603,39.98665],[23.59577,40.19232],[23.44249,40.25561],[23.34908,40.28198],[23.29176,40.28726],[23.29314,40.24506],[23.25906,40.22923],[23.32103,40.15539],[23.36684,40.10793],[23.43647,40.04465],[23.52335,40.01829],[23.59219,40.00246],[23.63859,39.96034],[23.59689,39.93405],[23.37439,39.95509],[23.26053,39.97087],[23.27631,40.04992],[23.21478,40.18177],[23.14114,40.26615],[22.96016,40.31471],[22.74806,40.48247],[22.8639,40.53523],[22.87546,40.59632],[22.85195,40.65134],[22.76997,40.66717],[22.70125,40.57745],[22.49207,40.49829],[22.60227,40.39724],[22.48962,40.23053],[22.46736,40.11848],[22.52561,40.06417],[22.55513,39.98665],[22.6951,39.83448],[22.75447,39.81835],[22.81343,39.60274],[23.07417,39.41345],[23.23608,39.20316],[23.1585,39.14008],[23.05192,39.10329],[23.09981,39.18739],[23.04525,39.2715],[22.9813,39.32933],[22.91899,39.3451],[22.85085,39.36613],[22.72026,39.28727],[22.76606,39.20279],[22.83488,39.16636],[22.87106,39.02435],[22.78421,38.94033],[22.4905,38.87685],[22.60231,38.85624],[22.72329,38.79317],[22.89937,38.76689],[22.98423,38.66704],[23.0998,38.6723],[23.16949,38.66704],[23.191,38.61034],[23.35616,38.4895],[23.49384,38.48313],[23.55577,38.35176],[23.68275,38.34651],[23.80395,38.34651],[23.96074,38.20991],[23.96699,38.15213],[23.88002,38.11536],[23.9873,37.76343],[23.91818,37.68464],[23.83551,37.68464],[23.73368,37.85786],[23.63415,37.87898],[23.54072,38.0041],[23.4957,38.06808],[23.41926,38.06808],[23.19584,38.00504],[22.98061,37.95777],[22.89806,37.89999],[23.03997,37.85797],[23.04539,37.77358],[23.04887,37.64263],[23.15138,37.59012],[23.22055,37.60183],[23.32171,37.63738],[23.31216,37.54811],[23.41812,37.46934],[23.18498,37.42733],[23.18579,37.37483],[23.10956,37.34664],[22.97098,37.38532],[23.02535,37.47984],[22.94207,37.51839],[22.71329,37.54343],[22.64232,37.58487],[22.63875,37.49229],[22.72624,37.28851],[22.81335,37.21205],[22.79311,37.13856],[22.88689,37.04668],[22.98255,36.61475],[22.67355,36.75428],[22.52445,36.72213],[22.3903,36.52437],[22.19141,36.85524],[21.98417,37.02048],[21.78092,36.82254],[21.58817,36.98144],[21.53144,37.11515],[21.6265,37.30652],[21.61371,37.41485],[21.51731,37.53576],[21.29635,37.72654],[21.22113,37.8284],[21.22843,37.90491],[21.44045,38.17952],[21.7145,38.13544],[21.90577,38.26974],[21.99669,38.25078],[22.74721,37.95261],[22.89866,37.99755],[23.11635,38.15739],[22.99674,38.17934],[22.87564,38.2046],[22.33374,38.42671],[21.82647,38.46396],[21.66126,38.43811],[21.36446,38.41201],[21.1724,38.34784],[20.77183,38.85093],[20.8926,38.89583],[21.00651,38.87054],[21.10469,38.92178],[21.15952,39.00483],[21.00718,39.11299],[20.90115,39.06173],[20.67775,39.08042],[20.21181,39.40493],[20.12238,39.55101],[20.09083,39.60253],[20.02856,39.81378],[19.80365,40.01696],[19.36907,40.26028],[19.38023,40.32358],[19.48371,40.29589],[19.49448,40.40272],[19.33922,40.58874],[19.52726,40.86589],[19.4454,40.9649],[19.52995,41.21844],[19.41699,41.34525],[19.49892,41.52362],[19.61938,41.5593],[19.60697,41.76154],[19.45789,41.79808],[19.36771,41.84637],[19.33847,41.86202],[19.14304,41.93209],[19.13554,41.99954],[18.9099,42.21779],[18.84315,42.24142],[18.52864,42.35274],[18.51359,42.36214],[18.24871,42.52744],[18.00137,42.69446],[17.64638,42.8646],[17.59568,42.8889],[17.54798,42.92012],[17.30407,43.07621],[17.07509,43.22275],[16.99226,43.32272],[16.63981,43.38974],[16.54851,43.46131],[16.36675,43.51302],[16.05941,43.43348],[15.91284,43.65225],[15.49437,43.88844],[15.41232,43.93476],[15.14947,44.23993],[15.27441,44.23661],[15.54822,44.22935],[15.28594,44.32892],[14.98911,44.54003],[14.90696,44.72332],[14.94553,44.92659],[14.81539,45.07787],[14.52459,45.26628],[14.35449,45.32289],[14.23862,45.06235],[14.17461,45.01039],[14.18851,44.94255],[14.0604,44.8947],[13.99126,44.7831],[13.8951,44.75918],[13.67206,45.05036],[13.64359,45.17909],[13.52689,45.45431],[13.55628,45.4596],[13.74909,45.49433],[13.79998,45.56637],[13.67318,45.71451],[13.56461,45.72652],[13.43773,45.63843],[13.3677,45.69449],[13.15617,45.72652],[13.10461,45.58239],[12.89865,45.55837],[12.44816,45.39429],[12.48321,45.46231],[12.27974,45.40229],[12.25142,45.29028],[12.18037,45.27028],[12.17619,45.21429],[12.31251,45.17829],[12.32214,45.04237],[12.40899,44.98901],[12.52309,44.88275],[12.47604,44.78709],[12.37777,44.73153],[12.27358,44.67264],[12.28073,44.55012],[12.34508,44.30104],[12.50812,44.13146],[12.69723,43.93476],[13.60087,43.5348],[13.73156,43.37416],[13.79163,43.12334],[13.91509,42.87276],[14.0764,42.63378],[14.09277,42.60953],[14.40493,42.35311],[14.42945,42.32666],[14.51931,42.2297],[14.71996,42.14176],[14.73853,42.04716],[14.92241,41.97177],[15.44861,41.85673],[16.01284,41.90432],[16.18741,41.84086],[16.19841,41.74567],[15.98915,41.63465],[15.87325,41.50214],[15.99104,41.40614],[16.42027,41.27872],[16.94596,41.09381],[17.25861,40.95599],[17.31927,40.92925],[18.03392,40.59665],[18.05994,40.51353],[18.38361,40.30775],[18.52265,40.09413],[18.43368,39.89841],[18.36492,39.74672],[18.16013,39.87313],[18.01707,39.94789],[17.96775,40.16689],[17.8496,40.2435],[17.61915,40.28784],[17.40165,40.29193],[17.20417,40.39794],[17.2428,40.49576],[17.08408,40.52511],[16.94871,40.48109],[16.84413,40.36314],[16.72756,40.1836],[16.60441,40.08991],[16.62385,39.96775],[16.53501,39.83157],[16.5321,39.69751],[16.87399,39.54365],[17.14907,39.4218],[17.10742,39.28047],[17.121,39.08602],[17.18071,39.02221],[17.09469,38.91502],[16.7977,38.92586],[16.61333,38.82733],[16.5222,38.72502],[16.572,38.45712],[16.33069,38.32074],[16.05294,37.93117],[15.78524,37.90971],[15.71023,37.94144],[15.62748,38.00421],[15.62658,38.23308],[15.79087,38.2964],[15.93347,38.53992],[15.8273,38.62273],[15.98985,38.73476],[16.15221,38.70127],[16.21223,38.77795],[16.17721,38.93099],[16.08256,39.01247],[15.98955,39.42835],[15.84651,39.62986],[15.82467,39.66063],[15.75702,39.93363],[15.6662,40.09186],[15.51592,40.06595],[15.43203,39.98897],[15.02726,40.2122],[14.89867,40.24146],[14.99232,40.37222],[14.95101,40.55148],[14.74332,40.70481],[14.33413,40.5936],[14.34977,40.64252],[14.49459,40.72996],[14.37031,40.85147],[14.24,40.85294],[14.05087,40.76751],[13.94188,40.99804],[13.8525,41.09096],[13.79701,41.19345],[13.76051,41.2067],[13.49839,41.30186],[13.32911,41.31109],[13.27145,41.31424],[12.97678,41.37138],[12.64152,41.5311],[12.39485,41.72955],[11.96343,42.00474],[11.96013,42.00737],[11.49737,42.37635],[11.10476,42.54908],[10.74276,42.85051],[10.48775,43.23594],[10.33791,43.5962],[10.29248,43.70544],[10.26138,43.74524],[10.15524,43.8811],[10.13675,43.90477],[9.9093,44.11048],[9.8255,44.15255],[9.69194,44.2196],[9.15704,44.37324],[8.89659,44.43719],[8.67172,44.4174],[8.34279,44.22019],[8.18636,44.1264],[8.08957,44.05083],[8.04807,44.01843],[7.97953,43.96492],[7.68912,43.88705],[7.55281,43.86745],[7.46753,43.81083],[7.39712,43.76409],[7.29762,43.6673],[7.22412,43.6242],[6.92308,43.44767],[6.52301,43.15085],[6.33122,43.11187],[6.18778,43.09229],[5.82857,43.02082],[5.64655,43.03332],[5.43449,43.10366],[5.05182,43.3281],[4.90985,43.36644],[4.75059,43.35326],[4.64651,43.32087],[4.41676,43.34615],[4.0782,43.48709],[3.80747,43.46723],[3.47871,43.3121],[3.31787,43.19595],[3.0679,42.94456],[3.00189,42.77081],[3.0459,42.53946],[3.06845,42.44591],[3.08708,42.36864],[3.08653,42.32911],[3.08629,42.12072],[3.15655,42.07572],[3.12888,41.85723],[2.62826,41.61954],[2.20059,41.44615],[2.08072,41.29849],[2.06549,41.2956],[1.60983,41.20916],[1.4421,41.18],[1.31124,41.15725],[0.8792,41.02174],[0.76603,40.90753],[0.73375,40.87495],[0.70978,40.78515],[0.82713,40.72742],[0.78756,40.65689],[0.50514,40.59276],[0.23793,40.2402],[-0.16063,39.88602],[-0.20366,39.79944],[-0.28452,39.63677],[-0.39485,39.43446],[-0.2359,39.0624],[-0.20366,39.01265],[-0.1657,38.95406],[0.12612,38.82135],[0.17257,38.73835],[-0.107,38.5915],[-0.20366,38.54403],[-0.43516,38.43034],[-0.56413,38.21487],[-0.66473,38.17657],[-0.87234,37.7598],[-0.80256,37.61501],[-0.91827,37.57034],[-1.36457,37.54839],[-1.62571,37.43949],[-1.81688,37.29248],[-1.94048,36.9516],[-2.2388,36.7284],[-2.3551,36.82405],[-2.62433,36.8113],[-2.7615,36.69014],[-2.91533,36.69014],[-2.96979,36.74115],[-4.44659,36.72202],[-4.7573,36.48611],[-5.21674,36.4096],[-5.37423,36.23748],[-5.38675,36.10998],[-5.42426,36.07174],[-5.45709,36.16736],[-5.48793,36.17372],[-5.48549,36.06537],[-5.66059,36.00801],[-5.85001,36.07174],[-6.20446,36.2821],[-6.30497,36.45422],[-6.28888,36.57218],[-6.44403,36.62318],[-6.50049,36.71883],[-6.42171,36.79216],[-6.63215,37.02175],[-6.94795,37.14931],[-7.0101,37.16526],[-7.22782,37.22586],[-7.4915,37.20816],[-7.60344,37.16298],[-7.83604,37.03225],[-8.03364,37.00879],[-8.28024,37.08858],[-8.54107,37.08858],[-8.66706,37.12144],[-8.99085,36.99001],[-9.01664,37.0698],[-8.84151,37.52515],[-8.84872,37.81677],[-8.85103,37.91018],[-8.93279,37.96184],[-8.82299,38.20607],[-8.83129,38.267],[-8.8473,38.38457],[-8.78892,38.43598],[-8.85365,38.49964],[-9.02232,38.46102],[-9.23657,38.41745],[-9.28516,38.61947],[-9.06915,38.64296],[-8.94189,38.74192],[-8.96083,38.81846],[-9.04085,38.92018],[-9.17575,38.73223],[-9.36164,38.67115],[-9.5224,38.68994],[-9.54901,38.77452],[-9.45976,38.95308],[-9.39771,39.23036],[-9.41527,39.36668],[-9.29927,39.41774],[-9.14055,39.6158],[-9.11792,39.64403],[-8.91559,40.13815],[-8.96967,40.19002],[-8.69407,40.99217],[-8.85178,41.40783],[-8.85475,41.59685],[-8.92074,41.76702],[-8.80606,41.88918],[-8.86049,42.01453],[-8.79857,42.19453],[-8.64406,42.41975],[-8.80505,42.63156],[-8.94172,42.8242],[-9.17312,42.8559],[-9.24686,42.90078],[-9.2708,43.04869],[-9.19747,43.15821],[-9.01359,43.28086],[-8.84922,43.32624],[-8.59572,43.33962],[-8.31041,43.35305],[-8.2507,43.43043],[-8.22022,43.61721],[-7.97953,43.74005],[-7.63627,43.72141],[-7.1513,43.55494],[-6.80798,43.52342],[-6.46757,43.56272],[-6.20805,43.64052],[-5.97966,43.70538],[-5.82045,43.70569],[-5.53742,43.57745],[-5.2249,43.50725],[-4.80234,43.46944],[-4.11022,43.45151],[-3.84761,43.43916],[-3.417,43.37565],[-3.19597,43.44688],[-3.00721,43.55027],[-2.76836,43.53788],[-2.36738,43.32624],[-2.14292,43.33147],[-2.06564,43.33327],[-1.91458,43.30542],[-1.74607,43.36016],[-1.56141,43.52443],[-1.31438,44.55896],[-1.13585,44.6001],[-1.23032,44.73041],[-1.33178,44.61383],[-1.27551,45.12873],[-1.17519,45.5005],[-1.12344,45.43162],[-0.90036,45.29391],[-0.81423,45.12184],[-0.72849,45.01864],[-0.8547,45.32145],[-1.13839,45.58316],[-1.2474,45.68815],[-1.23651,45.80004],[-1.0752,46.01462],[-1.08832,46.03904],[-1.16598,46.18368],[-1.25606,46.30683],[-1.40267,46.40393],[-1.71073,46.44879],[-1.94248,46.7058],[-2.12966,46.85084],[-2.00465,47.0425],[-2.10948,47.12404],[-2.26375,47.18288],[-2.49371,47.24692],[-2.57648,47.32487],[-2.46554,47.49438],[-2.61365,47.57225],[-2.84247,47.4919],[-3.0627,47.60394],[-3.43353,47.71681],[-3.71187,47.79815],[-3.8581,47.79181],[-3.95484,47.90434],[-4.36437,47.82931],[-4.39094,47.94185],[-4.51013,47.99813],[-4.6754,48.01689],[-4.70031,48.0638],[-4.31287,48.10133],[-4.35098,48.20457],[-4.58797,48.25149],[-4.3889,48.29844],[-4.3502,48.39051],[-4.47379,48.38294],[-4.59202,48.39232],[-4.77963,48.35477],[-4.76196,48.552],[-4.6257,48.54667],[-4.4883,48.61227],[-4.25148,48.65191],[-3.99887,48.73054],[-3.90222,48.64596],[-3.82131,48.72115],[-3.60787,48.69295],[-3.55767,48.81008],[-3.43506,48.83646],[-3.09123,48.87155],[-2.91446,48.70679],[-2.81671,48.61433],[-2.79054,48.58958],[-2.63638,48.552],[-2.34289,48.67415],[-2.20007,48.59898],[-2.07597,48.65616],[-1.87057,48.71174],[-1.85761,48.60837],[-1.59136,48.6375],[-1.45659,48.68355],[-1.57555,48.76814],[-1.58841,48.88095],[-1.56341,49.03624],[-1.57978,49.22901],[-1.639,49.21961],[-1.89154,49.52635],[-1.94128,49.7093],[-2.61324,50.24451],[-2.96713,50.31384],[-3.15511,50.43852],[-3.23781,50.56286],[-3.52147,50.61743],[-3.56318,50.36143],[-3.71504,50.21934],[-3.88174,50.2004],[-4.00424,50.31406],[-4.24263,50.39146],[-4.3033,50.32354],[-4.54057,50.35795],[-4.96703,50.21225],[-5.28234,49.96382],[-5.42922,50.06785],[-5.77781,50.13412],[-5.23777,50.34629],[-5.01665,50.56052],[-4.81527,50.60417],[-4.60456,50.77875],[-4.55154,50.99716],[-4.44256,50.96866],[-4.27728,51.06367],[-4.28099,51.18724],[-3.82523,51.23478],[-2.80015,51.55747],[-1.01806,51.55282],[0.63105,50.91345]],[[13.11032,46.49769],[14.7825,47.17555],[11.9336,47.38562],[8.96083,46.71044],[6.29773,45.72487],[5.92613,45.11629],[6.11193,44.41274],[7.22672,44.54531],[8.3415,45.72487],[11.06654,46.0267],[13.11032,46.49769]]]]}},{"type":"Feature","properties":{"NAME":"Homo erectus","ABBREVN":"H. erectus","type":null,"weblinks":null,"SUBJECTO":"Homo erectus","BORDERPRECISION":1,"PARTOF":"Homo erectus"},"geometry":{"type":"MultiPolygon","coordinates":[[[[117.53589,9.04863],[117.80207,9.20803],[118.0885,9.43102],[118.50807,9.92114],[120.00278,12.0588],[120.31707,11.74318],[120.04413,10.68041],[119.45591,10.34153],[119.33642,9.90723],[119.22285,9.5465],[119.11716,9.17108],[118.89521,8.72214],[118.4196,8.37723],[117.89114,8.07388],[117.48951,7.92735],[117.63748,6.46986],[118.32448,6.12319],[118.62041,5.91297],[119.10659,5.69216],[119.74074,5.57646],[121.36839,5.52386],[118.97142,5.04893],[118.88133,4.97885],[118.68284,4.91488],[118.41559,4.90159],[118.10842,4.93905],[117.94841,4.79892],[117.99183,4.68465],[118.39121,4.37417],[118.31868,4.23423],[118.11238,4.14484],[117.82212,4.09973],[117.58917,4.0484],[117.55869,3.98072],[117.54051,3.94027],[117.68386,3.62924],[117.58022,3.56547],[117.58774,2.65051],[117.82919,2.31426],[117.84828,2.22535],[117.69636,1.90095],[117.73007,1.79935],[117.91282,1.59005],[118.24726,1.38744],[118.51726,1.16563],[118.76522,0.82303],[118.55612,0.74632],[118.21829,0.75829],[117.85968,0.86554],[117.70829,0.82073],[117.53429,0.61066],[117.37497,0.19726],[117.33889,-0.01697],[117.31822,-0.13966],[117.37765,-0.43184],[117.42981,-0.62237],[117.3703,-1.00378],[117.25522,-1.00403],[117.04563,-0.93458],[116.57888,-1.36772],[116.38421,-1.66047],[116.04628,-1.93446],[116.2455,-2.10562],[116.2727,-2.2835],[116.34913,-2.41679],[116.04077,-2.44287],[116.24452,-2.703],[116.24822,-2.79831],[116.20198,-2.9001],[115.9559,-3.19932],[115.86337,-3.37747],[115.80631,-3.53647],[115.56814,-3.80391],[114.98581,-4.07846],[114.71241,-4.20615],[114.58087,-4.29541],[113.73428,-4.8116],[113.68885,-5.60333],[113.39356,-6.03269],[112.79161,-6.23596],[112.55006,-6.74685],[112.53656,-7.26452],[112.50087,-7.46494],[112.62459,-7.67439],[112.67842,-7.71878],[113.07269,-7.87682],[113.26259,-7.90818],[113.55871,-7.9139],[113.76138,-7.83083],[113.94836,-7.82408],[114.23077,-7.93151],[114.25219,-8.02044],[114.13761,-8.21137],[114.06916,-8.43395],[114.32928,-8.78297],[114.10475,-8.68811],[113.74382,-8.59991],[113.47469,-8.48609],[113.07379,-8.34712],[112.83578,-8.34764],[112.57098,-8.46262],[112.41436,-8.48837],[112.09338,-8.44458],[111.43914,-8.38243],[110.77774,-8.32031],[110.41539,-8.20669],[110.03817,-7.99141],[109.54362,-7.83994],[109.11535,-7.73875],[109.0372,-7.72029],[108.61045,-7.70214],[108.36071,-7.83614],[108.16023,-7.85564],[107.72973,-7.78666],[107.36764,-7.565],[107.20682,-7.53356],[106.4837,-7.50336],[106.32024,-7.43379],[106.34467,-7.37019],[106.54659,-7.16002],[106.36553,-7.03966],[106.11755,-6.99571],[105.88996,-6.93264],[105.75223,-6.92023],[105.18478,-6.86567],[105.14389,-6.7817],[105.28617,-6.7712],[105.46738,-6.81319],[105.63347,-6.75524],[105.66399,-6.5193],[105.67217,-6.45632],[105.81075,-6.48157],[105.7943,-6.28927],[105.79153,-6.2569],[105.89147,-6.15092],[105.93318,-6.02598],[106.02417,-6.08072],[106.3081,-6.13095],[106.52127,-6.10995],[106.62801,-6.30938],[106.864,-6.26957],[106.93512,-6.13595],[106.94218,-6.05815],[105.78709,-4.93091],[105.79637,-5.22959],[105.7956,-5.35035],[105.72847,-5.82714],[105.68928,-5.89714],[105.64069,-5.92903],[105.47567,-5.81499],[105.30404,-5.58021],[105.18672,-5.54233],[105.06914,-5.75867],[105.03279,-5.8795],[104.5634,-5.60087],[104.46469,-5.63922],[104.64216,-5.97567],[104.56848,-6.07117],[104.47689,-5.98238],[103.8725,-5.3418],[103.52346,-4.99937],[103.06859,-4.61268],[102.46223,-4.18182],[102.28652,-3.97884],[102.19676,-3.7566],[102.11067,-3.60425],[101.65957,-3.31925],[101.34546,-3.01489],[100.81208,-2.33605],[100.77876,-2.17724],[100.79625,-2.0247],[100.6503,-1.631],[100.27201,-0.97092],[99.972,-0.50132],[99.69655,-0.15241],[99.53037,-0.01697],[99.40105,0.08842],[99.11331,0.22125],[98.99888,0.5578],[98.68911,1.37049],[98.71933,1.47859],[98.67103,1.61828],[98.60055,1.70709],[98.30258,1.9352],[97.9825,2.11243],[97.73999,2.20721],[97.59715,2.25138],[97.5433,2.41012],[97.5087,2.74047],[97.42768,2.92456],[97.25449,3.14023],[96.88596,3.51433],[96.72036,3.70459],[96.39438,3.64669],[96.11843,3.95109],[95.82762,4.22369],[95.56092,4.53446],[95.30815,4.95962],[95.20507,5.24532],[95.19055,5.41049],[95.21608,5.4995],[95.28316,5.55049],[95.46405,5.56994],[95.62773,5.52582],[95.74045,5.46888],[96.02468,5.21532],[96.18734,5.14579],[96.60203,5.07679],[96.75271,5.06441],[96.99945,5.10942],[97.20378,5.1734],[97.38407,5.18014],[97.60239,5.14997],[97.89007,4.8483],[98.36702,4.30495],[99.16193,3.79144],[99.69118,3.43661],[100.27113,2.99509],[100.79308,2.79961],[101.3364,2.78052],[101.26428,3.22516],[101.06691,3.53608],[100.75484,3.82107],[100.66431,3.90375],[100.57663,4.20219],[100.5942,4.42462],[100.60762,4.55173],[100.55933,4.73589],[100.37972,5.02143],[100.00082,5.47686],[99.8052,5.74455],[99.37729,6.49823],[98.72931,7.21441],[98.29241,8.15571],[98.19523,8.32705],[98.17717,8.60022],[97.86769,8.89755],[97.52327,9.38021],[97.50105,10.33254],[97.52327,11.40182],[97.52327,12.32603],[97.6677,13.08471],[97.78992,13.41996],[97.81214,13.6468],[97.64459,14.33887],[97.55878,14.78734],[97.5073,15.33422],[96.82084,15.49966],[95.77399,15.45004],[95.34496,15.41695],[95.01889,15.36732],[94.45256,14.58814],[93.81759,14.02274],[93.19977,12.72047],[92.7879,11.64689],[92.90803,12.60326],[93.25126,13.63947],[93.62881,14.43861],[93.9892,14.68776],[93.9892,15.10238],[94.14336,16.21538],[94.20874,17.03785],[93.82109,17.46096],[93.6365,18.32172],[93.30423,19.03869],[92.75044,19.83942],[92.15973,20.32486],[90.86756,20.49787],[89.87074,20.18632],[88.44935,19.87415],[87.08334,19.42214],[86.08653,18.89904],[85.16355,18.37429],[84.35132,17.77764],[83.61294,17.16136],[82.74534,16.40141],[82.09925,15.78064],[81.34241,15.35386],[80.65941,15.0332],[80.36405,14.71206],[80.13637,14.48887],[80.16166,14.2541],[80.16972,13.89199],[80.07589,13.66942],[80.17813,13.52352],[80.20184,13.49169],[80.31988,13.33321],[80.31346,13.10448],[80.22376,12.83109],[79.92281,12.10616],[79.86674,11.96909],[79.76935,11.73098],[79.72528,11.51592],[79.71073,11.44494],[79.71221,11.42453],[79.73183,11.15272],[79.82627,10.35873],[81.16959,8.84381],[82.13063,7.05926],[81.73592,6.47984],[81.08378,6.01923],[80.29436,6.27517],[80.03693,7.17846],[79.95113,8.35172],[79.29899,8.89468],[78.79765,9.13023],[78.66013,9.12359],[78.31384,8.99576],[78.18113,8.81121],[78.13578,8.49977],[78.06494,8.38526],[77.89976,8.25781],[77.84803,8.23269],[77.73393,8.17729],[77.66318,8.14293],[77.61861,8.11742],[77.58884,8.09831],[77.48439,8.02819],[77.41947,8.02804],[77.34137,8.05328],[76.70353,8.70636],[76.66239,8.88418],[76.53786,9.119],[76.46721,9.41013],[76.38529,9.7477],[76.294,9.98495],[76.24838,10.10352],[76.07506,10.55396],[76.04671,10.6122],[75.73442,11.25367],[75.65175,11.42349],[75.5907,11.51752],[75.43987,11.7498],[75.21094,12.10237],[74.96174,12.87696],[74.78553,13.25558],[74.49378,13.58944],[74.09907,14.1559],[73.48126,14.80394],[72.67467,16.25895],[71.3704,18.61643],[70.61529,20.04147],[69.18906,21.45732],[69.12606,21.96851],[68.89418,22.28566],[69.01423,22.30497],[69.49224,22.24881],[68.88241,22.99715],[68.79081,23.02872],[68.37294,23.32642],[68.07218,23.67519],[68.047,23.76407],[67.69232,23.81416],[67.48603,23.92806],[67.31589,24.09289],[67.20423,24.58817],[67.1536,24.65159],[66.99954,24.71478],[66.70172,24.75228],[66.65422,24.78394],[66.64811,24.90462],[66.7005,25.11438],[66.62051,25.31749],[66.43233,25.48861],[66.30009,25.49469],[65.7688,25.30934],[65.21567,25.27006],[64.85119,25.20576],[64.42498,25.17312],[64.23826,25.21083],[64.12007,25.31223],[64.05922,25.40103],[63.89422,25.37505],[64.26647,26.48848],[64.37505,26.81323],[68.4626,31.56892],[69.23198,31.97722],[73.16948,34.06686],[79.23888,30.6143],[85.55601,27.36462],[92.3686,26.37019],[95.83682,27.80376],[102.27782,29.32671],[104.01193,32.40935],[108.47108,33.34557],[116.89392,33.96419],[120.14423,33.90146],[120.9822,33.76538],[121.33824,33.1333],[121.70492,32.29346],[122.19382,30.99283],[122.49939,29.40837],[122.0716,27.76278],[121.88826,25.56018],[121.82715,24.0253],[121.44859,24.0291],[121.48153,24.09287],[121.39942,23.93391],[121.37008,23.62264],[121.32531,23.40024],[121.18241,23.03791],[120.96974,22.71988],[120.78198,22.34474],[120.77584,22.18594],[120.72464,21.98893],[120.62239,21.9252],[120.57658,21.95051],[120.5281,22.09649],[120.11344,22.64185],[118.41747,23.60494],[117.61849,23.13888],[116.76628,22.30369],[116.16264,22.23797],[115.06187,21.99125],[114.02357,21.58033],[112.47074,20.84795],[111.89177,20.42998],[111.8256,19.87092],[110.45261,18.19777],[109.75784,17.70994],[108.93074,17.94615],[108.76532,18.84087],[108.30214,18.85652],[107.55775,18.91913],[107.32616,18.51178],[107.11497,16.95461],[107.37534,16.69147],[107.69202,16.37143],[107.80917,16.28274],[108.09535,16.25159],[108.23615,16.08038],[108.36306,15.62327],[108.49894,15.36311],[108.78612,15.09056],[108.91777,14.79226],[109.07115,14.17003],[109.30712,12.90633],[109.17454,12.70909],[109.06843,12.48651],[109.09095,12.11809],[109.04843,11.93377],[109.07335,11.63522],[109.06131,11.59073],[109.38539,11.15397],[107.8403,9.8361],[107.24461,7.62827],[106.77922,6.81569],[105.96013,6.81569],[105.45751,7.01897],[105.23413,6.14982],[106.27548,4.63472],[108.49397,4.885],[111.10314,5.21857],[112.26123,6.34298],[114.57739,6.59253],[115.67966,6.7034],[117.14471,8.1423],[117.24174,8.45462],[117.12781,8.46958],[117.22448,8.68581],[117.37879,8.8958],[117.53589,9.04863]]]]}}]}
