{"type":"FeatureCollection","name":"world_bc4000","crs":{"type":"name","properties":{"name":"urn:ogc:def:crs:OGC:1.3:CRS84"}},"features":[{"type":"Feature","properties":{"NAME":"Dapenkeng culture","ABBREVN":"Dapenkeng","type":"culture","weblnks":"https://en.wikipedia.org/wiki/Dapenkeng_culture","SUBJECTO":"Dakapeng culture","BORDERPRECISION":1,"PARTOF":"Dakapeng culture"},"geometry":{"type":"MultiPolygon","coordinates":[[[[120.62239,21.9252],[120.57658,21.95051],[120.5281,22.09649],[120.11344,22.64185],[119.96409,23.08613],[119.95028,23.28301],[120.02075,23.61978],[120.26632,23.97599],[120.85697,24.80925],[120.9732,24.89208],[121.16461,24.94963],[121.26763,25.03242],[121.42887,25.13436],[121.53136,25.07743],[121.78051,24.90013],[121.63037,24.70927],[121.59271,24.64568],[121.6031,24.50597],[121.57256,24.22644],[121.48153,24.09287],[121.39942,23.93391],[121.37008,23.62264],[121.32531,23.40024],[121.18241,23.03791],[120.96974,22.71988],[120.78198,22.34474],[120.77584,22.18594],[120.72464,21.98893],[120.62239,21.9252]]]]}},{"type":"Feature","properties":{"NAME":"Austronesians","ABBREVN":"Austronesians","type":null,"weblnks":null,"SUBJECTO":"Austronesians","BORDERPRECISION":1,"PARTOF":"Austronesians"},"geometry":{"type":"MultiPolygon","coordinates":[[[[99.87223,2.63756],[99.86316,2.56764],[100.12142,2.5428],[100.45648,2.11778],[100.73194,1.87056],[100.85432,1.87718],[100.85606,1.96614],[100.80061,2.06769],[100.83172,2.17578],[101.05976,2.08097],[101.27575,1.71924],[101.47431,1.54809],[101.67528,1.52311],[101.86814,1.43457],[102.0098,1.26966],[102.13589,0.93951],[102.27829,0.74283],[102.47178,0.62251],[102.70161,0.56582],[103.04659,0.52844],[103.24049,0.45896],[103.46308,0.28786],[103.72216,0.01518],[103.7136,-0.01697],[103.68663,-0.11834],[103.50074,-0.31574],[103.40866,-0.50022],[103.23762,-0.65947],[103.31132,-0.81818],[103.38419,-0.89427],[103.74693,-1.11591],[104.1212,-1.14052],[104.22989,-1.19112],[104.29766,-1.36255],[104.35519,-1.70559],[104.35243,-1.88989],[104.47248,-2.08028],[104.56755,-2.13727],[104.81259,-2.1558],[104.60981,-2.57567],[104.67776,-2.67084],[104.99461,-2.4668],[105.36515,-2.58039],[105.4449,-2.59928],[105.56393,-2.71341],[105.62867,-2.91028],[105.94282,-3.21466],[105.71109,-4.10488],[105.69316,-4.30829],[105.79668,-4.73388],[105.78709,-4.93091],[105.79637,-5.22959],[105.7956,-5.35035],[105.72847,-5.82714],[105.68928,-5.89714],[105.64069,-5.92903],[105.47567,-5.81499],[105.30404,-5.58021],[105.18672,-5.54233],[105.06914,-5.75867],[105.03279,-5.8795],[104.5634,-5.60087],[104.46469,-5.63922],[104.64216,-5.97567],[104.56848,-6.07117],[104.47689,-5.98238],[103.8725,-5.3418],[103.52346,-4.99937],[103.06859,-4.61268],[102.46223,-4.18182],[102.28652,-3.97884],[102.19676,-3.7566],[102.11067,-3.60425],[101.65957,-3.31925],[101.34546,-3.01489],[100.81208,-2.33605],[100.77876,-2.17724],[100.79625,-2.0247],[100.6503,-1.631],[100.27201,-0.97092],[99.972,-0.50132],[99.69655,-0.15241],[99.53037,-0.01697],[99.40105,0.08842],[99.11331,0.22125],[98.99888,0.5578],[98.68911,1.37049],[98.71933,1.47859],[98.67103,1.61828],[98.60055,1.70709],[98.30258,1.9352],[97.9825,2.11243],[97.73999,2.20721],[97.59715,2.25138],[97.5433,2.41012],[97.5087,2.74047],[97.42768,2.92456],[97.25449,3.14023],[96.88596,3.51433],[96.72036,3.70459],[96.39438,3.64669],[96.11843,3.95109],[95.82762,4.22369],[95.56092,4.53446],[95.30815,4.95962],[95.20507,5.24532],[95.19055,5.41049],[95.21608,5.4995],[95.28316,5.55049],[95.46405,5.56994],[95.62773,5.52582],[95.74045,5.46888],[96.02468,5.21532],[96.18734,5.14579],[96.60203,5.07679],[96.75271,5.06441],[96.99945,5.10942],[97.20378,5.1734],[97.38407,5.18014],[97.52933,5.04067],[97.94281,4.52055],[98.17379,4.38126],[98.19937,4.31142],[98.1455,4.06985],[98.62529,3.65788],[98.96241,3.43621],[99.49127,3.12601],[99.79595,2.98053],[99.85836,2.90441],[99.87223,2.63756]]],[[[111.11991,1.27033],[110.8934,1.51131],[110.96977,1.75929],[111.1338,2.03288],[111.37183,2.59893],[111.63455,2.72023],[112.30133,2.87417],[112.75925,3.00859],[112.95166,3.15515],[113.18754,3.61465],[113.42308,3.75981],[113.81484,4.26261],[113.91349,4.35814],[114.02327,4.42453],[114.07373,4.45502],[114.16662,4.51117],[114.45026,4.56262],[114.74521,4.98438],[114.85398,5.01587],[114.82273,4.89517],[114.87785,4.85582],[114.96151,4.87652],[115.0369,4.89517],[115.12111,4.83093],[115.15933,4.83808],[115.36143,4.87592],[115.43391,5.00315],[115.41777,5.11114],[115.20305,5.27587],[115.29167,5.45398],[115.48784,5.48616],[115.71728,5.46761],[115.78709,5.7401],[115.9708,5.88115],[116.0987,6.09745],[116.33778,6.35848],[116.56179,6.82278],[116.59563,6.89909],[116.74053,6.68974],[116.88902,6.64558],[117.03112,6.8365],[117.16806,6.61442],[117.32571,6.48768],[117.50709,6.39277],[117.54089,6.24036],[117.45925,6.08133],[117.35359,5.87779],[117.37007,5.78886],[117.65428,5.84666],[117.86653,5.90431],[117.91827,5.80276],[117.76156,5.58003],[118.09538,5.62523],[118.25601,5.6637],[118.37702,5.63855],[118.84297,5.34093],[118.99797,5.27772],[119.04261,5.16981],[118.97142,5.04893],[118.88133,4.97885],[118.68284,4.91488],[118.41559,4.90159],[118.10842,4.93905],[117.94841,4.79892],[117.99183,4.68465],[118.39121,4.37417],[118.31868,4.23423],[118.11238,4.14484],[117.82212,4.09973],[117.58917,4.0484],[117.55869,3.98072],[117.54051,3.94027],[117.68386,3.62924],[117.58022,3.56547],[117.33471,3.54589],[117.07398,3.5072],[117.16311,3.40573],[117.21508,3.2724],[117.13904,3.17058],[117.23603,3.07547],[117.34201,3.02488],[117.58774,2.65051],[117.82919,2.31426],[117.84828,2.22535],[117.69636,1.90095],[117.73007,1.79935],[117.91282,1.59005],[118.24726,1.38744],[118.51726,1.16563],[118.76522,0.82303],[118.55612,0.74632],[118.21829,0.75829],[117.85968,0.86554],[117.70829,0.82073],[117.53429,0.61066],[117.37497,0.19726],[117.33889,-0.01697],[117.31822,-0.13966],[117.37765,-0.43184],[117.42981,-0.62237],[117.3703,-1.00378],[117.25522,-1.00403],[117.04563,-0.93458],[116.57888,-1.36772],[116.38421,-1.66047],[116.04628,-1.93446],[116.2455,-2.10562],[116.2727,-2.2835],[116.34913,-2.41679],[116.04077,-2.44287],[116.24452,-2.703],[116.24822,-2.79831],[116.20198,-2.9001],[115.9559,-3.19932],[115.86337,-3.37747],[115.80631,-3.53647],[115.56814,-3.80391],[114.98581,-4.07846],[114.71241,-4.20615],[114.58087,-4.29541],[114.49362,-4.15579],[114.50463,-3.9651],[114.35625,-3.60316],[114.21847,-3.43188],[114.0995,-3.34951],[113.9706,-3.3625],[113.74446,-3.59814],[113.60839,-3.61113],[113.46076,-3.38267],[113.32001,-3.29401],[113.1235,-3.24359],[112.94931,-3.0406],[112.79538,-2.97102],[112.63836,-3.33361],[112.57773,-3.42272],[112.40625,-3.4485],[112.24562,-3.39801],[112.04686,-3.45564],[111.90338,-3.61483],[111.73945,-3.64696],[111.71331,-3.39917],[111.72859,-3.25932],[111.58721,-2.7957],[111.43599,-2.97397],[110.79682,-3.17236],[110.65251,-2.98838],[110.36506,-2.99536],[110.23843,-3.06553],[110.10231,-3.07854],[110.07639,-2.78626],[110.06594,-2.49395],[109.94623,-1.85871],[109.94091,-1.64265],[109.7828,-1.30619],[109.59979,-1.1223],[109.24452,-0.93242],[109.17892,-0.86901],[109.42858,-0.70961],[109.18953,-0.53854],[109.07336,-0.40535],[109.15776,-0.07473],[109.12418,-0.01697],[108.99906,0.19819],[108.84098,0.33129],[108.87031,0.54106],[108.81431,0.80782],[108.89605,1.1003],[108.9555,1.25929],[109.14624,1.52024],[109.28237,1.88272],[109.42594,1.87033],[109.5175,1.82052],[109.55396,1.8007],[109.72312,1.6168],[109.90182,1.55365],[110.28949,1.51636],[110.47523,1.4405],[110.81756,1.24426],[110.96831,1.22552],[111.11991,1.27033]]],[[[113.07269,-7.87682],[113.26259,-7.90818],[113.55871,-7.9139],[113.76138,-7.83083],[113.94836,-7.82408],[114.23077,-7.93151],[114.25219,-8.02044],[114.13761,-8.21137],[114.06916,-8.43395],[114.32928,-8.78297],[114.10475,-8.68811],[113.74382,-8.59991],[113.47469,-8.48609],[113.07379,-8.34712],[112.83578,-8.34764],[112.57098,-8.46262],[112.41436,-8.48837],[112.09338,-8.44458],[111.43914,-8.38243],[110.77774,-8.32031],[110.41539,-8.20669],[110.03817,-7.99141],[109.54362,-7.83994],[109.11535,-7.73875],[109.0372,-7.72029],[108.61045,-7.70214],[108.36071,-7.83614],[108.16023,-7.85564],[107.72973,-7.78666],[107.36764,-7.565],[107.20682,-7.53356],[106.4837,-7.50336],[106.32024,-7.43379],[106.34467,-7.37019],[106.54659,-7.16002],[106.36553,-7.03966],[106.11755,-6.99571],[105.88996,-6.93264],[105.75223,-6.92023],[105.18478,-6.86567],[105.14389,-6.7817],[105.28617,-6.7712],[105.46738,-6.81319],[105.63347,-6.75524],[105.66399,-6.5193],[105.67217,-6.45632],[105.81075,-6.48157],[105.7943,-6.28927],[105.79153,-6.2569],[105.89147,-6.15092],[105.93318,-6.02598],[106.02417,-6.08072],[106.3081,-6.13095],[106.52127,-6.10995],[106.62801,-6.30938],[106.864,-6.26957],[106.93512,-6.13595],[106.94509,-6.02598],[107.06137,-6.07848],[107.33963,-6.15415],[107.52462,-6.35076],[107.67703,-6.33037],[107.76869,-6.45192],[107.96961,-6.43878],[108.17333,-6.35572],[108.309,-6.45075],[108.47539,-6.68555],[108.55577,-6.92053],[108.95341,-6.93873],[109.16109,-7.02311],[109.21701,-7.01438],[109.38199,-6.98865],[110.02728,-7.04445],[110.24257,-7.03128],[110.39589,-6.95468],[110.49153,-6.66212],[110.61329,-6.5411],[110.81459,-6.53431],[110.91452,-6.62943],[111.04472,-6.85159],[111.32965,-6.90818],[111.56828,-6.92036],[111.9168,-6.95774],[112.27479,-7.02689],[112.40491,-7.13464],[112.53656,-7.26452],[112.50087,-7.46494],[112.62459,-7.67439],[112.67842,-7.71878],[113.07269,-7.87682]]],[[[117.79684,-8.49582],[117.70542,-8.43882],[117.67736,-8.36261],[117.69099,-8.26724],[117.80622,-8.17801],[117.94794,-8.16193],[118.02465,-8.20297],[118.0483,-8.29838],[118.13015,-8.34257],[118.26714,-8.27739],[118.41999,-8.32462],[118.46731,-8.39284],[118.462,-8.59608],[118.54416,-8.52929],[118.61766,-8.39235],[118.76083,-8.37934],[118.86329,-8.48081],[118.87261,-8.67146],[118.95417,-8.65525],[118.98203,-8.70248],[118.97055,-8.88099],[118.8282,-8.78645],[118.68882,-8.76021],[118.62547,-8.78645],[118.65803,-8.85624],[118.27464,-8.92698],[118.21066,-8.88616],[118.25399,-8.76545],[118.216,-8.73921],[118.0772,-8.85992],[117.97386,-8.97538],[117.84085,-8.95438],[117.55728,-9.05565],[117.27663,-9.14524],[117.1159,-9.12232],[116.97642,-9.17766],[116.80034,-9.14626],[116.75419,-9.11458],[116.66316,-9.05934],[116.63447,-8.93339],[116.69892,-8.81598],[116.66269,-8.70248],[116.74955,-8.65063],[116.8534,-8.59955],[116.95838,-8.52929],[117.05933,-8.56098],[117.33397,-8.56673],[117.51381,-8.61326],[117.55416,-8.73921],[117.6851,-8.78843],[117.81717,-8.81356],[117.90241,-8.69723],[118.03314,-8.69198],[118.0559,-8.60801],[117.93772,-8.54001],[117.79684,-8.49582]]],[[[106.16432,-2.9981],[105.99475,-2.89043],[105.90242,-2.7254],[105.8823,-2.5602],[105.81182,-2.38241],[105.5835,-2.20497],[105.45276,-2.16077],[105.25176,-2.17391],[105.19966,-2.11048],[105.32142,-1.81789],[105.42668,-1.70963],[105.65573,-1.95697],[105.72238,-1.74711],[105.86344,-1.62606],[105.89634,-1.80393],[106.03653,-2.20399],[106.32864,-2.57195],[106.64275,-2.71108],[106.52345,-2.79395],[106.47066,-2.92117],[106.55266,-3.1752],[106.16432,-2.9981]]],[[[114.89563,-8.65463],[114.51071,-8.45207],[114.45751,-8.33143],[114.64504,-8.33102],[114.87628,-8.24791],[115.0844,-8.23473],[115.50045,-8.46901],[115.34816,-8.5456],[115.2437,-8.59031],[115.07236,-8.78136],[114.89563,-8.65463]]],[[[120.30511,14.57529],[119.97168,14.9049],[119.77185,15.46983],[119.78871,15.66044],[119.81296,15.97812],[119.68141,16.18745],[119.76203,16.35914],[120.20211,16.04247],[120.29312,16.23323],[120.30345,16.41746],[120.25813,16.61429],[120.24656,16.8747],[120.31154,17.07176],[120.32303,17.37033],[120.35981,17.75788],[120.39308,18.04379],[120.56437,18.43162],[120.64887,18.48897],[120.80042,18.55282],[121.03637,18.52791],[121.58078,18.29405],[121.83985,18.27555],[121.92465,18.37101],[122.04959,18.44749],[122.13901,18.38417],[122.14715,18.20633],[122.02781,18.00917],[122.00743,17.79316],[122.07029,17.43758],[122.31364,17.26025],[122.39558,17.11433],[122.20331,16.54222],[122.06395,16.3323],[121.6886,16.05836],[121.43898,15.91808],[121.40227,15.87353],[121.40357,15.75283],[121.36817,15.49867],[121.24221,15.30783],[121.2993,15.21266],[121.45681,14.88268],[121.61164,14.38752],[121.72879,14.10826],[121.77041,14.09564],[121.97345,13.94997],[122.10659,13.91849],[122.17926,14.06477],[122.39741,14.30663],[122.48648,14.31952],[122.67462,14.26911],[122.77617,14.17403],[122.85634,13.88834],[122.98506,13.72981],[123.13177,13.69201],[123.3592,13.95295],[123.63851,13.83286],[123.7019,13.82028],[123.7369,13.76319],[123.66124,13.69314],[123.49137,13.6229],[123.39762,13.52742],[123.8189,12.97563],[123.67697,12.89274],[123.42121,12.98113],[123.23899,13.02521],[123.19697,13.24111],[123.09369,13.38064],[122.82416,13.62147],[122.48541,13.8812],[122.36934,13.88095],[122.32527,13.77921],[122.492,13.43017],[122.39409,13.30291],[122.06729,13.65161],[121.62493,13.89841],[121.48617,13.89175],[121.33172,13.8279],[121.24972,13.71338],[121.1871,13.68148],[121.00936,13.65569],[120.86451,13.75702],[120.59851,13.92162],[120.51063,14.112],[120.7986,14.38577],[120.94382,14.29081],[121.10497,14.25303],[121.28544,14.34236],[121.21723,14.41843],[120.89659,14.55115],[120.70641,14.72861],[120.47143,14.80434],[120.36363,14.53095],[120.30511,14.57529]]],[[[120.89079,12.36583],[120.73374,12.54972],[120.71096,12.65132],[120.54695,13.15283],[120.3405,13.38743],[120.64859,13.41351],[121.03918,13.408],[121.18067,13.33207],[121.30448,13.12905],[121.31684,12.74156],[121.27364,12.52547],[121.17733,12.39821],[121.09404,12.2011],[120.89079,12.36583]]],[[[125.06996,11.24402],[124.98977,11.35819],[124.88334,11.4342],[124.85421,11.49131],[124.91656,11.64392],[124.87549,11.83441],[124.62807,11.9927],[124.33041,12.20806],[124.26405,12.41756],[124.4945,12.46252],[124.95214,12.52703],[125.11907,12.47657],[125.24641,12.29261],[125.27773,11.92422],[125.33315,11.56223],[125.44869,11.20671],[125.39842,11.14943],[125.32305,11.12385],[125.06996,11.24402]]],[[[121.88314,10.62726],[121.96632,11.23098],[121.99364,11.75833],[122.21064,11.58091],[122.47016,11.45442],[122.63502,11.44206],[122.91992,11.52526],[122.93236,11.32835],[122.89682,11.15039],[122.78874,11.02945],[122.70619,10.94033],[122.29727,10.64721],[121.873,10.46841],[121.88314,10.62726]]],[[[118.69967,10.03591],[118.75656,10.16945],[118.84784,10.21412],[118.98916,10.39231],[119.10812,10.62763],[119.14522,10.9009],[119.207,11.12974],[119.35385,11.21264],[119.41674,11.13019],[119.34454,11.00297],[119.4689,10.75547],[119.56431,10.50156],[119.51552,10.45062],[119.21701,10.29115],[119.0338,10.12558],[118.86455,10.02356],[118.69967,10.03591]]],[[[122.7686,9.2124],[122.39563,9.47843],[122.30313,9.64978],[122.34745,9.81506],[122.6021,9.9109],[122.70074,10.03183],[122.92015,10.85184],[123.11762,10.93487],[123.23907,10.92242],[123.29034,10.86535],[123.31205,10.73834],[123.14427,10.33138],[123.10443,10.22965],[122.96222,9.59401],[123.03656,9.46076],[123.133,9.25131],[123.03713,9.06685],[122.94163,9.04759],[122.7686,9.2124]]],[[[117.12781,8.46958],[117.22448,8.68581],[117.37879,8.8958],[117.53589,9.04863],[117.80207,9.20803],[118.0885,9.43102],[118.50807,9.92114],[118.55771,9.67346],[118.50457,9.48275],[118.38455,9.34907],[118.27627,9.26624],[118.04425,9.17044],[117.96719,9.11309],[117.85714,8.8333],[117.71009,8.71227],[117.44409,8.63546],[117.27062,8.45083],[117.12781,8.46958]]],[[[125.95463,6.65247],[125.91082,6.84934],[125.74778,7.18572],[125.61458,7.23626],[125.44321,6.96269],[125.28044,6.59383],[125.39131,6.42252],[125.46598,6.24478],[125.53286,5.93994],[125.46145,5.71741],[125.28927,5.4883],[125.15203,5.60237],[125.07285,5.72292],[125.16346,5.90737],[125.12946,6.05344],[124.96577,6.08485],[124.803,5.78587],[124.72531,5.81113],[124.22406,6.08961],[123.97346,6.33686],[123.8806,6.56539],[123.86418,6.85127],[124.07358,7.25835],[124.02478,7.47427],[123.81526,7.65807],[123.46498,7.79073],[123.33368,7.77139],[123.30616,7.69508],[123.2479,7.5933],[123.02298,7.47845],[122.72541,7.4524],[122.71332,7.67475],[122.63507,7.78258],[122.45516,7.69325],[122.22834,7.26072],[121.99188,6.87263],[121.8936,6.91055],[121.83991,6.96761],[121.8245,7.05652],[121.84885,7.19636],[122.01049,7.53345],[122.09367,7.77507],[122.2117,7.90239],[122.38403,7.98536],[122.638,8.00496],[122.73632,8.06236],[122.7965,8.27216],[122.88877,8.34225],[123.13582,8.45079],[123.48587,8.49602],[123.61695,8.33746],[123.6628,8.01353],[123.80547,8.08373],[124.02394,8.10962],[124.11721,8.19241],[124.2104,8.44674],[124.3716,8.56145],[124.58719,8.46662],[124.67058,8.42869],[124.74164,8.91805],[124.87213,8.92469],[124.99087,8.71527],[125.13256,8.9316],[125.22485,8.99533],[125.40132,8.95124],[125.46097,9.05302],[125.4395,9.37064],[125.36229,9.6246],[125.42805,9.78358],[125.61384,9.53621],[125.93395,9.17475],[126.03709,8.95896],[126.07461,8.81292],[125.9232,8.48222],[126.02999,8.38079],[126.27188,8.42578],[126.3063,8.23526],[126.25449,8.04454],[126.27994,7.73327],[126.37268,7.53652],[126.37204,7.33956],[126.32173,7.14884],[126.19463,6.88806],[126.04524,6.60819],[125.95463,6.65247]]]]}},{"type":"Feature","properties":{"NAME":"Aboriginal Tasmanians","ABBREVN":"From Indus Valley","type":"culture","weblnks":"http://www.nationalgeographic.com.au/australia/four-thousand-years-ago-indians-landed-in-australia.aspx","SUBJECTO":"Aboriginal Tasmanians","BORDERPRECISION":1,"PARTOF":"Aboriginal Tasmanians"},"geometry":{"type":"MultiPolygon","coordinates":[[[[146.71273,-43.72181],[146.49713,-43.61905],[145.9669,-43.40729],[145.72265,-43.24017],[145.49386,-42.91843],[145.27937,-42.66768],[145.18251,-42.48117],[145.30096,-42.46162],[145.37702,-42.50653],[145.56631,-42.5834],[145.62429,-42.51892],[145.5305,-42.34531],[145.2142,-42.03066],[144.93605,-41.70971],[144.86892,-41.59413],[144.70011,-41.16399],[144.69688,-40.86219],[144.77613,-40.84276],[145.22802,-40.98311],[145.89189,-41.14232],[146.38221,-41.30835],[146.7407,-41.29478],[146.94914,-41.23012],[147.1206,-41.17839],[147.28858,-41.15235],[147.59635,-41.16459],[147.73382,-41.02944],[148.05589,-40.91965],[148.26953,-41.09258],[148.26568,-41.13755],[148.32305,-41.49723],[148.31925,-41.80581],[147.9812,-42.48201],[147.92567,-42.8234],[147.81532,-42.96535],[147.39067,-43.08218],[147.14172,-43.25669],[146.92144,-43.5666],[146.83598,-43.68932],[146.71273,-43.72181]]]]}},{"type":"Feature","properties":{"NAME":"Jōmon","ABBREVN":"Jōmon","type":"culture","weblnks":null,"SUBJECTO":"Jōmon","BORDERPRECISION":1,"PARTOF":"Jōmon"},"geometry":{"type":"MultiPolygon","coordinates":[[[[139.4226,35.16551],[139.20864,35.16507],[139.05291,35.02489],[139.02284,34.68834],[138.86383,34.56743],[138.77944,34.57995],[138.74983,34.6497],[138.75103,34.92265],[138.68374,34.99234],[138.58897,34.97309],[138.45016,34.90299],[138.29521,34.76303],[138.14906,34.52788],[137.75918,34.55247],[137.53175,34.52662],[137.24823,34.48161],[137.04179,34.72874],[136.73385,34.87409],[136.61694,34.7596],[136.58659,34.67703],[136.50706,34.51818],[136.52368,34.49281],[136.71134,34.40434],[136.89859,34.25873],[136.76687,34.1696],[136.39376,34.11171],[136.19923,34.00339],[135.99099,33.72367],[135.75567,33.34232],[135.44601,33.50672],[135.19151,33.60142],[135.06292,33.69002],[135.05696,33.76619],[134.96925,34.13417],[135.01397,34.20409],[135.23674,34.35054],[135.31703,34.47131],[135.28681,34.59819],[135.20571,34.61708],[134.93568,34.54035],[134.78247,34.55274],[134.42732,34.62818],[134.2135,34.57062],[134.02172,34.46867],[133.8253,34.38574],[133.70426,34.42993],[133.58914,34.44237],[132.84773,34.26313],[132.48118,34.12909],[132.38665,34.26854],[132.18348,34.28717],[131.99731,34.09001],[131.99496,33.80434],[131.65487,33.91156],[131.39416,33.93642],[130.89904,33.90367],[130.77932,33.9669],[130.81163,34.11931],[130.89233,34.24644],[131.10977,34.24054],[131.3341,34.29177],[131.67228,34.50195],[132.66285,35.38063],[132.78869,35.38725],[132.98077,35.44487],[133.00621,35.25415],[133.22862,35.31184],[133.80406,35.42748],[134.22357,35.45377],[134.75584,35.53117],[135.15698,35.64647],[135.18804,35.44301],[135.35766,35.32254],[135.43248,35.36084],[135.72711,35.45048],[135.92803,35.60352],[135.92652,35.76253],[135.97789,35.97255],[136.18727,36.202],[136.50152,36.46351],[136.6685,36.6675],[136.64042,37.17028],[136.72186,37.26593],[136.81085,37.31068],[137.30964,37.43265],[137.33493,37.27354],[137.11817,37.14577],[137.01377,37.03735],[136.98303,36.83361],[137.04533,36.66826],[137.1762,36.64307],[137.27592,36.69419],[137.46403,36.85368],[137.57182,36.89208],[137.8875,37.02481],[139.5384,35.29032],[139.4226,35.16551]]],[[[132.46705,32.75788],[132.42186,32.92918],[132.34257,33.10677],[132.12112,33.34755],[132.44995,33.51961],[132.57937,33.64049],[132.78431,33.90752],[132.96868,33.79364],[133.24548,33.80056],[133.46292,33.88352],[133.60301,34.03616],[133.80564,34.17622],[134.01023,34.18933],[134.15267,34.11346],[134.54042,34.0127],[134.60977,33.89858],[134.56475,33.84135],[134.51913,33.65082],[134.38769,33.54264],[133.99859,33.14827],[133.91749,33.24332],[133.72689,33.37624],[133.51652,33.39485],[133.24098,33.29906],[133.15415,33.21637],[133.04386,32.99395],[132.96968,32.76526],[132.90069,32.6699],[132.69876,32.54886],[132.56758,32.63747],[132.46705,32.75788]]],[[[130.57931,30.90655],[130.55413,30.96998],[130.67454,31.21149],[130.73246,31.47825],[130.58192,31.52874],[130.47444,31.43963],[130.4044,31.22998],[130.23294,31.02646],[130.08627,31.12139],[130.06011,31.21656],[130.20515,31.42637],[130.21933,31.55972],[130.05888,31.97206],[130.13494,32.023],[130.44396,32.28393],[130.48117,32.3475],[130.49653,32.55702],[130.2574,32.91204],[130.10752,32.93078],[130.03459,32.81],[129.84591,32.58742],[129.73373,32.63798],[129.63034,32.86631],[129.46087,32.98658],[129.34338,33.15139],[129.52804,33.29777],[129.85826,33.26037],[130.17616,33.3372],[130.31767,33.54699],[130.42657,33.67417],[130.6444,33.7],[130.85948,33.67506],[130.97111,33.50389],[131.09251,33.42796],[131.28604,33.39026],[131.56875,33.48606],[131.66983,33.30853],[131.41355,33.11122],[131.59562,33.00367],[131.79528,32.80728],[131.83099,32.69309],[131.563,32.43225],[131.45362,32.24793],[131.40686,32.08277],[131.36874,31.80336],[131.31929,31.51121],[131.21063,31.35227],[131.12312,31.30764],[131.04879,31.27575],[130.95968,31.19303],[130.74401,30.88783],[130.57931,30.90655]]]]}},{"type":"Feature","properties":{"NAME":"Norte Chico","ABBREVN":"Norte Chico","type":"state society","weblnks":null,"SUBJECTO":"Norte Chico","BORDERPRECISION":1,"PARTOF":"Norte Chico"},"geometry":{"type":"MultiPolygon","coordinates":[[[[-78.26179,-9.74242],[-76.38792,-9.70568],[-74.61742,-9.97806],[-73.36444,-10.93141],[-72.16595,-12.94706],[-72.00252,-14.30899],[-72.22043,-15.42577],[-73.1174,-16.45729],[-73.28298,-16.36735],[-73.6726,-16.19666],[-74.04964,-16.04499],[-74.62143,-15.66502],[-75.23091,-15.2216],[-75.78529,-14.72724],[-76.05259,-14.41015],[-76.24178,-14.1056],[-76.23821,-13.90863],[-76.23803,-13.50202],[-76.35918,-13.22908],[-76.64871,-12.84232],[-76.71058,-12.75968],[-76.72494,-12.73095],[-77.33551,-11.50939],[-77.46394,-11.38895],[-77.67389,-11.2941],[-77.70725,-11.25605],[-77.68254,-11.01456],[-77.69161,-10.83667],[-77.75875,-10.65892],[-77.99173,-10.23445],[-78.26179,-9.74242]]]]}},{"type":"Feature","properties":{"NAME":"city-states","ABBREVN":"city-states","type":null,"weblnks":null,"SUBJECTO":"city-states","BORDERPRECISION":1,"PARTOF":"city-states"},"geometry":{"type":"MultiPolygon","coordinates":[[[[43.2945,35.66859],[42.77166,35.72267],[41.15407,35.12672],[40.81353,34.19022],[40.95591,33.43478],[39.19593,33.59426],[37.23779,33.84967],[35.71621,34.31237],[35.82101,34.34378],[35.87307,34.42229],[35.85192,34.49295],[35.75075,34.74681],[35.80885,35.0138],[35.84138,35.04263],[35.79643,35.27072],[35.60734,35.41754],[35.66396,35.4595],[35.68043,35.52767],[35.73318,35.58536],[35.69143,35.68502],[35.7395,35.69027],[35.85594,35.8345],[35.82905,35.88478],[35.7185,36.09156],[35.66495,36.13353],[35.70863,36.21223],[35.81414,36.29849],[35.81724,36.30103],[36.09526,36.48246],[36.10452,36.56117],[36.08243,36.62153],[38.08916,37.4254],[40.47298,37.85109],[41.97614,37.68407],[42.00544,37.68081],[42.94194,36.4889],[43.2945,35.66859]]]]}},{"type":"Feature","properties":{"NAME":"Ur","ABBREVN":"Ur","type":"state society","weblnks":null,"SUBJECTO":"Ur","BORDERPRECISION":1,"PARTOF":"Ur"},"geometry":{"type":"MultiPolygon","coordinates":[[[[50.13237,30.06643],[49.71785,30.00205],[49.51097,30.02068],[49.45236,30.07773],[49.32136,30.10286],[49.23508,30.22338],[49.22223,30.47746],[49.02017,30.43257],[48.94572,30.38794],[48.80133,30.08273],[48.71384,29.99996],[48.55365,29.99462],[48.51058,29.99319],[48.21185,29.94809],[48.02828,29.97312],[47.95715,29.94756],[47.91136,29.89029],[47.93592,29.80141],[47.99603,29.49026],[47.84491,29.50315],[47.61404,29.27224],[41.94978,32.20855],[41.05768,32.89478],[40.95591,33.43478],[40.81353,34.19022],[41.15407,35.12672],[42.77166,35.72267],[43.2945,35.66859],[45.24062,35.46726],[45.61539,35.16276],[46.60281,34.36049],[49.30673,31.81562],[49.49745,31.63612],[50.13237,30.06643]]]]}},{"type":"Feature","properties":{"NAME":"Elam","ABBREVN":"Elam","type":null,"weblnks":null,"SUBJECTO":"Elam","BORDERPRECISION":1,"PARTOF":"Elam"},"geometry":{"type":"MultiPolygon","coordinates":[[[[55.80532,27.00509],[55.65757,26.99695],[55.4249,26.96311],[55.34009,26.79935],[55.09813,26.73744],[54.92553,26.53803],[54.75988,26.41063],[54.64606,26.39132],[54.06494,26.70138],[53.63394,26.74794],[53.38068,26.90959],[52.89083,27.05232],[52.77987,27.18785],[52.63378,27.3146],[52.41039,27.58096],[51.96155,27.77695],[51.69886,27.81452],[51.6113,27.82704],[51.35013,28.03613],[51.08226,28.51202],[50.79676,29.01329],[50.70246,29.13378],[50.70472,29.40061],[50.35984,29.74293],[50.13237,30.06643],[49.49745,31.63612],[49.30673,31.81562],[54.00968,30.35908],[56.56377,29.67798],[57.84082,28.99689],[58.18137,28.06039],[58.35164,27.46444],[58.36868,25.54788],[58.10964,25.54732],[57.90045,25.54089],[57.80509,25.64833],[57.46488,25.70479],[57.32798,25.78709],[57.25477,25.79329],[57.24507,26.01846],[57.1124,26.07619],[57.06634,26.30747],[56.93498,26.46454],[56.92909,26.75187],[56.79043,26.97391],[56.68355,26.96836],[56.66782,27.0499],[56.43095,27.10657],[56.06777,27.11217],[55.89973,27.1048],[55.80532,27.00509]]]]}},{"type":"Feature","properties":{"NAME":"Khoisan","ABBREVN":"Khoisan","type":null,"weblnks":"https://en.wikipedia.org/wiki/Khoisan","SUBJECTO":"Khoisan","BORDERPRECISION":1,"PARTOF":"Khoisan"},"geometry":{"type":"MultiPolygon","coordinates":[[[[13.4777,-8.48561],[39.43894,-7.92393],[39.47773,-7.99765],[39.40043,-8.30921],[39.39183,-8.73502],[39.57677,-9.54171],[39.65761,-9.79574],[39.83822,-10.00506],[40.20879,-10.25211],[40.38687,-10.37248],[40.46619,-10.47526],[40.52401,-10.55012],[40.61952,-10.76599],[40.53641,-11.02673],[40.40044,-11.23039],[40.31134,-11.34497],[40.39252,-11.54817],[40.45038,-11.87215],[40.44549,-12.08189],[40.52702,-12.58378],[40.48177,-12.84444],[40.36584,-12.99086],[40.53394,-13.30827],[40.60333,-13.53055],[40.60086,-14.03262],[40.59921,-14.40124],[40.61833,-14.48381],[40.70134,-14.54084],[40.84862,-14.57865],[40.85544,-14.69938],[40.78104,-14.92198],[40.52744,-15.1831],[40.61016,-15.35452],[40.57407,-15.4817],[40.3858,-15.73633],[40.02516,-16.14384],[39.79506,-16.42397],[39.47126,-16.71702],[38.85897,-17.05516],[38.19268,-17.34893],[37.86389,-17.45133],[37.27532,-17.71316],[36.89233,-17.99997],[36.31359,-18.64946],[35.91478,-19.03164],[35.37789,-19.42682],[34.84679,-19.80293],[34.7262,-19.86038],[34.7103,-20.29258],[34.67332,-20.51511],[34.69902,-20.57225],[35.02254,-20.81307],[35.10715,-20.98449],[35.03267,-21.18803],[34.99419,-21.27073],[35.20165,-21.95032],[35.23385,-22.20448],[35.26076,-22.27433],[35.37144,-22.28045],[35.44829,-22.22309],[35.51176,-22.18482],[35.53088,-22.45807],[35.42541,-23.45611],[35.29743,-23.82501],[35.444,-23.91367],[35.51223,-23.93895],[35.50087,-24.08517],[35.43009,-24.22513],[35.19803,-24.47984],[34.88372,-24.72202],[34.5848,-24.87518],[34.01503,-25.0607],[33.65691,-25.20127],[33.34727,-25.30361],[32.94486,-25.53962],[32.6511,-25.83896],[32.49971,-26.06809],[32.63101,-26.22034],[32.89596,-26.37233],[32.91597,-26.51846],[32.88739,-26.71505],[32.84904,-26.97888],[32.76723,-27.51663],[32.60903,-27.89831],[32.52743,-27.9811],[32.34548,-28.02598],[32.30344,-28.13411],[32.39325,-28.37545],[32.34622,-28.58529],[32.23474,-28.74442],[31.97833,-28.94835],[31.56308,-29.2098],[31.32681,-29.50941],[31.29699,-29.54721],[30.6749,-30.43834],[30.48716,-30.68672],[30.39101,-30.81393],[30.29479,-30.92022],[29.83187,-31.43162],[29.29514,-31.90943],[29.08636,-32.12671],[28.92185,-32.29791],[28.27692,-32.76323],[27.65636,-33.25392],[27.40815,-33.42601],[26.96297,-33.71298],[26.65866,-33.84707],[26.30665,-33.89229],[25.86573,-33.88683],[25.61852,-33.91912],[25.5591,-34.07815],[25.56506,-34.13534],[25.51586,-34.17358],[25.31367,-34.1295],[25.06467,-34.0728],[24.92859,-34.07945],[24.81607,-34.16864],[24.69349,-34.30873],[24.59222,-34.35979],[24.42994,-34.3347],[24.08467,-34.15109],[23.74292,-34.07551],[23.49922,-34.06966],[23.35976,-34.1208],[23.18892,-34.2419],[22.97186,-34.19785],[22.68178,-34.10312],[22.58853,-34.13458],[22.54913,-34.14788],[22.26213,-34.16753],[21.99722,-34.26341],[21.6693,-34.50561],[21.34551,-34.5444],[21.14706,-34.53845],[20.84691,-34.50092],[20.51483,-34.53339],[20.25607,-34.62289],[19.88381,-34.99229],[19.32089,-34.73286],[19.27935,-34.50413],[19.18137,-34.42172],[18.96636,-34.39673],[18.84006,-34.43512],[18.72424,-34.21927],[18.57027,-34.19417],[18.50307,-34.3087],[18.48716,-34.39772],[18.34633,-34.34716],[18.29292,-34.24558],[18.41277,-34.02288],[18.45908,-33.83213],[18.07305,-33.22279],[17.92774,-33.09597],[17.86761,-32.99441],[17.94546,-32.91798],[18.23151,-32.89832],[18.3087,-32.70751],[18.33569,-32.33882],[18.26231,-32.04027],[18.17856,-31.8053],[17.90387,-31.29107],[17.56654,-30.82782],[17.43211,-30.57048],[17.35429,-30.42151],[17.07853,-29.79927],[16.7883,-29.13892],[16.53016,-28.77085],[16.33421,-28.5608],[16.12818,-28.33954],[15.65979,-27.8893],[15.4538,-27.61646],[15.29195,-27.15286],[15.13691,-26.82907],[15.07561,-26.60677],[15.12991,-26.48591],[15.15325,-26.33335],[14.94742,-26.00966],[14.84333,-25.62222],[14.9098,-25.23442],[14.90904,-25.01835],[14.66757,-24.42148],[14.44404,-23.41169],[14.409,-23.25271],[14.39609,-23.07479],[14.52443,-22.94107],[14.57006,-22.75814],[14.57677,-22.73125],[14.53272,-22.4962],[14.41547,-22.26767],[13.95757,-21.69034],[13.80365,-21.44282],[13.30755,-20.47157],[12.9294,-19.74156],[12.52433,-19.06244],[12.07951,-18.49144],[11.84974,-18.02167],[11.79468,-17.84386],[11.77461,-17.59605],[11.78128,-17.33602],[11.80263,-16.52201],[11.79518,-16.15981],[11.782,-15.86751],[11.9607,-15.71462],[12.06003,-15.59366],[12.17723,-15.27566],[12.2506,-14.94506],[12.30092,-14.56019],[12.33288,-14.31575],[12.44073,-13.87704],[12.58539,-13.46366],[12.84809,-13.16442],[12.93046,-12.91004],[13.05074,-12.75091],[13.33857,-12.64862],[13.45904,-12.5022],[13.64904,-12.19676],[13.81323,-11.65625],[13.83707,-11.35752],[13.81629,-10.97627],[13.72988,-10.54433],[13.63945,-10.30304],[13.41803,-9.98578],[13.20385,-9.63673],[13.08376,-9.28749],[13.14586,-9.06493],[13.36017,-8.89289],[13.43143,-8.82283],[13.47953,-8.63209],[13.4777,-8.48561]]]]}},{"type":"Feature","properties":{"NAME":"Egypt","ABBREVN":"Egypt","type":null,"weblnks":null,"SUBJECTO":"Egypt","BORDERPRECISION":1,"PARTOF":"Egypt"},"geometry":{"type":"MultiPolygon","coordinates":[[[[32.64796,29.8522],[32.43838,29.77552],[32.31849,29.5402],[33.41938,26.27963],[33.73726,24.49954],[33.34532,23.35404],[31.27824,19.97243],[30.59715,19.80215],[30.17147,19.97243],[30.00119,21.0792],[30.42688,22.78193],[30.68103,23.60792],[31.10797,24.99548],[30.93998,25.96175],[30.74925,26.72465],[30.04993,27.99614],[29.85921,29.64908],[29.35938,30.81107],[29.6831,31.05317],[30.09914,31.23193],[30.47606,31.31529],[30.82706,31.43674],[30.99596,31.46885],[31.15138,31.44375],[31.39227,31.44426],[31.71742,31.38775],[31.80812,31.17828],[32.07651,31.01365],[32.30938,31.08402],[32.59724,30.9639],[32.76873,30.95155],[33.02139,31.13207],[33.12957,31.05169],[33.2546,31.02653],[33.5576,30.96772],[32.64796,29.8522]]]]}},{"type":"Feature","properties":{"NAME":"Indus valley civilization","ABBREVN":"Indus valley","type":"civilization","weblnks":null,"SUBJECTO":"Indus valley civilization","BORDERPRECISION":1,"PARTOF":"Indus valley civilization"},"geometry":{"type":"MultiPolygon","coordinates":[[[[72.69562,22.12854],[72.31905,22.11503],[72.23298,22.01955],[72.12714,21.82874],[72.13104,21.74618],[72.25569,21.63208],[72.289,21.54957],[72.2562,21.35256],[72.12086,21.15534],[71.89443,20.98968],[71.52893,20.82373],[71.30259,20.77243],[71.02445,20.65748],[70.85505,20.65076],[70.46748,20.777],[70.20995,20.94798],[69.75222,21.39807],[69.12606,21.96851],[68.89418,22.28566],[69.01423,22.30497],[69.49224,22.24881],[69.76917,22.28751],[69.96852,22.35146],[70.1762,22.47896],[70.41056,22.75262],[70.38065,22.86056],[70.31022,22.82864],[70.04595,22.77726],[69.66489,22.78916],[69.39182,22.8394],[69.1072,22.8989],[68.88241,22.99715],[68.79081,23.02872],[68.37294,23.32642],[68.07218,23.67519],[68.047,23.76407],[67.69232,23.81416],[67.48603,23.92806],[67.31589,24.09289],[67.20423,24.58817],[67.1536,24.65159],[66.99954,24.71478],[66.70172,24.75228],[66.65422,24.78394],[66.64811,24.90462],[66.7005,25.11438],[66.62051,25.31749],[66.43233,25.48861],[66.30009,25.49469],[65.7688,25.30934],[65.21567,25.27006],[64.85119,25.20576],[64.42498,25.17312],[64.23826,25.21083],[64.12007,25.31223],[64.05922,25.40103],[63.65033,25.33665],[63.40353,25.1646],[63.01806,25.15744],[63.29305,26.87757],[64.81299,28.51443],[67.61903,28.9821],[69.02205,31.08664],[70.77583,32.02198],[73.69879,32.1389],[78.8432,30.73588],[79.19396,30.03437],[78.8432,28.63135],[72.29577,28.9821],[70.30815,28.04676],[69.72356,26.99449],[70.07432,25.47455],[72.5296,24.42228],[73.23112,23.72077],[72.69562,22.12854]]]]}},{"type":"Feature","properties":{"NAME":"Hurrian Kingdoms","ABBREVN":"Hurrian Kingdoms","type":"kingdoms","weblnks":null,"SUBJECTO":"Hurrian Kingdoms","BORDERPRECISION":1,"PARTOF":"Hurrian Kingdoms"},"geometry":{"type":"MultiPolygon","coordinates":[[[[41.97614,37.68407],[42.24038,38.45184],[42.5989,38.42039],[42.81905,38.42039],[42.9134,38.30088],[43.24048,38.2883],[44.27203,37.84801],[45.5992,36.6655],[46.19675,36.38874],[46.5364,35.84781],[45.92628,35.33832],[45.61539,35.16276],[45.24062,35.46726],[43.2945,35.66859],[42.94194,36.4889],[42.00544,37.68081],[41.97614,37.68407]]]]}},{"type":"Feature","properties":{"NAME":"Valdivia","ABBREVN":"Valdivia","type":"complex farming society / chiefdom","weblnks":null,"SUBJECTO":"Valdivia","BORDERPRECISION":1,"PARTOF":"Valdivia"},"geometry":{"type":"MultiPolygon","coordinates":[[[[-78.61407,2.11921],[-75.89808,0.84609],[-77.12131,-0.48351],[-77.17449,-1.28127],[-79.76018,-2.78567],[-79.74477,-2.67625],[-79.83896,-2.34603],[-79.81302,-2.17048],[-80.02786,-2.44811],[-80.35726,-2.72842],[-80.50733,-2.68425],[-80.77762,-2.5387],[-80.96105,-2.35481],[-80.78616,-2.22734],[-80.74119,-2.11922],[-80.81634,-1.85886],[-80.81378,-1.66187],[-80.7539,-1.45204],[-80.80301,-1.32506],[-80.96611,-1.03311],[-80.87936,-0.95667],[-80.66321,-0.86724],[-80.33885,-0.66318],[-80.48227,-0.48557],[-80.48216,-0.3839],[-80.40313,-0.22486],[-80.17984,-0.01697],[-80.10896,0.04903],[-80.04624,0.43044],[-80.09817,0.63367],[-80.13488,0.71621],[-80.08556,0.818],[-79.77688,0.86314],[-79.37601,1.01653],[-79.19764,1.12495],[-78.98431,1.29699],[-78.94348,1.3808],[-78.92853,1.4115],[-78.98113,1.55118],[-79.06247,1.67811],[-79.01388,1.77353],[-78.78476,1.82487],[-78.57527,1.77448],[-78.49183,1.92083],[-78.61407,2.11921]]]]}},{"type":"Feature","properties":{"NAME":"Kerma","ABBREVN":"Kerma","type":"culture","weblnks":null,"SUBJECTO":"Kerma","BORDERPRECISION":1,"PARTOF":"Kerma"},"geometry":{"type":"MultiPolygon","coordinates":[[[[31.05506,19.91663],[30.99397,19.37446],[30.99397,18.59451],[31.35879,18.61967],[31.73618,19.12287],[32.1639,19.50026],[32.64194,19.90282],[33.42189,20.12926],[33.86218,19.8525],[33.96282,19.23609],[34.2899,18.55677],[34.51634,17.99068],[33.44705,17.81456],[33.37157,18.02842],[32.99417,18.65741],[32.51614,18.28002],[32.05068,17.76424],[31.39653,17.44974],[30.52852,17.6007],[29.88694,18.35549],[29.94984,19.33672],[30.17072,19.97727],[30.17147,19.97243],[30.59715,19.80215],[31.05506,19.91663]]]]}},{"type":"Feature","properties":{"NAME":"Hunters-gatherers","ABBREVN":"Hunters-gatherers","type":null,"weblnks":null,"SUBJECTO":"Hunters-gatherers","BORDERPRECISION":1,"PARTOF":"Hunters-gatherers"},"geometry":{"type":"MultiPolygon","coordinates":[[[[44.6722,-16.23558],[44.91735,-16.20327],[45.19694,-16.03743],[45.27778,-16.04997],[45.43355,-16.09412],[45.55457,-16.05573],[45.73227,-15.8901],[46.14228,-15.82568],[46.28194,-15.95249],[46.4192,-15.93948],[46.46436,-15.85677],[46.38755,-15.69169],[46.73442,-15.44943],[46.92457,-15.36005],[47.06953,-15.46143],[47.24464,-15.36571],[47.10613,-15.14357],[47.19931,-15.01626],[47.42627,-14.8251],[47.52952,-14.95835],[47.63287,-14.98355],[47.88372,-14.71608],[47.81255,-14.62726],[47.69896,-14.44319],[47.74116,-14.30964],[47.85039,-14.31576],[47.97167,-14.28372],[48.04899,-14.13103],[47.91555,-13.73728],[47.94246,-13.58469],[48.05727,-13.56537],[48.10995,-13.59704],[48.2236,-13.79381],[48.34961,-13.83803],[48.43965,-13.65353],[48.75134,-13.41771],[48.85724,-13.25224],[48.91746,-13.04874],[48.99329,-12.73716],[48.93342,-12.5784],[48.93483,-12.47671],[49.17633,-12.26647],[49.3366,-12.41229],[49.54175,-12.7042],[49.81719,-12.83071],[49.88047,-12.91956],[49.97619,-13.30068],[50.10845,-14.12025],[50.1502,-14.41886],[50.25442,-14.77455],[50.43015,-15.10466],[50.50334,-15.31423],[50.4863,-15.47952],[50.4551,-15.5495],[50.42933,-15.59404],[50.18732,-15.95683],[50.08852,-15.89984],[50.00356,-15.73477],[49.75376,-15.39847],[49.62028,-15.46231],[49.59774,-15.65302],[49.68498,-16.04688],[49.86275,-16.28166],[49.89824,-16.45955],[49.76034,-16.74585],[49.42471,-17.19781],[49.40464,-17.40123],[49.42284,-17.8016],[49.34185,-18.22762],[49.02306,-19.18165],[48.65166,-20.33921],[48.08738,-22.04376],[47.4916,-24.05983],[47.25848,-24.76583],[47.17381,-24.88042],[46.94546,-25.16692],[46.85506,-25.21795],[46.2391,-25.26374],[45.7895,-25.41088],[45.57618,-25.62108],[45.21051,-25.65998],[45.04681,-25.45058],[44.95852,-25.3872],[44.713,-25.30509],[44.54635,-25.33722],[44.42533,-25.31205],[44.03676,-24.98872],[43.98976,-24.88077],[43.98099,-24.62656],[43.93417,-24.51861],[43.72719,-24.35379],[43.67141,-24.22679],[43.67171,-23.90265],[43.82708,-23.41292],[43.78473,-23.26683],[43.65537,-23.05101],[43.37636,-22.63213],[43.29126,-22.40985],[43.32483,-22.11107],[43.50103,-21.49419],[43.60322,-21.39863],[43.81647,-21.31556],[44.16165,-20.69831],[44.47034,-20.17014],[44.5171,-20.02385],[44.58539,-19.52797],[44.53574,-19.36917],[44.4105,-19.26776],[44.25101,-19.10284],[44.28093,-19.02016],[44.39422,-18.79112],[44.15953,-18.40391],[44.10704,-18.09897],[44.07576,-17.87658],[43.97165,-17.55268],[43.98252,-17.50181],[44.215,-17.18988],[44.37802,-16.92261],[44.45145,-16.72542],[44.45443,-16.2424],[44.6722,-16.23558]]],[[[8.81956,38.97691],[8.6961,38.99581],[8.58238,39.06577],[8.41717,39.2122],[8.37422,39.30785],[8.46503,39.63994],[8.50848,39.94648],[8.48798,40.2088],[8.42819,40.46485],[8.20155,40.663],[8.15949,40.78468],[8.24071,40.85534],[8.40555,40.86208],[8.76607,40.8628],[8.91842,40.94002],[9.3062,41.18445],[9.59085,40.90291],[9.79374,40.56368],[9.78785,40.44196],[9.69572,40.31369],[9.6308,40.09586],[9.69801,39.6935],[9.64834,39.45721],[9.47892,39.14416],[9.29628,39.23312],[9.06254,39.21989],[8.99852,39.17509],[8.93137,39.0537],[8.81956,38.97691]]]]}},{"type":"Feature","properties":{"NAME":"Namazga","ABBREVN":"Namazga","type":null,"weblnks":null,"SUBJECTO":"Namazga","BORDERPRECISION":1,"PARTOF":"Namazga"},"geometry":{"type":"MultiPolygon","coordinates":[[[[58.41621,37.76402],[59.10211,38.47503],[60.05999,39.07954],[61.10549,38.9368],[61.13089,38.98634],[62.58393,38.28433],[62.09738,37.02041],[61.60686,36.82371],[60.39449,36.33756],[58.84363,36.77723],[58.41621,37.76402]]]]}},{"type":"Feature","properties":{"NAME":"Minoan","ABBREVN":"Minoan","type":"culture","weblnks":null,"SUBJECTO":"Minoan","BORDERPRECISION":1,"PARTOF":"Minoan"},"geometry":{"type":"MultiPolygon","coordinates":[[[[24.69347,34.94047],[24.71564,35.03477],[24.69007,35.09244],[24.32436,35.20779],[24.0132,35.21041],[23.78559,35.26285],[23.56772,35.25498],[23.51313,35.27596],[23.46689,35.31791],[23.52944,35.56963],[23.67147,35.57225],[23.66909,35.61158],[23.66513,35.66666],[23.69666,35.69812],[23.73368,35.62732],[23.74288,35.56176],[23.87945,35.55242],[23.95681,35.52767],[24.039,35.56176],[24.03326,35.59847],[24.08186,35.61158],[24.15268,35.56438],[24.13582,35.52243],[24.09146,35.5198],[24.07332,35.4962],[24.1132,35.48572],[24.17774,35.46999],[24.2197,35.449],[24.2296,35.39132],[24.38828,35.37297],[24.76857,35.42803],[24.99748,35.42102],[25.0136,35.36248],[25.10009,35.34675],[25.37402,35.31791],[25.51164,35.29477],[25.67321,35.34937],[25.71353,35.32701],[25.66847,35.18682],[25.7418,35.137],[25.78897,35.137],[25.93549,35.21304],[26.06415,35.23925],[26.09935,35.21565],[26.16883,35.24711],[26.27351,35.31266],[26.23604,35.22876],[26.24267,35.14487],[26.16049,35.02428],[25.89868,35.04526],[25.74174,35.00885],[25.59072,35.01642],[24.69347,34.94047]]]]}},{"type":"Feature","properties":{"NAME":"Ainu","ABBREVN":"Ainu","type":"culture","weblnks":null,"SUBJECTO":"Ainu","BORDERPRECISION":1,"PARTOF":"Ainu"},"geometry":{"type":"MultiPolygon","coordinates":[[[[140.01261,41.38181],[139.97775,41.50347],[140.12449,41.79215],[140.0997,41.94597],[139.85249,42.03525],[139.7772,42.11205],[139.71174,42.4776],[139.97396,42.6514],[140.20896,42.7289],[140.49983,42.89641],[140.51683,43.057],[140.37356,43.18519],[140.49824,43.32036],[140.59892,43.32699],[140.89656,43.13483],[141.06417,43.09663],[141.30365,43.18703],[141.30192,43.72047],[141.50669,43.80445],[141.70942,43.91419],[141.74269,44.24879],[141.74572,44.62857],[141.5666,44.96957],[141.52278,45.18263],[141.59742,45.27972],[141.87533,45.43542],[141.90396,45.40314],[142.13218,45.20968],[142.53904,44.84265],[143.0205,44.46368],[143.50817,44.15576],[143.79023,44.02764],[144.0281,43.95093],[144.4866,43.86181],[144.61383,43.84276],[144.75044,43.88161],[145.13999,44.17828],[145.34761,44.24304],[145.3486,44.19799],[145.2099,44.03689],[145.05938,43.78577],[145.14857,43.5995],[145.35955,43.32999],[145.44813,43.16956],[145.19592,43.04702],[144.99469,42.93744],[144.75416,42.86633],[144.59019,42.85958],[144.37011,42.94905],[144.16639,42.94223],[144.00285,42.87769],[143.84793,42.77465],[143.50859,42.42098],[143.33038,42.19611],[143.21376,41.92654],[143.0335,41.95823],[142.84231,42.06685],[141.92813,42.50126],[141.721,42.53935],[141.39691,42.51944],[140.92962,42.25546],[140.8607,42.39004],[140.69352,42.55014],[140.54087,42.537],[140.42146,42.48543],[140.22344,42.36311],[140.24552,42.22844],[140.76766,42.00501],[141.01947,41.87086],[141.15504,41.74934],[140.97927,41.65285],[140.84342,41.63976],[140.70597,41.69717],[140.58888,41.67771],[140.4429,41.53643],[140.2686,41.32467],[140.11245,41.27311],[140.01261,41.38181]]],[[[137.8875,37.02481],[138.31724,37.20551],[138.49203,37.30135],[138.69897,37.4482],[138.85615,37.73506],[139.19793,37.92043],[139.35388,38.06724],[139.43985,38.18844],[139.47814,38.32554],[139.50393,38.41788],[139.74572,38.67958],[139.74142,38.7433],[139.89608,38.9985],[139.96794,39.20897],[140.03009,39.48318],[140.01109,39.69351],[139.86213,39.78247],[139.80464,39.89075],[139.91035,39.98661],[139.98503,40.11462],[139.91516,40.57495],[140.15972,40.72901],[140.23912,40.83799],[140.38641,40.9855],[140.4728,40.98568],[140.56716,40.82583],[140.65698,40.72361],[140.79335,40.74949],[141.15255,40.86542],[141.07664,41.10214],[140.93682,41.11466],[140.7745,41.25523],[141.08702,41.44162],[141.28579,41.37154],[141.43688,41.26936],[141.4483,41.17971],[141.4412,40.78918],[141.46714,40.51409],[141.56625,40.45672],[141.67561,40.31622],[141.99812,39.67199],[141.99852,39.44888],[141.88783,39.12997],[141.56858,38.78521],[141.4671,38.58749],[141.49639,38.4219],[141.42874,38.38992],[141.09666,38.26184],[141.02447,38.21074],[140.95059,38.12141],[140.87222,37.91745],[140.88087,37.73915],[140.92323,37.62462],[140.9822,37.2682],[140.96394,36.95626],[140.6556,36.61831],[140.54663,36.28722],[140.55545,35.96914],[140.64476,35.83575],[140.83425,35.67712],[140.55686,35.54301],[140.4699,35.48559],[140.39494,35.40912],[140.31662,35.03382],[139.93157,34.87724],[139.80778,35.00731],[139.92047,35.2619],[140.00289,35.49736],[139.91371,35.55441],[139.68267,35.44583],[139.5384,35.29032],[137.8875,37.02481]]]]}},{"type":"Feature","properties":{"NAME":"Cycladic","ABBREVN":"Cycladic","type":"culture","weblnks":null,"SUBJECTO":"Cycladic","BORDERPRECISION":1,"PARTOF":"Cycladic"},"geometry":{"type":"MultiPolygon","coordinates":[[[[25.73594,36.38654],[25.78916,36.40489],[25.87278,36.35593],[25.76635,36.33756],[25.71314,36.34981],[25.73594,36.38654]]],[[[25.33302,36.45994],[25.37104,36.49662],[25.49267,36.42325],[25.49267,36.33144],[25.38624,36.31919],[25.31782,36.39877],[25.33302,36.45994]]],[[[25.75115,36.81376],[25.85758,36.8381],[25.9488,36.91107],[26.02483,36.95969],[26.08564,36.89892],[25.95641,36.84418],[25.83477,36.78332],[25.75115,36.78332],[25.75115,36.81376]]],[[[24.29912,36.75287],[24.42836,36.7955],[24.58801,36.86851],[24.67923,36.75896],[24.46637,36.64925],[24.29912,36.75287]]],[[[24.82368,36.63705],[24.82368,36.66145],[24.87689,36.67974],[24.97572,36.63705],[24.94531,36.56992],[24.82368,36.63705]]],[[[25.04414,36.66145],[25.16578,36.74069],[25.19618,36.67364],[25.10496,36.63705],[25.05934,36.61875],[25.04414,36.66145]]],[[[25.2418,36.75287],[25.2494,36.75896],[25.29501,36.80767],[25.43185,36.69803],[25.38624,36.63705],[25.2646,36.70413],[25.2418,36.75287]]],[[[24.42836,37.20834],[24.53479,37.11746],[24.44356,37.09927],[24.42836,37.20834]]],[[[24.29912,37.66108],[24.39795,37.66709],[24.38275,37.57075],[24.26111,37.54061],[24.29912,37.66108]]],[[[24.39795,37.46824],[24.48918,37.3958],[24.35994,37.30515],[24.35994,37.3958],[24.39795,37.46824]]],[[[24.86169,37.52856],[24.94531,37.51047],[25.04414,37.37768],[24.84648,37.3656],[24.86169,37.52856]]],[[[24.65643,37.90141],[24.76286,38.00332],[25.27221,37.56472],[25.46986,37.43807],[25.31782,37.40184],[24.9225,37.69116],[24.65643,37.90141]]],[[[24.64882,37.01434],[24.71724,37.05075],[24.78566,36.94754],[24.67923,36.905],[24.64882,37.01434]]],[[[25.15057,37.172],[25.31022,37.19623],[25.31022,37.0022],[25.11256,36.94146],[24.93771,36.95969],[25.15057,37.172]]],[[[25.37864,37.11746],[25.53828,37.22045],[25.6067,37.12352],[25.5991,37.02648],[25.54589,36.95969],[25.45466,36.92323],[25.36343,37.00827],[25.34063,37.08715],[25.37864,37.11746]]]]}},{"type":"Feature","properties":{"NAME":"Dravidians","ABBREVN":"Dravidians","type":null,"weblnks":null,"SUBJECTO":"Dravidians","BORDERPRECISION":1,"PARTOF":"Dravidians"},"geometry":{"type":"MultiPolygon","coordinates":[[[[74.20913,14.75258],[80.13637,14.48887],[80.16166,14.2541],[80.16972,13.89199],[80.07589,13.66942],[80.17813,13.52352],[80.20184,13.49169],[80.31988,13.33321],[80.31346,13.10448],[80.22376,12.83109],[79.92281,12.10616],[79.86674,11.96909],[79.76935,11.73098],[79.72528,11.51592],[79.71073,11.44494],[79.71221,11.42453],[79.73183,11.15272],[79.82627,10.35873],[79.78994,10.25063],[79.50092,10.25001],[79.30627,10.25595],[79.22248,10.19222],[79.07228,9.75985],[78.92661,9.49268],[78.93772,9.43552],[79.15965,9.27716],[78.79765,9.13023],[78.66013,9.12359],[78.31384,8.99576],[78.18113,8.81121],[78.13578,8.49977],[78.06494,8.38526],[77.89976,8.25781],[77.84803,8.23269],[77.73393,8.17729],[77.66318,8.14293],[77.61861,8.11742],[77.58884,8.09831],[77.48439,8.02819],[77.41947,8.02804],[77.34137,8.05328],[76.70353,8.70636],[76.66239,8.88418],[76.53786,9.119],[76.46721,9.41013],[76.38529,9.7477],[76.294,9.98495],[76.24838,10.10352],[76.07506,10.55396],[76.04671,10.6122],[75.73442,11.25367],[75.65175,11.42349],[75.5907,11.51752],[75.43987,11.7498],[75.21094,12.10237],[74.96174,12.87696],[74.7776,13.52791],[74.73362,13.68336],[74.70299,13.75127],[74.52085,14.15506],[74.42144,14.37545],[74.40151,14.41964],[74.37707,14.46192],[74.20913,14.75258]]]]}},{"type":"Feature","properties":{"NAME":"Bantu","ABBREVN":"Bantu","type":null,"weblnks":null,"SUBJECTO":"Bantu","BORDERPRECISION":1,"PARTOF":"Bantu"},"geometry":{"type":"MultiPolygon","coordinates":[[[[-16.87243,21.84221],[46.37718,2.6862],[46.3605,2.66783],[46.22544,2.5523],[45.54126,1.96707],[44.56747,1.46295],[44.3007,1.29081],[43.72431,0.80025],[43.09934,0.17002],[42.94123,0.01059],[42.91478,-0.01697],[42.44007,-0.51158],[41.88418,-1.21816],[41.60732,-1.59368],[41.6522,-1.75245],[41.60989,-1.87674],[41.33932,-2.0518],[41.08861,-2.1286],[40.91537,-2.07814],[40.87686,-2.42773],[40.74981,-2.59323],[40.4485,-2.64473],[40.27134,-2.81669],[40.2317,-3.03283],[40.23442,-3.19171],[40.07403,-3.47167],[39.64013,-4.08267],[39.6814,-4.32407],[39.52981,-4.61672],[39.41737,-4.73135],[39.26727,-4.77616],[39.22912,-4.84489],[39.12247,-5.03702],[38.93381,-5.63479],[38.87237,-6.09247],[38.92153,-6.34021],[39.22088,-6.78441],[39.56643,-7.04422],[39.55542,-7.17134],[39.43721,-7.33047],[39.27013,-7.80109],[39.28673,-7.87733],[39.4243,-7.89609],[39.43894,-7.92393],[13.4777,-8.48561],[13.47683,-8.41603],[13.38709,-8.15568],[13.16704,-7.84478],[13.0231,-7.6054],[12.96859,-7.51475],[12.877,-7.05105],[12.79571,-6.86059],[12.67148,-6.69564],[12.37169,-6.25781],[12.33938,-6.18982],[12.19425,-5.77524],[12.19966,-5.75135],[12.26348,-5.47005],[12.22651,-5.3621],[11.99969,-5.00411],[11.949,-4.92423],[11.7726,-4.53698],[11.15115,-3.93229],[11.13401,-3.91559],[10.88046,-3.69373],[10.64122,-3.44642],[10.52466,-3.23696],[9.93144,-2.71082],[10.06008,-2.57073],[9.89392,-2.444],[9.65645,-2.4191],[9.24319,-1.77181],[9.41514,-1.63799],[9.46527,-1.5934],[9.32065,-1.41578],[9.11186,-1.35269],[8.98138,-1.09879],[8.81521,-0.8958],[8.95872,-0.81924],[9.20251,-0.63442],[9.30255,-0.45627],[9.43366,-0.01697],[9.47335,0.11601],[9.66036,0.08464],[9.88325,0.07877],[9.85423,0.17403],[9.60219,0.33235],[9.35006,0.53515],[9.44348,0.55441],[9.56558,0.61187],[9.62898,0.88953],[9.64398,0.95519],[9.62219,1.08859],[9.55741,1.12658],[9.37039,1.17065],[9.49951,1.38064],[9.70056,1.61619],[9.85134,1.87706],[9.88123,2.05827],[9.89434,2.13769],[9.80077,2.37896],[9.92309,2.82405],[9.85134,3.14798],[9.76521,3.38291],[9.58565,3.67483],[9.78018,3.85318],[9.65089,4.01812],[9.54299,4.04331],[9.28389,4.01732],[9.03219,4.13751],[8.95325,4.2835],[8.92487,4.52491],[8.87466,4.62012],[8.63723,4.68315],[8.59181,4.71204],[8.50779,4.76549],[8.40704,4.78433],[8.32797,4.84134],[8.26299,4.74589],[8.32756,4.61258],[8.29869,4.55533],[8.1402,4.46602],[7.88826,4.45277],[7.44915,4.40734],[7.17574,4.52748],[7.04616,4.50814],[6.92368,4.34265],[6.84448,4.29164],[6.65017,4.323],[6.08878,4.32813],[5.85129,4.42929],[5.60659,4.63211],[5.41949,4.95579],[5.33302,5.24791],[5.35459,5.36234],[5.44819,5.47693],[5.38336,5.61023],[5.15289,5.64151],[5.09524,5.75576],[4.88631,6.00315],[4.63412,6.2123],[4.36032,6.32609],[4.07206,6.43985],[3.9495,6.57939],[3.71895,6.54712],[3.61096,6.41343],[3.45968,6.38133],[3.41357,6.37901],[3.06343,6.36142],[2.76681,6.34811],[2.61675,6.34138],[2.0621,6.27664],[1.92295,6.26582],[1.76101,6.25323],[1.55786,6.23743],[1.34184,6.17976],[1.17637,6.08408],[1.16573,6.06632],[0.93938,5.75948],[0.80264,5.71472],[0.53613,5.72049],[0.08977,5.65598],[-0.11885,5.57292],[-0.20366,5.52864],[-0.30065,5.47801],[-0.47704,5.38593],[-0.60779,5.31767],[-1.17607,5.13851],[-1.60023,4.95331],[-2.03122,4.6982],[-2.29096,4.84378],[-2.71655,5.03986],[-2.74974,5.09556],[-2.80354,5.18583],[-2.93352,5.27452],[-3.0271,5.26795],[-3.09145,5.15979],[-3.13457,5.14063],[-3.35064,5.15287],[-3.6678,5.22844],[-3.94159,5.26598],[-4.37434,5.25465],[-4.57523,5.24939],[-4.99997,5.23827],[-5.57543,5.129],[-5.83415,5.03947],[-6.31553,4.87321],[-7.09794,4.52201],[-7.41341,4.33069],[-7.52861,4.33679],[-7.56249,4.35118],[-8.24328,4.64028],[-8.79248,4.91869],[-9.2479,5.17188],[-9.42929,5.36214],[-9.93726,5.86306],[-10.43712,6.20513],[-10.76262,6.35695],[-11.16827,6.59755],[-11.4654,6.8439],[-11.74939,7.07925],[-12.04676,7.2629],[-12.26394,7.35139],[-12.27901,7.4149],[-12.25158,7.54841],[-12.27409,7.63098],[-12.51305,7.72578],[-12.86915,7.97284],[-13.04414,8.13769],[-13.21249,8.34704],[-12.99016,8.45555],[-12.912,8.55739],[-12.92725,8.62726],[-13.14487,8.72211],[-13.17435,8.77289],[-13.16425,8.85077],[-13.14141,9.02715],[-13.28167,9.27468],[-13.62555,9.62344],[-13.68005,9.91565],[-14.058,10.08005],[-14.46644,10.33337],[-14.59138,10.46655],[-14.5509,10.64457],[-14.57486,10.78433],[-14.82092,10.80286],[-14.96622,10.84703],[-15.01801,10.91682],[-14.99149,11.05669],[-15.0083,11.10174],[-15.0294,11.15829],[-15.11615,11.1581],[-15.34142,11.22115],[-15.41578,11.33539],[-15.36126,11.5198],[-15.21297,11.71712],[-15.09897,11.81268],[-15.15803,11.8761],[-15.32539,11.92658],[-15.54958,11.91975],[-15.73625,11.84309],[-15.8086,11.84292],[-16.08602,11.96943],[-16.24787,12.10253],[-16.27899,12.2105],[-16.42453,12.24831],[-16.56661,12.30981],[-16.5706,12.31154],[-16.69579,12.41296],[-16.7721,12.59708],[-16.7255,12.78783],[-16.76821,13.0354],[-16.77635,13.12453],[-16.77557,13.14534],[-16.76712,13.35968],[-16.68941,13.44881],[-16.49428,13.47466],[-16.45235,13.54465],[-16.4551,13.57107],[-16.45826,13.60141],[-16.47089,13.72255],[-16.64043,13.84293],[-16.67106,13.91276],[-16.6967,14.07793],[-16.87042,14.36352],[-17.05007,14.58556],[-17.22054,14.72501],[-17.43318,14.80717],[-17.19023,14.9602],[-16.86477,15.29771],[-16.60032,15.74949],[-16.45006,16.11839],[-16.4057,16.48996],[-16.3788,16.71591],[-16.12548,17.30111],[-16.04107,17.66988],[-15.98269,18.1784],[-16.05569,18.67393],[-16.19065,19.02953],[-16.4716,19.36574],[-16.35131,19.4931],[-16.2696,19.68392],[-16.23957,20.12249],[-16.26904,20.36391],[-16.34728,20.52262],[-16.71087,20.89044],[-16.8445,20.94099],[-17.02129,20.74361],[-17.04622,20.83252],[-17.05191,21.0041],[-17.01608,21.31415],[-16.98365,21.59527],[-16.87243,21.84221]]]]}},{"type":"Feature","properties":{"NAME":"Aboriginal tribes","ABBREVN":"From Indus Valley","type":"culture","weblnks":"http://www.nationalgeographic.com.au/australia/four-thousand-years-ago-indians-landed-in-australia.aspx","SUBJECTO":"Aboriginal tribes","BORDERPRECISION":1,"PARTOF":"Aboriginal tribes"},"geometry":{"type":"MultiPolygon","coordinates":[[[[142.33755,-10.91538],[142.64427,-11.09271],[142.7492,-11.32131],[142.77032,-11.61368],[142.82347,-11.91868],[142.93835,-12.00742],[143.12742,-12.01337],[143.17309,-12.12134],[142.97079,-12.53497],[143.29229,-12.68684],[143.37115,-12.8138],[143.43748,-13.08065],[143.47352,-13.66541],[143.5381,-13.94499],[143.74317,-14.46582],[143.87487,-14.58633],[144.06472,-14.59228],[144.21231,-14.4521],[144.38536,-14.36909],[144.52919,-14.66757],[144.69259,-14.72443],[144.94622,-14.90825],[145.11967,-14.9778],[145.18434,-15.0476],[145.18486,-15.23195],[145.22221,-15.66418],[145.34639,-16.01357],[145.32554,-16.49043],[145.45112,-16.59823],[145.86949,-17.19496],[145.99418,-17.51258],[146.01872,-17.86221],[145.92456,-18.2566],[146.10623,-18.54867],[146.22996,-18.92354],[146.32176,-19.08229],[146.94949,-19.44336],[147.07759,-19.51303],[147.41271,-19.56318],[147.59359,-19.85528],[147.97294,-20.09608],[148.19044,-20.17191],[148.70373,-20.20262],[148.75645,-20.29151],[148.68986,-20.39974],[148.56704,-20.65433],[148.706,-20.84478],[149.10148,-21.06012],[149.20016,-21.31424],[149.41137,-21.91784],[149.50621,-22.25463],[149.55676,-22.43255],[149.67019,-22.5722],[150.01727,-22.73043],[150.00811,-22.67323],[149.94477,-22.32365],[150.35559,-22.55167],[150.61091,-22.62108],[150.69363,-22.67812],[150.75441,-22.81152],[150.80247,-23.59989],[151.20016,-23.94241],[151.45822,-24.08811],[151.73014,-24.15749],[151.85948,-24.29075],[151.96925,-24.55122],[152.07273,-24.74176],[152.31797,-24.81755],[152.39674,-24.95092],[152.39982,-25.07174],[152.48574,-25.3132],[152.53358,-25.36398],[152.76116,-25.42073],[152.83136,-25.47146],[152.90423,-25.6303],[153.06907,-26.22775],[153.08102,-26.62203],[153.08671,-27.00997],[153.02763,-27.19454],[152.94622,-27.34099],[153.29647,-27.91267],[153.3964,-28.12871],[153.47784,-28.5038],[153.4935,-28.84087],[153.36137,-29.15919],[153.20272,-29.91008],[152.93956,-30.6994],[153.00108,-31.05551],[152.97186,-31.41818],[152.83398,-31.76834],[152.53671,-32.20792],[152.44512,-32.50711],[152.17619,-32.87667],[151.97366,-32.95978],[151.76464,-33.00474],[151.57431,-33.21509],[151.3645,-33.5209],[151.21693,-34.20833],[151.00256,-34.49508],[150.84971,-34.71808],[150.85572,-35.01075],[150.76197,-35.25313],[150.61311,-35.39366],[150.34281,-35.54722],[150.22151,-35.69411],[150.08653,-36.15351],[150.01074,-36.62572],[149.9752,-37.04692],[149.98484,-37.34688],[149.8571,-37.63442],[149.71237,-37.79433],[149.50415,-37.92885],[149.16476,-37.97424],[148.64346,-38.01361],[148.27417,-38.02714],[148.037,-38.09787],[147.80525,-38.23246],[147.1168,-38.65546],[146.91714,-38.71336],[146.82104,-38.84134],[146.66537,-38.87361],[146.42768,-38.89965],[146.29922,-38.89352],[146.43193,-39.05939],[146.52592,-39.18064],[145.93388,-38.88147],[145.53591,-38.72254],[145.53714,-38.51172],[145.50425,-38.44151],[145.25207,-38.23124],[144.96983,-38.06576],[144.78031,-38.05976],[144.56175,-38.13683],[144.41111,-38.24572],[144.74758,-38.45581],[144.31143,-38.56529],[143.89346,-38.75779],[143.46447,-38.95675],[143.3648,-38.96973],[143.09292,-38.86804],[142.69432,-38.67078],[142.39294,-38.56917],[141.90403,-38.42963],[141.67472,-38.41092],[141.56707,-38.48142],[141.54719,-38.53255],[141.22526,-38.45655],[140.88732,-38.29756],[140.65219,-38.16391],[140.24916,-37.79437],[140.01202,-37.64163],[139.82251,-37.24626],[139.86265,-36.78035],[139.82568,-36.59542],[139.74336,-36.37233],[139.44448,-36.04131],[139.38101,-35.80551],[139.36792,-35.61427],[139.12747,-35.60839],[138.77366,-35.78763],[138.50552,-35.83918],[138.35237,-35.86501],[138.27249,-35.83328],[138.19717,-35.75693],[138.42984,-35.55245],[138.5346,-35.29727],[138.56762,-34.92772],[138.45405,-34.78164],[138.21263,-34.51493],[138.1015,-34.35611],[137.88285,-34.68737],[137.68333,-35.33088],[137.59805,-35.38204],[137.23948,-35.38278],[137.14982,-35.45308],[137.06188,-35.45963],[136.94705,-35.47262],[137.03613,-35.29396],[137.07247,-35.11544],[137.10836,-35.07077],[137.39343,-35.08929],[137.50228,-35.02535],[137.55925,-34.91071],[137.51188,-34.45911],[137.71604,-34.08335],[137.86373,-33.87947],[137.9046,-33.70126],[137.9125,-33.51676],[137.98065,-33.45936],[138.09085,-33.45277],[138.18875,-33.29354],[138.16577,-33.1918],[138.02003,-32.96946],[137.86824,-32.74712],[137.81987,-33.06529],[137.69018,-33.18007],[137.45718,-33.31413],[137.31748,-33.52449],[137.27879,-33.5944],[137.19342,-33.8045],[137.06712,-33.95108],[136.73085,-34.05992],[136.40008,-34.2769],[136.10612,-34.53197],[135.94393,-34.84403],[135.71243,-35.20744],[135.52807,-35.05489],[135.35731,-34.45716],[135.23901,-34.19658],[135.1531,-34.05044],[134.8437,-33.69483],[134.71023,-33.36431],[134.6311,-33.26905],[134.31439,-33.30152],[134.20846,-33.2572],[134.14605,-33.14919],[134.1078,-33.0284],[134.2581,-32.87542],[134.23699,-32.74189],[134.08125,-32.56411],[133.83703,-32.34197],[133.71751,-32.2977],[133.34407,-32.36844],[133.12509,-32.33708],[132.69767,-32.08989],[132.57414,-32.08378],[132.37664,-32.16052],[132.18223,-32.1482],[131.99255,-32.06591],[131.69445,-31.83118],[131.28016,-31.63485],[131.18235,-31.63506],[130.85728,-31.73114],[130.28022,-31.7705],[129.97918,-31.77112],[129.18539,-31.7982],[128.91026,-31.85602],[128.61482,-31.95204],[128.17002,-32.15014],[127.73266,-32.26553],[127.26508,-32.38099],[126.5887,-32.42056],[126.23125,-32.41493],[126.05895,-32.43436],[125.64191,-32.56243],[125.19517,-32.77326],[124.84723,-32.95208],[124.60478,-33.01618],[124.41095,-33.05475],[124.24839,-33.14413],[123.97166,-33.45638],[123.62303,-33.91507],[123.35855,-34.04284],[123.01397,-34.03719],[122.76803,-34.03133],[122.35103,-34.0958],[122.17092,-34.17886],[121.87241,-34.00136],[121.74031,-33.96346],[121.40952,-33.97051],[120.70224,-34.04829],[120.28014,-34.11914],[120.07367,-34.10047],[119.77149,-34.12017],[119.59207,-34.22231],[119.32983,-34.57905],[119.17498,-34.63662],[118.74419,-34.58025],[118.67277,-34.60584],[118.41594,-34.9244],[118.20708,-35.09034],[117.79331,-35.21225],[117.52977,-35.25102],[116.8478,-35.21419],[116.56098,-35.1893],[116.25139,-35.10072],[115.96654,-34.93578],[115.61627,-34.63118],[115.28334,-34.47285],[115.11486,-34.45411],[115.04692,-34.42246],[114.96134,-33.86926],[114.98579,-33.75472],[115.20575,-33.80515],[115.4085,-33.76656],[115.55802,-33.57545],[115.64669,-33.36538],[115.76686,-32.75454],[115.74726,-32.20761],[115.67698,-31.92792],[115.5609,-31.66103],[115.05826,-30.80351],[114.96465,-30.51753],[114.89997,-30.14244],[114.91221,-29.69726],[114.84051,-29.38582],[114.6304,-28.90296],[114.33209,-28.47753],[114.06082,-28.14744],[113.96464,-28.03318],[114.02223,-27.62609],[113.92523,-27.38467],[113.59547,-26.88304],[113.15807,-26.42506],[113.03511,-26.16266],[113.09159,-26.0577],[113.17619,-26.14167],[113.24452,-26.3411],[113.32665,-26.41457],[113.43299,-26.57201],[113.57983,-26.65598],[113.73938,-26.66653],[113.58323,-26.15217],[113.3866,-25.97373],[113.28495,-25.82679],[113.32116,-25.69034],[113.65769,-26.0682],[113.88066,-26.50903],[114.0951,-26.53862],[114.05043,-26.28861],[114.18084,-26.27139],[114.18252,-26.01704],[114.05531,-25.80113],[113.5919,-25.18536],[113.43259,-24.87416],[113.37921,-24.61361],[113.3619,-24.28304],[113.52196,-24.01567],[113.66741,-23.78015],[113.76202,-23.48113],[113.72467,-23.01711],[113.61012,-22.73126],[113.62543,-22.56593],[113.82231,-22.25399],[113.87155,-22.10767],[113.90057,-22.03768],[114.02252,-22.32986],[114.02735,-22.52058],[114.07483,-22.60313],[114.232,-22.6155],[114.30905,-22.56448],[114.39311,-22.31001],[114.45635,-22.09372],[114.8002,-21.88319],[115.34924,-21.60229],[115.56739,-21.45561],[115.87117,-21.19431],[116.13455,-20.98395],[116.4188,-20.83712],[116.77441,-20.78552],[117.08811,-20.77848],[117.40318,-20.77782],[117.59693,-20.75833],[117.75521,-20.67535],[117.96847,-20.47146],[118.19072,-20.41376],[118.60868,-20.38109],[118.73432,-20.31725],[118.86508,-20.06903],[118.93625,-20.02437],[119.13646,-20.03667],[119.53112,-20.13755],[119.81252,-20.11787],[120.2229,-19.98349],[120.71038,-19.77266],[120.87215,-19.67694],[121.19429,-19.37745],[121.38649,-19.11638],[121.51683,-18.83638],[121.57633,-18.70275],[121.76077,-18.53706],[122.19645,-18.24369],[122.23191,-18.16732],[122.20168,-17.98303],[122.09275,-17.6209],[122.08548,-17.3984],[122.56407,-16.89516],[122.73834,-16.58328],[122.86901,-16.6593],[123.02267,-16.85603],[123.30125,-17.46574],[123.4187,-17.57992],[123.49825,-17.31909],[123.5083,-17.10929],[123.70409,-17.21694],[123.82685,-17.24847],[123.91204,-16.97492],[123.88523,-16.91141],[123.63166,-16.80388],[123.55294,-16.69597],[123.55619,-16.44168],[123.57584,-16.39079],[123.97947,-16.40899],[124.27727,-16.52278],[124.56587,-16.50945],[124.71627,-16.49641],[124.84635,-16.53004],[124.53141,-16.32517],[124.33776,-16.26201],[124.39524,-16.02032],[124.36375,-15.88689],[124.4245,-15.6579],[124.61433,-15.49857],[124.68865,-15.46662],[125.01805,-15.64392],[125.10913,-15.62465],[125.05854,-15.42134],[125.10796,-15.20508],[125.17387,-15.03968],[125.15566,-14.80451],[125.317,-14.72787],[125.49717,-14.67664],[125.8632,-14.69491],[126.10147,-14.20493],[126.26836,-14.07107],[126.42574,-14.14702],[126.54605,-14.35018],[126.66506,-14.10201],[126.76466,-14.00009],[126.85343,-13.78377],[127.16648,-14.0628],[127.39746,-14.10044],[127.52909,-14.19551],[127.67796,-14.43675],[127.96257,-14.70313],[128.01756,-15.02086],[127.98487,-15.28791],[128.06614,-15.37674],[128.18139,-15.24935],[128.38897,-14.94378],[128.45886,-14.88641],[128.98088,-14.92344],[129.19642,-14.9929],[129.48287,-15.21478],[129.63227,-15.27803],[129.70249,-15.06175],[129.83856,-14.92795],[129.84861,-14.81986],[129.72885,-14.6739],[129.45883,-14.49649],[129.42303,-14.41393],[129.42655,-14.30586],[129.4916,-14.26122],[129.76329,-14.01907],[129.76626,-13.81565],[129.85227,-13.72012],[130.08554,-13.59248],[130.20599,-13.48416],[130.27386,-13.36323],[130.23193,-13.28068],[130.23289,-13.14719],[130.4635,-12.75894],[130.5176,-12.73339],[130.66049,-12.72037],[130.83958,-12.70727],[130.95127,-12.63075],[130.85887,-12.44661],[131.02835,-12.26826],[131.18295,-12.23615],[131.53991,-12.40064],[131.81747,-12.36827],[132.39804,-12.32888],[132.62846,-12.27117],[132.7331,-12.19467],[132.75112,-12.1692],[132.71655,-12.08028],[132.62626,-11.74994],[132.5146,-11.62305],[132.30281,-11.50274],[132.13444,-11.54123],[132.02456,-11.4779],[132.04063,-11.38253],[132.20559,-11.3186],[132.38377,-11.29916],[132.66145,-11.53375],[132.77601,-11.57799],[132.92898,-11.53317],[133.09294,-11.67266],[133.39729,-11.88177],[133.55918,-11.95135],[134.1427,-12.08357],[134.40872,-12.12114],[134.5948,-12.05718],[134.76211,-12.06317],[134.93998,-12.33612],[135.12852,-12.38657],[135.19175,-12.37372],[135.44454,-12.17612],[135.64901,-12.1884],[135.94247,-12.35938],[136.09121,-12.57519],[136.29861,-12.51118],[136.35337,-12.1551],[136.4345,-12.11678],[136.63961,-12.3261],[136.79109,-12.37027],[136.85968,-12.44006],[136.66369,-12.62482],[136.60668,-12.81565],[136.52763,-12.91117],[136.52298,-13.10823],[136.46908,-13.22277],[136.23832,-13.22963],[136.00863,-13.33182],[135.8309,-13.48477],[135.82882,-13.73269],[135.96455,-13.89132],[135.88064,-14.203],[135.70904,-14.464],[135.45758,-14.68068],[135.38806,-14.89697],[135.41661,-14.97319],[135.62745,-15.16981],[136.09437,-15.44852],[136.45863,-15.75289],[136.68714,-16.02576],[136.79785,-16.07003],[136.95488,-16.01883],[137.07371,-16.0313],[137.4257,-16.18947],[137.75956,-16.39856],[137.95462,-16.60157],[138.26033,-16.8425],[138.41084,-16.8994],[138.6101,-16.91169],[138.96275,-16.99357],[139.07531,-17.07598],[139.17309,-17.3555],[139.24832,-17.43164],[139.47628,-17.57102],[139.81826,-17.76103],[140.06021,-17.83044],[140.24972,-17.79824],[140.43634,-17.72155],[140.70755,-17.63197],[140.80094,-17.56183],[141.13241,-16.95715],[141.31382,-16.44816],[141.40152,-15.85674],[141.5176,-15.53226],[141.7113,-15.22669],[141.65237,-15.0361],[141.46815,-14.75678],[141.4781,-14.6169],[141.58454,-14.3306],[141.66839,-14.11429],[141.59475,-13.98731],[141.51232,-13.80948],[141.55217,-13.4979],[141.59883,-13.04647],[141.69979,-12.91275],[141.84761,-12.84251],[141.91894,-12.70251],[141.67852,-12.46782],[141.6934,-12.3788],[141.95303,-11.95234],[142.09292,-11.5325],[142.12565,-11.15739],[142.21162,-11.04915],[142.33755,-10.91538]]]]}},{"type":"Feature","properties":{"NAME":"Semites","ABBREVN":"Semites","type":"civilization","weblnks":null,"SUBJECTO":"Semites","BORDERPRECISION":1,"PARTOF":"Semites"},"geometry":{"type":"MultiPolygon","coordinates":[[[[37.23779,33.84967],[39.19593,33.59426],[40.95591,33.43478],[41.05768,32.89478],[41.94978,32.20855],[47.61404,29.27224],[47.80356,29.18492],[47.99151,29.27749],[48.12906,29.26819],[48.44353,28.44023],[48.46268,28.38585],[48.58751,28.09388],[48.75174,27.87188],[48.83184,27.57345],[48.85502,27.52269],[49.13191,27.53597],[49.24351,27.47903],[49.15193,27.37246],[49.23916,27.28849],[49.3216,27.16155],[49.42732,27.13105],[49.53254,27.00953],[49.93138,26.93413],[50.12176,26.73759],[50.09017,26.61149],[49.98396,26.59574],[49.93417,26.48307],[50.07625,26.31184],[49.99198,26.04484],[49.93686,25.95578],[50.01141,25.83523],[50.14689,25.53564],[50.21432,25.58812],[50.38192,25.46117],[50.42921,25.18402],[50.6189,24.87085],[50.60654,24.68022],[50.70592,24.55972],[50.77828,24.47093],[50.90739,24.43308],[50.96833,24.43624],[50.96495,24.71275],[50.89618,24.90955],[50.84732,25.26522],[50.93111,25.53857],[51.01539,25.58812],[50.98896,25.67209],[51.06883,25.94546],[51.21702,26.06647],[51.35767,26.02896],[51.3888,25.88726],[51.50593,25.84528],[51.53446,25.75585],[51.58667,25.60912],[51.53905,25.42018],[51.55286,25.10153],[51.60615,24.98729],[51.55892,24.81565],[51.41201,24.60569],[51.28783,24.41078],[51.29142,24.28137],[51.45417,24.21823],[51.52285,24.16066],[51.60644,24.20265],[51.5859,24.00322],[51.76457,24.00286],[51.9456,23.9455],[52.25464,23.98748],[52.30105,24.08195],[52.38303,24.10818],[52.48116,24.0557],[52.67165,24.07468],[52.93944,24.02442],[53.04023,24.03996],[53.07571,24.08719],[53.68676,23.98748],[54.01653,24.05046],[54.0063,24.18165],[54.10752,24.10293],[54.27599,24.10982],[54.3471,24.15445],[54.48741,24.34434],[54.59216,24.37733],[54.71206,24.59994],[54.77082,24.73348],[55.0908,25.02004],[55.4572,25.42018],[55.53049,25.37295],[55.63346,25.45317],[56.01546,25.77163],[56.15673,25.96648],[56.29731,26.15973],[56.36705,26.23612],[56.40503,25.86138],[56.21485,25.54334],[56.16131,25.47334],[56.28164,25.4624],[56.36602,25.45472],[56.40626,25.30869],[56.40648,25.07998],[56.40526,24.91875],[56.40538,24.81951],[56.6108,24.47688],[56.79419,24.26761],[57.1462,23.98247],[57.35937,23.85851],[57.3963,23.83704],[57.45101,23.80522],[57.90422,23.57111],[58.08072,23.50161],[58.20529,23.49552],[58.46466,23.50877],[58.62849,23.4583],[59.02164,23.02076],[59.25432,22.72901],[59.46142,22.53887],[59.82569,22.37445],[59.83728,22.27918],[59.53569,21.80205],[59.25885,21.47745],[58.86135,21.11448],[58.77406,20.94123],[58.51205,20.42123],[58.40309,20.35747],[58.15045,20.39506],[58.04437,20.43295],[57.93127,20.40094],[57.80608,20.17196],[57.77755,19.66999],[57.77843,19.31421],[57.83863,19.03481],[57.65703,18.97089],[57.18621,18.93811],[56.90431,18.8168],[56.73889,18.68938],[56.6086,18.46674],[56.54936,18.21883],[56.45755,18.09156],[56.25759,17.97677],[56.01284,17.93179],[55.88155,17.93151],[55.70812,17.95018],[55.56107,17.93717],[55.38949,17.80974],[55.29041,17.6761],[55.23444,17.44726],[55.23564,17.28843],[55.19484,17.14856],[54.91061,16.97006],[54.75608,16.95067],[54.40687,17.04522],[54.08426,17.01912],[53.68125,16.89754],[53.33573,16.76338],[53.20845,16.71863],[53.02095,16.65377],[52.89432,16.60995],[52.65217,16.48872],[52.3566,16.23395],[52.23764,16.10026],[52.16286,15.87137],[52.13517,15.68706],[51.95041,15.54053],[51.599,15.37875],[51.31256,15.24689],[50.29112,14.95878],[49.71286,14.77329],[49.33385,14.6327],[49.17318,14.49892],[48.96039,14.2189],[48.8793,14.16872],[48.7646,14.09775],[48.53675,14.04644],[48.27014,14.07763],[48.03617,14.04536],[47.6623,13.84759],[47.36957,13.66905],[46.93939,13.49022],[46.87773,13.47387],[46.6012,13.40055],[46.07929,13.39942],[45.8259,13.40523],[45.69248,13.34776],[45.51864,13.2076],[45.39598,13.0739],[45.19342,12.93368],[44.96357,12.82517],[44.7888,12.80574],[44.68107,12.82456],[44.44054,12.63978],[44.06275,12.61355],[43.84059,12.66391],[43.6049,12.82889],[43.56005,12.86028],[43.48365,12.93],[43.34085,13.12667],[43.30285,13.24095],[43.38398,13.56518],[43.34756,13.85104],[43.20694,14.07947],[43.05326,14.60651],[42.79588,15.47008],[42.76353,15.66698],[42.88388,15.98492],[42.82805,16.32148],[42.8144,16.40413],[42.76366,16.64546],[42.53529,17.07067],[42.20652,17.51474],[42.00944,17.73668],[41.62856,18.0472],[41.39918,18.44064],[41.20152,18.89639],[41.03302,19.28491],[40.81976,19.68472],[40.69382,19.86871],[40.33635,20.09669],[39.76408,20.4068],[39.5269,20.69221],[39.16674,21.2188],[39.13041,21.65076],[39.10334,22.00017],[39.10219,22.40045],[39.0556,22.57189],[38.9151,22.87021],[38.49012,23.61268],[38.32942,23.83472],[37.98842,24.11356],[37.78185,24.21479],[37.55722,24.27149],[37.41881,24.39827],[37.20145,24.65831],[37.26854,24.96978],[37.21827,25.16663],[37.00526,25.53469],[36.6693,26.01684],[36.32976,26.40276],[36.31222,26.4227],[35.83107,27.09515],[35.59481,27.51399],[35.4365,27.72966],[35.11159,28.07206],[34.87562,28.09697],[34.76388,28.09675],[34.7989,28.23024],[34.88559,28.35748],[35.02568,28.94863],[35.0721,29.21136],[35.09547,29.34268],[35.0734,29.41887],[34.98468,29.46722],[34.95426,29.43681],[34.93554,29.41809],[34.76433,29.24669],[34.54895,28.73163],[34.39884,28.09599],[34.32201,27.82898],[34.2412,27.75892],[34.05801,27.79031],[33.85604,28.02496],[33.50406,28.32918],[33.33074,28.55119],[33.17847,28.99561],[32.94378,29.19842],[32.81361,29.4777],[32.73728,29.69355],[32.64796,29.8522],[33.5576,30.96772],[33.70961,30.99571],[33.91697,31.07005],[34.0336,31.1405],[34.1463,31.20858],[34.19528,31.23814],[34.50066,31.6211],[34.59914,31.8179],[34.68134,32.04598],[34.7585,32.30072],[34.84289,32.6707],[34.89497,32.66283],[34.95659,32.70482],[34.95908,32.79666],[34.97201,32.93841],[35.08897,33.06926],[35.13231,33.23152],[35.20839,33.33359],[35.35609,33.63978],[35.34856,33.74447],[35.42987,33.74447],[35.49185,33.83083],[35.5244,33.97477],[35.53208,34.11871],[35.71621,34.31237],[36.61209,34.03994],[37.23779,33.84967]]]]}}]}
