{"type":"FeatureCollection","name":"Seshat Cliopatria -1000–-901","datasetId":"cliopatria","startYear":-1000,"endYear":-901,"features":[{"type":"Feature","id":"cliopatria-b6beb065c16e84721b16dcc7","properties":{"NAME":"(Phoenician Empire)","ABBREVN":null,"CONTROL":null,"SUBJECTO":"(Phoenician Empire)","PARTOF":null,"BORDERPRECISION":1,"FromYear":-1000,"ToYear":-901,"Area":12958.482519368054,"Type":"POLITY","Wikipedia":"Phoenicia","Wikidata":"Q41642","SeshatID":"","Components":"Phoenicia","MemberOf":"","sourceFeatureId":"cliopatria-b6beb065c16e84721b16dcc7","datasetId":"cliopatria"},"geometry":{"type":"MultiPolygon","coordinates":[[[[36.248,34.229],[36.241,34.165],[36.151,34.036],[36.203,33.779],[36.049,33.779],[36.107,33.586],[35.859,33.393],[35.853,33.329],[35.699,33.329],[35.445,33.072],[35.369,33.072],[35.227,33.2],[35.398,33.393],[35.346,33.65],[35.499,33.65],[35.447,33.907],[35.684,33.972],[35.644,34.358],[35.792,34.293],[36.049,34.551],[36.068,34.744],[35.927,34.872],[35.96,35.194],[35.882,35.194],[35.993,35.516],[35.845,35.58],[35.878,35.902],[36.188,35.902],[36.252,35.773],[36.407,35.773],[36.339,35.13],[36.178,35.065],[36.377,34.744],[36.248,34.229]]]]}},{"type":"Feature","id":"cliopatria-50e880031c0d323f79a36a52","properties":{"NAME":"Assyria","ABBREVN":null,"CONTROL":null,"SUBJECTO":"Assyria","PARTOF":null,"BORDERPRECISION":1,"FromYear":-1000,"ToYear":-901,"Area":25472.951224122287,"Type":"POLITY","Wikipedia":"Assyria","Wikidata":"Q41137","SeshatID":"iq_middle_assyrian_emp","Components":"","MemberOf":"","sourceFeatureId":"cliopatria-50e880031c0d323f79a36a52","datasetId":"cliopatria"},"geometry":{"type":"MultiPolygon","coordinates":[[[[44.708,35.323],[44.699,35.258],[44.604,35.13],[44.972,35.001],[44.842,34.615],[44.67,34.486],[44.516,34.486],[44.251,34.808],[43.874,34.872],[43.445,35.13],[42.888,35.001],[42.913,35.194],[42.836,35.194],[42.955,35.516],[43.446,35.709],[43.412,36.031],[43.603,36.288],[44.279,36.675],[44.357,36.675],[44.397,36.417],[44.621,36.353],[44.603,36.224],[45.031,35.966],[45.012,35.838],[44.703,35.838],[44.83,35.645],[44.708,35.323]]]]}},{"type":"Feature","id":"cliopatria-42bb936b32489103fd466bcf","properties":{"NAME":"Babylonia","ABBREVN":null,"CONTROL":null,"SUBJECTO":"Babylonia","PARTOF":null,"BORDERPRECISION":1,"FromYear":-1000,"ToYear":-901,"Area":25191.500668384742,"Type":"POLITY","Wikipedia":"Babylonia","Wikidata":"Q47690","SeshatID":"iq_bazi_dyn","Components":"","MemberOf":"","sourceFeatureId":"cliopatria-42bb936b32489103fd466bcf","datasetId":"cliopatria"},"geometry":{"type":"MultiPolygon","coordinates":[[[[45.87,31.915],[45.862,31.85],[45.939,31.85],[45.975,31.529],[45.153,31.658],[45.175,31.208],[45.016,31.143],[44.81,31.336],[44.581,31.336],[44.459,31.593],[43.42,32.493],[43.436,32.622],[43.826,32.686],[43.918,32.814],[44.216,32.75],[44.164,32.943],[44.426,33.2],[44.579,33.2],[44.675,32.75],[45.195,32.622],[45.46,32.3],[45.613,32.3],[45.818,32.107],[45.87,31.915]]]]}},{"type":"Feature","id":"cliopatria-925a80c2deeae41aad9a887c","properties":{"NAME":"Elam","ABBREVN":null,"CONTROL":null,"SUBJECTO":"Elam","PARTOF":null,"BORDERPRECISION":1,"FromYear":-1000,"ToYear":-901,"Area":19287.536261736783,"Type":"POLITY","Wikipedia":"Elam","Wikidata":"Q128904","SeshatID":"ir_elam_8","Components":"","MemberOf":"","sourceFeatureId":"cliopatria-925a80c2deeae41aad9a887c","datasetId":"cliopatria"},"geometry":{"type":"MultiPolygon","coordinates":[[[[48.82,31.722],[48.811,31.658],[47.788,31.4],[47.913,31.786],[47.642,32.043],[47.591,32.236],[47.744,32.236],[47.787,32.557],[48.087,33.072],[48.547,33.072],[48.682,32.943],[48.988,32.943],[49.046,32.814],[49.276,32.814],[49.101,32.107],[48.82,31.722]]]]}},{"type":"Feature","id":"cliopatria-1ada15233c20965de8312375","properties":{"NAME":"Greek Dark Ages","ABBREVN":null,"CONTROL":null,"SUBJECTO":"Greek Dark Ages","PARTOF":null,"BORDERPRECISION":1,"FromYear":-1000,"ToYear":-901,"Area":60722.01303110502,"Type":"POLITY","Wikipedia":"Greek Dark Ages","Wikidata":"Q210443","SeshatID":"","Components":"","MemberOf":"","sourceFeatureId":"cliopatria-1ada15233c20965de8312375","datasetId":"cliopatria"},"geometry":{"type":"MultiPolygon","coordinates":[[[[34.529,35.58],[33.957,35.258],[34.087,35.001],[33.695,34.937],[33.523,34.744],[33.132,34.679],[33.044,34.551],[32.367,34.744],[32.229,34.937],[32.246,35.13],[32.555,35.13],[32.875,35.258],[32.887,35.387],[33.737,35.387],[34.31,35.709],[34.387,35.709],[34.542,35.709],[34.529,35.58]]],[[[23.615,35.516],[24.157,35.516],[24.15,35.387],[24.301,35.323],[25.692,35.323],[25.681,35.13],[26.225,35.194],[26.14,35.065],[24.824,35.001],[24.757,35.194],[24.526,35.194],[24.448,35.194],[23.679,35.258],[23.615,35.516]]],[[[28.139,36.031],[27.743,35.902],[27.693,36.288],[28.017,36.482],[28.095,36.482],[28.25,36.482],[28.139,36.031]]],[[[26.865,36.675],[27.039,36.933],[27.117,36.933],[27.185,36.804],[26.865,36.675]]],[[[25.564,36.997],[25.331,36.997],[25.339,37.126],[25.417,37.126],[25.573,37.126],[25.564,36.997]]],[[[27.666,36.997],[27.195,36.933],[27.209,37.126],[27.525,37.19],[27.603,37.19],[27.754,37.126],[27.666,36.997]]],[[[22.936,38.739],[23.167,38.674],[23.313,38.481],[23.626,38.481],[23.563,38.739],[24.03,38.674],[24.179,38.545],[24.159,38.222],[24.002,38.222],[23.979,37.835],[23.443,38.029],[23.208,38.029],[23.201,37.9],[23.044,37.9],[23.108,37.642],[23.342,37.642],[23.402,37.319],[23.169,37.319],[23.176,37.448],[22.949,37.577],[22.714,37.577],[22.701,37.319],[22.853,37.255],[23.056,36.675],[22.833,36.868],[22.599,36.868],[22.512,36.675],[22.356,36.675],[22.22,37.062],[21.909,37.062],[21.899,36.868],[21.744,36.868],[21.681,37.19],[21.603,37.19],[21.697,37.513],[21.244,37.835],[21.416,38.158],[21.729,38.158],[21.738,38.351],[21.272,38.416],[21.278,38.545],[21.602,38.739],[21.912,38.674],[22.386,38.739],[22.55,38.868],[22.561,39.062],[22.344,39.385],[22.588,39.514],[22.532,39.902],[22.623,40.096],[22.702,40.096],[22.611,39.902],[22.765,39.838],[22.757,39.708],[23.135,39.45],[22.816,39.385],[22.797,39.062],[23.116,39.126],[23.108,38.997],[23.344,38.997],[23.489,38.803],[23.179,38.868],[23.183,38.933],[22.943,38.868],[22.936,38.739]]],[[[25.876,38.158],[25.899,38.481],[25.821,38.481],[25.913,38.674],[25.991,38.674],[26.217,38.545],[26.111,38.158],[25.876,38.158]]],[[[23.489,38.803],[23.567,38.803],[23.563,38.739],[23.485,38.739],[23.489,38.803]]]]}},{"type":"Feature","id":"cliopatria-9e6acd87bc62dab976f4be44","properties":{"NAME":"Kingdom of Israel","ABBREVN":null,"CONTROL":null,"SUBJECTO":"Kingdom of Israel","PARTOF":null,"BORDERPRECISION":1,"FromYear":-1000,"ToYear":-901,"Area":20071.780092407385,"Type":"POLITY","Wikipedia":"Kingdom of Israel (united monarchy)","Wikidata":"Q3185305","SeshatID":"il_yisrael","Components":"","MemberOf":"","sourceFeatureId":"cliopatria-9e6acd87bc62dab976f4be44","datasetId":"cliopatria"},"geometry":{"type":"MultiPolygon","coordinates":[[[[36.269,32.043],[36.345,32.043],[36.257,31.915],[36.633,31.85],[36.774,31.722],[36.598,31.465],[36.07,31.529],[35.983,31.4],[35.379,31.465],[35.064,31.336],[34.988,31.336],[35.004,31.529],[34.857,31.593],[34.868,31.722],[35.031,31.85],[35.141,32.236],[35.064,32.236],[35.081,32.429],[35.24,32.493],[35.445,33.072],[35.699,33.329],[35.853,33.329],[35.929,33.329],[36.076,33.264],[35.952,32.75],[36.175,32.686],[36.31,32.493],[35.91,32.3],[35.899,32.172],[36.04,32.043],[36.269,32.043]]]]}},{"type":"Feature","id":"cliopatria-fa4e723f2e8b43bd750907f1","properties":{"NAME":"Neo-Hittite states","ABBREVN":null,"CONTROL":null,"SUBJECTO":"Neo-Hittite states","PARTOF":null,"BORDERPRECISION":1,"FromYear":-1000,"ToYear":-901,"Area":25034.003958266974,"Type":"POLITY","Wikipedia":"Neo-Hittite states","Wikidata":"Q770281","SeshatID":"tr_neo_hittite_k","Components":"","MemberOf":"","sourceFeatureId":"cliopatria-fa4e723f2e8b43bd750907f1","datasetId":"cliopatria"},"geometry":{"type":"MultiPolygon","coordinates":[[[[36.131,36.607],[36.159,36.841],[37.616,37.624],[38.08,38.129],[38.603,37.636],[38.279,37.181],[37.661,36.63],[37.052,36.176],[36.39,35.897],[35.972,36.011],[35.792,36.31],[36.131,36.607]]]]}},{"type":"Feature","id":"cliopatria-592b56dcddf58c4cf15e6a09","properties":{"NAME":"New Kingdom of Egypt","ABBREVN":null,"CONTROL":null,"SUBJECTO":"New Kingdom of Egypt","PARTOF":null,"BORDERPRECISION":1,"FromYear":-1000,"ToYear":-901,"Area":340593.22038589965,"Type":"POLITY","Wikipedia":"New Kingdom of Egypt","Wikidata":"Q180568","SeshatID":"","Components":"","MemberOf":"","sourceFeatureId":"cliopatria-592b56dcddf58c4cf15e6a09","datasetId":"cliopatria"},"geometry":{"type":"MultiPolygon","coordinates":[[[[32.237,31.208],[32.313,31.208],[32.532,31.079],[32.836,31.079],[32.751,30.951],[32.808,30.694],[32.647,30.565],[32.714,30.436],[32.557,30.372],[32.602,29.922],[32.442,29.794],[32.429,29.601],[32.765,28.958],[32.597,28.701],[32.528,27.544],[32.864,26.837],[33.078,26.644],[33.122,26.065],[33.197,26.065],[33.199,24.586],[33.274,24.586],[33.323,24.008],[33.466,23.879],[33.464,23.815],[32.041,23.686],[31.67,23.751],[30.537,23.365],[30.463,23.365],[30.395,23.558],[30.104,23.751],[30.109,23.879],[29.959,23.879],[29.673,24.201],[28.641,24.586],[28.289,25.165],[28.249,26.065],[28.356,26.837],[28.605,27.351],[28.548,27.737],[28.705,27.865],[28.802,28.315],[28.96,28.444],[28.921,29.151],[28.997,29.151],[29.033,29.794],[28.957,29.794],[28.914,30.372],[28.645,30.951],[28.865,30.822],[29.397,30.822],[29.485,31.015],[29.633,30.951],[29.87,31.079],[29.802,31.208],[29.882,31.272],[30.339,31.272],[30.271,31.4],[30.352,31.465],[30.809,31.465],[30.966,31.529],[30.975,31.658],[31.203,31.658],[31.118,31.529],[31.266,31.465],[31.875,31.465],[31.781,31.208],[31.937,31.272],[32,31.079],[32.304,31.079],[32.237,31.208]]]]}},{"type":"Feature","id":"cliopatria-9d1a3910c6c264be62dad5bb","properties":{"NAME":"Philistia","ABBREVN":null,"CONTROL":null,"SUBJECTO":"Philistia","PARTOF":null,"BORDERPRECISION":1,"FromYear":-1000,"ToYear":-901,"Area":7634.651395271475,"Type":"POLITY","Wikipedia":"Philistia","Wikidata":"Q7185566","SeshatID":"","Components":"","MemberOf":"","sourceFeatureId":"cliopatria-9d1a3910c6c264be62dad5bb","datasetId":"cliopatria"},"geometry":{"type":"MultiPolygon","coordinates":[[[[34.912,31.336],[34.429,31.015],[34.287,31.143],[34.308,31.4],[34.633,31.658],[34.573,31.85],[34.813,31.979],[34.77,32.365],[35.022,32.622],[35.056,33.007],[35.221,33.136],[35.369,33.072],[35.445,33.072],[35.24,32.493],[35.081,32.429],[35.064,32.236],[35.141,32.236],[35.031,31.85],[34.868,31.722],[34.857,31.593],[35.004,31.529],[34.988,31.336],[34.912,31.336]]]]}},{"type":"Feature","id":"cliopatria-868f4f148f597ca585ba23a3","properties":{"NAME":"Phoenicia","ABBREVN":null,"CONTROL":null,"SUBJECTO":"Phoenicia","PARTOF":"(Phoenician Empire)","BORDERPRECISION":1,"FromYear":-1000,"ToYear":-901,"Area":12958.482519368054,"Type":"POLITY","Wikipedia":"Phoenicia","Wikidata":"Q41642","SeshatID":"lb_phoenician_emp","Components":"","MemberOf":"(Phoenician Empire)","sourceFeatureId":"cliopatria-868f4f148f597ca585ba23a3","datasetId":"cliopatria"},"geometry":{"type":"MultiPolygon","coordinates":[[[[36.248,34.229],[36.241,34.165],[36.151,34.036],[36.203,33.779],[36.049,33.779],[36.107,33.586],[35.859,33.393],[35.853,33.329],[35.699,33.329],[35.445,33.072],[35.369,33.072],[35.227,33.2],[35.398,33.393],[35.346,33.65],[35.499,33.65],[35.447,33.907],[35.684,33.972],[35.644,34.358],[35.792,34.293],[36.049,34.551],[36.068,34.744],[35.927,34.872],[35.96,35.194],[35.882,35.194],[35.993,35.516],[35.845,35.58],[35.878,35.902],[36.188,35.902],[36.252,35.773],[36.407,35.773],[36.339,35.13],[36.178,35.065],[36.377,34.744],[36.248,34.229]]]]}},{"type":"Feature","id":"cliopatria-b7936883007dcb11a37a5678","properties":{"NAME":"Kingdom of Kush","ABBREVN":null,"CONTROL":null,"SUBJECTO":"Kingdom of Kush","PARTOF":null,"BORDERPRECISION":1,"FromYear":-1000,"ToYear":-801,"Area":336378.97179939743,"Type":"POLITY","Wikipedia":"Kingdom of Kush","Wikidata":"Q241790","SeshatID":"","Components":"","MemberOf":"","sourceFeatureId":"cliopatria-b7936883007dcb11a37a5678","datasetId":"cliopatria"},"geometry":{"type":"MultiPolygon","coordinates":[[[[33.838,22.079],[33.763,22.079],[33.835,22.015],[33.745,21.629],[33.82,21.629],[34.258,19.636],[34.469,19.379],[34.597,18.929],[34.879,18.608],[34.939,18.286],[35.3,18.093],[35.501,17.643],[36.003,17.322],[36.054,16.808],[35.671,16.486],[34.714,16.486],[34.556,16.229],[34.684,15.779],[34.098,15.843],[33.862,15.458],[32.529,15.2],[32.533,15.329],[32.094,15.393],[31.734,15.586],[31.527,15.972],[31.536,16.229],[31.394,16.358],[31.477,16.615],[31.337,16.808],[31.221,17.643],[31.147,17.643],[30.877,20.343],[30.803,20.343],[30.818,20.793],[30.744,20.793],[30.762,21.308],[30.688,21.308],[30.636,21.951],[30.561,21.951],[30.721,22.272],[30.742,22.851],[30.535,23.301],[30.537,23.365],[31.67,23.751],[32.041,23.686],[33.464,23.815],[33.538,23.815],[33.754,23.622],[33.809,23.172],[33.883,23.172],[33.84,22.143],[33.838,22.079]]]]}},{"type":"Feature","id":"cliopatria-e54a3f7705ab4e2de3f945c1","properties":{"NAME":"Zhou Dynasty","ABBREVN":null,"CONTROL":null,"SUBJECTO":"Zhou Dynasty","PARTOF":null,"BORDERPRECISION":1,"FromYear":-1000,"ToYear":-801,"Area":699623.2872120326,"Type":"POLITY","Wikipedia":"Zhou dynasty","Wikidata":"Q35216","SeshatID":"cn_western_zhou_dyn","Components":"","MemberOf":"","sourceFeatureId":"cliopatria-e54a3f7705ab4e2de3f945c1","datasetId":"cliopatria"},"geometry":{"type":"MultiPolygon","coordinates":[[[[117.642,38.868],[117.602,38.481],[118.054,38.287],[118.067,38.158],[118.583,38.093],[118.648,38.222],[118.804,38.222],[118.772,38.158],[119.457,37.964],[119.393,37.835],[119.237,37.835],[118.984,37.319],[119.14,37.319],[119.156,37.19],[119.701,37.19],[119.827,37.448],[120.202,37.577],[120.188,37.706],[120.754,37.9],[121.112,37.835],[121.171,37.642],[121.483,37.642],[121.497,37.513],[122.154,37.577],[122.121,37.513],[122.713,37.448],[122.474,37.126],[122.566,36.997],[122.394,36.804],[121.912,36.933],[121.212,36.61],[120.979,36.61],[120.965,36.417],[120.732,36.417],[120.659,36.095],[120.318,36.031],[119.986,35.645],[119.619,35.516],[119.228,34.808],[119.459,34.808],[119.431,34.744],[119.711,34.679],[119.732,34.551],[120.342,34.358],[120.489,34.165],[120.55,33.586],[120.926,33.2],[120.919,32.622],[121.403,32.493],[121.503,32.172],[121.961,31.979],[121.937,31.722],[121.836,31.658],[121.301,31.85],[120.919,31.85],[121.634,31.529],[121.484,31.336],[120.75,31.208],[120.29,31.4],[119.352,31.336],[119.247,31.465],[119.123,31.336],[118.919,31.4],[118.443,31.143],[117.659,31.079],[116.078,31.336],[115.896,31.465],[115.943,31.593],[115.714,31.593],[115.68,31.915],[115.475,31.979],[115.523,32.107],[115.093,31.979],[114.888,32.043],[114.783,32.172],[114.831,32.3],[114.679,32.3],[114.65,32.429],[114.393,32.557],[114.14,32.493],[114.007,32.75],[114.029,33.007],[113.75,32.879],[113.493,33.007],[112.933,32.943],[112.752,33.072],[111.676,33.264],[111.596,33.457],[111.21,33.65],[111.106,33.779],[111.156,33.907],[111.002,33.907],[111.078,34.1],[110.717,34.358],[110.768,34.486],[110.665,34.615],[108.199,34.615],[107.374,34.872],[107.347,35.001],[107.088,35.13],[107.139,35.258],[106.984,35.258],[107.397,35.902],[107.733,35.966],[109,36.031],[109.179,35.902],[109.438,35.966],[109.385,35.838],[110.597,35.773],[110.81,36.095],[110.888,36.095],[110.915,36.16],[110.992,36.16],[110.965,36.095],[111.043,36.095],[112.279,37.319],[113.545,38.997],[114.536,39.708],[114.919,39.838],[116.181,39.838],[117.03,40.096],[117.295,40.291],[117.532,40.291],[117.461,40.161],[117.662,40.096],[117.601,39.838],[117.724,39.773],[117.709,39.45],[117.867,39.45],[117.833,39.385],[117.99,39.385],[118.08,39.256],[117.776,39.126],[117.676,38.933],[117.642,38.868]]]]}}]}
