{"type":"FeatureCollection","name":"Seshat Cliopatria -1200–-1101","datasetId":"cliopatria","startYear":-1200,"endYear":-1101,"features":[{"type":"Feature","id":"cliopatria-b93b28d3ba9c3826601a4553","properties":{"NAME":"Elam","ABBREVN":null,"CONTROL":null,"SUBJECTO":"Elam","PARTOF":null,"BORDERPRECISION":1,"FromYear":-1300,"ToYear":-1151,"Area":81969.45075125474,"Type":"POLITY","Wikipedia":"Elam","Wikidata":"Q128904","SeshatID":"ir_elam_6","Components":"","MemberOf":"","sourceFeatureId":"cliopatria-b93b28d3ba9c3826601a4553","datasetId":"cliopatria"},"geometry":{"type":"MultiPolygon","coordinates":[[[[49.842,32.493],[49.824,32.365],[50.035,32.236],[50.017,32.107],[50.286,31.85],[50.166,31.529],[50.479,31.593],[50.386,31.465],[50.723,31.143],[50.705,31.015],[50.983,30.822],[50.966,30.694],[51.101,30.565],[51.472,30.501],[51.514,30.244],[51.725,30.115],[51.708,29.987],[52.24,29.408],[52.208,29.151],[51.882,28.958],[51.859,28.765],[51.557,28.765],[51.066,28.444],[51.028,28.765],[50.809,28.83],[50.915,29.087],[50.62,29.151],[50.651,29.408],[50.236,29.729],[50.065,30.179],[49.586,29.987],[49.019,30.308],[49.111,30.436],[49.119,30.501],[49.27,30.501],[49.287,30.629],[48.253,31.465],[48.152,32.429],[47.931,32.493],[47.966,32.75],[47.618,33.007],[47.636,33.136],[47.713,33.136],[48.547,33.072],[48.682,32.943],[48.988,32.943],[49.046,32.814],[49.276,32.814],[49.249,32.622],[49.717,32.686],[49.851,32.557],[49.842,32.493]]],[[[50.538,31.465],[50.462,31.465],[50.471,31.529],[50.547,31.529],[50.538,31.465]]]]}},{"type":"Feature","id":"cliopatria-3fea72b36f648a2e8c6c692e","properties":{"NAME":"New Kingdom of Egypt","ABBREVN":null,"CONTROL":null,"SUBJECTO":"New Kingdom of Egypt","PARTOF":null,"BORDERPRECISION":1,"FromYear":-1240,"ToYear":-1151,"Area":700581.5445854339,"Type":"POLITY","Wikipedia":"New Kingdom of Egypt","Wikidata":"Q180568","SeshatID":"eg_new_k_2","Components":"","MemberOf":"","sourceFeatureId":"cliopatria-3fea72b36f648a2e8c6c692e","datasetId":"cliopatria"},"geometry":{"type":"MultiPolygon","coordinates":[[[[36.705,32.622],[36.751,32.3],[36.516,32.236],[36.662,32.172],[36.387,31.658],[36.423,31.208],[36.271,31.208],[36.401,30.951],[36.156,30.758],[36.146,30.629],[35.999,30.694],[35.755,30.501],[35.457,30.565],[35.315,30.694],[35.331,30.886],[35.108,30.951],[34.804,30.951],[34.556,30.694],[34.672,30.244],[34.814,30.115],[34.8,29.922],[34.875,29.922],[34.861,29.729],[34.937,29.729],[34.913,29.408],[34.752,29.279],[34.711,28.701],[34.547,28.508],[34.517,28.058],[34.358,27.93],[34.346,27.737],[33.902,27.865],[33.554,28.315],[33.403,28.315],[33.189,28.508],[33.147,29.022],[32.857,29.215],[32.589,29.729],[32.602,29.922],[32.442,29.794],[32.689,28.958],[32.836,28.894],[33.105,28.38],[33.609,27.994],[33.585,27.608],[33.799,27.415],[33.927,27.029],[34.073,26.965],[34.051,26.579],[34.333,26.258],[34.326,26.129],[34.176,26.129],[32.38,24.651],[32.369,24.393],[32.444,24.393],[32.396,23.236],[32.76,23.043],[32.891,22.593],[33.035,22.465],[33.027,22.272],[33.24,22.015],[33.158,21.822],[33.233,21.822],[33.225,21.629],[33.371,21.565],[33.354,21.115],[33.781,20.665],[33.755,20.022],[34.159,19.058],[33.639,18.993],[33.578,19.315],[33.131,19.251],[32.83,19.122],[32.29,18.543],[31.915,18.415],[31.836,18.286],[31.238,18.093],[30.869,18.093],[30.652,18.222],[30.597,18.736],[30.523,18.736],[30.533,21.115],[30.458,21.115],[30.487,21.951],[30.413,21.951],[30.492,22.079],[30.072,22.851],[29.925,22.915],[29.65,23.558],[29.503,23.622],[29.157,24.393],[28.422,24.715],[27.987,25.101],[27.992,25.229],[27.844,25.294],[27.854,25.551],[27.709,25.679],[27.861,27.544],[27.789,27.608],[27.94,27.608],[28.136,28.572],[28.212,28.572],[28.146,28.765],[28.221,28.765],[28.244,29.215],[28.32,29.215],[28.569,30.951],[28.865,30.822],[29.397,30.822],[29.485,31.015],[29.633,30.951],[29.87,31.079],[29.802,31.208],[29.882,31.272],[30.339,31.272],[30.271,31.4],[30.352,31.465],[30.809,31.465],[30.966,31.529],[30.975,31.658],[31.203,31.658],[31.118,31.529],[31.266,31.465],[31.875,31.465],[31.781,31.208],[31.937,31.272],[32,31.079],[32.304,31.079],[32.237,31.208],[32.532,31.079],[32.765,31.143],[32.832,31.015],[33.749,31.079],[34.297,31.272],[34.308,31.4],[34.633,31.658],[34.573,31.85],[34.813,31.979],[34.77,32.365],[35.022,32.622],[35.056,33.007],[35.215,33.072],[35.398,33.393],[35.346,33.65],[35.499,33.65],[35.447,33.907],[35.684,33.972],[35.644,34.358],[35.792,34.293],[36.049,34.551],[36.055,34.615],[36.37,34.679],[36.428,34.486],[36.575,34.422],[36.568,34.358],[36.901,33.843],[36.869,33.522],[36.997,33.264],[36.806,32.879],[36.799,32.814],[36.705,32.622]]]]}},{"type":"Feature","id":"cliopatria-95e4b1a1cfe865bda7d95d81","properties":{"NAME":"Shang Dynasty","ABBREVN":null,"CONTROL":null,"SUBJECTO":"Shang Dynasty","PARTOF":null,"BORDERPRECISION":1,"FromYear":-1240,"ToYear":-1101,"Area":154175.1809778602,"Type":"POLITY","Wikipedia":"Shang dynasty","Wikidata":"Q128938","SeshatID":"cn_late_shang_dyn","Components":"","MemberOf":"","sourceFeatureId":"cliopatria-95e4b1a1cfe865bda7d95d81","datasetId":"cliopatria"},"geometry":{"type":"MultiPolygon","coordinates":[[[[116.392,37.771],[116.47,37.771],[116.565,37.642],[116.846,37.577],[116.815,37.513],[118.315,37.062],[118.457,36.868],[118.307,36.546],[117.712,36.095],[117.27,35.451],[117.059,35.323],[117.052,35.13],[116.423,34.744],[116.003,34.293],[115.438,34.229],[115.183,34.358],[115.109,34.551],[114.854,34.679],[114.835,35.001],[114.376,35.194],[112.471,35.258],[111.105,35.13],[110.821,35.001],[110.075,35.065],[110.541,35.451],[110.669,35.387],[110.877,35.516],[111.523,35.58],[113.298,36.288],[113.789,36.868],[113.976,37.448],[114.327,38.029],[114.249,38.029],[114.389,38.481],[115.084,38.933],[115.633,38.933],[116.096,38.287],[116.033,38.158],[116.126,38.029],[116.283,38.029],[116.392,37.771]]]]}},{"type":"Feature","id":"cliopatria-3b7db9514abe8008c8649b70","properties":{"NAME":"Assyria","ABBREVN":null,"CONTROL":null,"SUBJECTO":"Assyria","PARTOF":null,"BORDERPRECISION":1,"FromYear":-1200,"ToYear":-1151,"Area":467281.9910773735,"Type":"POLITY","Wikipedia":"Assyria","Wikidata":"Q41137","SeshatID":"iq_middle_assyrian_emp","Components":"","MemberOf":"","sourceFeatureId":"cliopatria-3b7db9514abe8008c8649b70","datasetId":"cliopatria"},"geometry":{"type":"MultiPolygon","coordinates":[[[[42.905,39.967],[42.984,39.967],[43.221,39.967],[43.278,39.838],[43.436,39.838],[43.415,39.708],[44.519,39.708],[44.486,39.514],[44.06,39.32],[44.139,39.32],[44.176,39.062],[44.322,38.997],[44.318,38.481],[44.533,38.351],[44.346,38.158],[44.306,37.9],[44.462,37.9],[44.599,37.771],[44.637,37.513],[44.852,37.384],[44.862,36.933],[45.066,36.739],[45.106,36.482],[45.388,36.288],[45.369,36.16],[45.447,36.16],[45.35,36.031],[46.329,35.838],[46.068,35.645],[46.04,35.451],[46.244,35.258],[46.226,35.13],[45.898,35.001],[45.862,34.744],[45.939,34.744],[46.157,34.1],[46.148,34.036],[45.918,34.036],[45.968,33.843],[45.891,33.843],[45.857,33.586],[46.07,33.457],[46.052,33.329],[45.899,33.329],[45.465,32.943],[44.716,33.072],[44.538,32.879],[44.309,32.879],[44.208,32.686],[43.91,32.75],[43.428,32.557],[43.351,32.557],[43.153,32.814],[42.709,32.943],[42.364,33.264],[42.065,33.329],[42.003,33.457],[40.912,33.972],[40.85,34.1],[40.473,34.165],[40.418,34.358],[40.118,34.422],[40.056,34.551],[39.608,34.679],[39.252,34.937],[39.09,34.872],[38.804,35.065],[38.418,35.065],[37.926,34.808],[37.723,35.065],[37.568,35.065],[37.47,34.872],[37.246,34.937],[37.155,34.808],[36.846,34.808],[36.769,34.808],[36.628,34.937],[36.648,35.13],[36.837,35.451],[37.224,35.451],[37.295,36.095],[37.372,36.095],[37.516,36.675],[37.198,36.61],[36.909,36.804],[36.675,36.804],[36.612,36.933],[36.386,36.997],[36.4,37.126],[36.663,37.384],[36.905,37.448],[37.28,37.319],[37.599,37.384],[37.786,37.642],[38.395,37.513],[38.81,37.706],[38.902,38.416],[38.823,38.416],[38.779,38.674],[38.622,38.674],[38.761,39.126],[38.543,39.256],[38.552,39.32],[38.351,39.579],[38.414,40.032],[38.265,40.096],[38.609,40.291],[38.688,40.291],[39.766,40.096],[40.121,40.355],[40.586,40.291],[40.864,40.55],[41.862,40.355],[42.347,40.42],[42.737,39.902],[42.905,39.967]]]]}},{"type":"Feature","id":"cliopatria-96214d9a6efc988f247dd2ef","properties":{"NAME":"Babylonia","ABBREVN":null,"CONTROL":null,"SUBJECTO":"Babylonia","PARTOF":null,"BORDERPRECISION":1,"FromYear":-1200,"ToYear":-1151,"Area":132635.73270175006,"Type":"POLITY","Wikipedia":"Babylonia","Wikidata":"Q47690","SeshatID":"iq_babylonia_2","Components":"","MemberOf":"","sourceFeatureId":"cliopatria-96214d9a6efc988f247dd2ef","datasetId":"cliopatria"},"geometry":{"type":"MultiPolygon","coordinates":[[[[47.636,33.136],[47.618,33.007],[47.966,32.75],[47.931,32.493],[48.152,32.429],[48.253,31.465],[49.287,30.629],[49.27,30.501],[49.119,30.501],[49.043,30.501],[48.943,30.308],[48.987,30.051],[48.365,29.922],[48.404,29.601],[47.866,29.537],[47.29,29.794],[46.979,29.729],[46.994,29.858],[46.85,29.922],[46.615,29.858],[46.591,30.308],[45.77,30.436],[44.955,31.272],[44.581,31.336],[44.459,31.593],[43.42,32.493],[43.428,32.557],[43.91,32.75],[44.208,32.686],[44.309,32.879],[44.538,32.879],[44.716,33.072],[45.465,32.943],[45.899,33.329],[46.052,33.329],[46.07,33.457],[45.857,33.586],[45.891,33.843],[45.968,33.843],[45.918,34.036],[46.148,34.036],[46.225,34.036],[46.379,34.036],[46.285,33.907],[46.421,33.779],[46.787,33.65],[46.692,33.522],[46.751,33.393],[47.56,33.136],[47.636,33.136]]]]}},{"type":"Feature","id":"cliopatria-dab9c3587c320586b5f66b60","properties":{"NAME":"Hittites","ABBREVN":null,"CONTROL":null,"SUBJECTO":"Hittites","PARTOF":null,"BORDERPRECISION":1,"FromYear":-1200,"ToYear":-1151,"Area":300838.51591230265,"Type":"POLITY","Wikipedia":"Hittites","Wikidata":"Q5406","SeshatID":"tr_hatti_new_k","Components":"","MemberOf":"","sourceFeatureId":"cliopatria-dab9c3587c320586b5f66b60","datasetId":"cliopatria"},"geometry":{"type":"MultiPolygon","coordinates":[[[[38.543,39.256],[38.761,39.126],[38.622,38.674],[38.779,38.674],[38.823,38.416],[38.902,38.416],[38.81,37.706],[38.395,37.513],[37.786,37.642],[37.599,37.384],[37.28,37.319],[36.905,37.448],[36.663,37.384],[36.4,37.126],[36.386,36.997],[36.612,36.933],[36.675,36.804],[36.909,36.804],[37.198,36.61],[37.516,36.675],[37.372,36.095],[37.295,36.095],[37.224,35.451],[36.837,35.451],[36.648,35.13],[36.628,34.937],[36.769,34.808],[36.762,34.744],[36.756,34.679],[36.679,34.679],[36.672,34.615],[36.665,34.551],[36.659,34.486],[36.582,34.486],[36.575,34.422],[36.428,34.486],[36.37,34.679],[36.055,34.615],[36.062,34.679],[35.927,34.872],[35.96,35.194],[35.882,35.194],[35.993,35.516],[35.845,35.58],[35.99,36.224],[35.842,36.288],[36.265,36.61],[36.286,36.804],[36.145,36.933],[35.834,36.933],[35.488,36.61],[35.113,36.739],[34.95,36.675],[34.893,36.868],[34.582,36.868],[34.251,36.675],[33.979,36.288],[32.558,36.031],[32.522,36.482],[32.373,36.546],[32.319,36.804],[32.098,36.933],[32.044,37.19],[31.888,37.19],[31.822,37.319],[31.582,37.255],[31.444,37.448],[31.132,37.448],[30.809,37.319],[30.604,37.642],[30.297,37.706],[30.23,37.835],[28.73,37.642],[28.662,37.771],[27.803,37.771],[27.578,37.9],[27.178,37.771],[27.275,38.029],[26.889,38.093],[26.82,38.222],[26.429,38.222],[26.384,38.674],[26.536,38.61],[26.595,38.351],[27.065,38.351],[27.08,38.545],[26.849,38.61],[26.943,38.803],[27.168,38.674],[27.158,38.545],[27.393,38.545],[27.54,38.416],[28.564,38.481],[28.805,38.545],[28.978,38.739],[30.264,39.062],[30.276,39.191],[30.506,39.126],[30.833,39.256],[31.509,39.708],[31.444,39.838],[31.752,39.773],[32.003,39.902],[32.965,40.032],[33.137,40.161],[33.754,40.032],[34.078,40.096],[34.363,39.838],[34.789,40.096],[35.097,40.032],[35.129,40.291],[35.525,40.291],[35.579,40.096],[35.982,40.161],[35.957,39.967],[36.598,40.032],[36.623,40.226],[36.799,40.355],[37.045,40.42],[37.344,40.291],[37.459,40.55],[37.696,40.55],[37.794,40.679],[38.032,40.679],[38.144,40.355],[38.618,40.355],[38.609,40.291],[38.265,40.096],[38.414,40.032],[38.351,39.579],[38.552,39.32],[38.543,39.256]]],[[[26.943,38.803],[26.864,38.803],[26.869,38.868],[26.948,38.868],[26.943,38.803]]]]}},{"type":"Feature","id":"cliopatria-ef23231a76caeab8c3fef7cc","properties":{"NAME":"Mycenaean Greece","ABBREVN":null,"CONTROL":null,"SUBJECTO":"Mycenaean Greece","PARTOF":null,"BORDERPRECISION":1,"FromYear":-1200,"ToYear":-1151,"Area":70984.01144600367,"Type":"POLITY","Wikipedia":"Mycenaean Greece","Wikidata":"Q181264","SeshatID":"","Components":"","MemberOf":"","sourceFeatureId":"cliopatria-ef23231a76caeab8c3fef7cc","datasetId":"cliopatria"},"geometry":{"type":"MultiPolygon","coordinates":[[[[22.874,36.16],[22.887,36.417],[22.965,36.417],[23.117,36.353],[23.107,36.16],[22.874,36.16]]],[[[24.201,37.642],[24.283,37.706],[24.361,37.706],[24.432,37.577],[24.272,37.513],[24.201,37.642]]],[[[20.613,37.706],[20.621,37.9],[20.699,37.9],[20.934,37.9],[20.922,37.642],[20.613,37.706]]],[[[24.682,37.835],[24.694,38.029],[24.772,38.029],[25.068,37.771],[24.83,37.706],[24.682,37.835]]],[[[23.167,38.674],[23.313,38.481],[23.626,38.481],[23.563,38.739],[24.03,38.674],[24.179,38.545],[24.159,38.222],[24.002,38.222],[23.979,37.835],[23.443,38.029],[23.208,38.029],[23.201,37.9],[23.044,37.9],[23.108,37.642],[23.342,37.642],[23.402,37.319],[23.169,37.319],[23.176,37.448],[22.949,37.577],[22.714,37.577],[22.701,37.319],[22.853,37.255],[23.056,36.675],[22.833,36.868],[22.599,36.868],[22.512,36.675],[22.356,36.675],[22.22,37.062],[21.909,37.062],[21.899,36.868],[21.744,36.868],[21.681,37.19],[21.603,37.19],[21.697,37.513],[21.244,37.835],[21.416,38.158],[21.729,38.158],[21.738,38.351],[21.193,38.416],[20.974,38.739],[20.741,38.803],[20.748,38.933],[21.14,38.933],[21.147,39.062],[20.993,39.126],[21.239,39.32],[21.714,39.385],[21.94,39.191],[22.438,39.644],[22.836,39.708],[23.135,39.45],[22.816,39.385],[22.797,39.062],[22.958,39.126],[23.108,38.997],[23.344,38.997],[23.489,38.803],[23.179,38.868],[23.183,38.933],[22.943,38.868],[22.936,38.739],[23.167,38.674]]],[[[20.32,38.158],[20.328,38.351],[20.488,38.416],[20.566,38.416],[20.795,38.287],[20.786,38.093],[20.32,38.158]]],[[[23.489,38.803],[23.567,38.803],[23.563,38.739],[23.485,38.739],[23.489,38.803]]],[[[24.365,38.997],[24.444,38.997],[24.675,38.933],[24.662,38.739],[24.357,38.868],[24.365,38.997]]],[[[23.284,40.55],[23.751,40.42],[23.737,40.226],[22.959,40.42],[22.813,40.614],[22.734,40.614],[22.592,40.874],[22.918,41.003],[23.218,40.744],[23.284,40.55]]],[[[24.157,35.516],[24.15,35.387],[24.301,35.323],[25.692,35.323],[25.681,35.13],[26.225,35.194],[26.14,35.065],[24.824,35.001],[24.757,35.194],[24.526,35.194],[24.448,35.194],[23.679,35.258],[23.615,35.516],[24.157,35.516]]],[[[27.743,35.902],[27.693,36.288],[28.017,36.482],[28.095,36.482],[28.25,36.482],[28.139,36.031],[27.743,35.902]]],[[[25.331,36.997],[25.339,37.126],[25.417,37.126],[25.573,37.126],[25.564,36.997],[25.331,36.997]]],[[[25.052,37.513],[24.986,37.706],[25.064,37.706],[25.22,37.706],[25.286,37.513],[25.052,37.513]]],[[[25.876,38.158],[25.899,38.481],[25.821,38.481],[25.913,38.674],[25.991,38.674],[26.217,38.545],[26.111,38.158],[25.876,38.158]]],[[[26.246,38.933],[26.094,38.997],[26.103,39.126],[25.793,39.191],[26.044,39.385],[26.123,39.385],[26.511,39.32],[26.644,38.997],[26.246,38.933]]],[[[26.747,39.32],[26.752,39.385],[26.91,39.385],[26.821,39.256],[26.747,39.32]]],[[[26.262,40.161],[26.42,40.161],[26.41,40.032],[26.783,39.773],[26.778,39.708],[26.699,39.708],[26.763,39.514],[26.132,39.514],[26.262,40.161]]],[[[25.067,40.032],[25.146,40.032],[25.462,40.032],[25.447,39.838],[24.974,39.838],[25.067,40.032]]]]}},{"type":"Feature","id":"cliopatria-f19d4c1f8c296afed57e8491","properties":{"NAME":"(Alliance between Elam and Babylonia)","ABBREVN":null,"CONTROL":null,"SUBJECTO":"(Alliance between Elam and Babylonia)","PARTOF":null,"BORDERPRECISION":1,"FromYear":-1200,"ToYear":-1151,"Area":214605.1834530047,"Type":"RELATION","Wikipedia":"Elam","Wikidata":"Q128904","SeshatID":"ir_elam_6;iq_babylonia_2","Components":"Babylonia;Elam","MemberOf":"","sourceFeatureId":"cliopatria-f19d4c1f8c296afed57e8491","datasetId":"cliopatria"},"geometry":{"type":"MultiPolygon","coordinates":[[[[49.842,32.493],[49.824,32.365],[50.035,32.236],[50.017,32.107],[50.286,31.85],[50.166,31.529],[50.479,31.593],[50.386,31.465],[50.723,31.143],[50.705,31.015],[50.983,30.822],[50.966,30.694],[51.101,30.565],[51.472,30.501],[51.514,30.244],[51.725,30.115],[51.708,29.987],[52.24,29.408],[52.208,29.151],[51.882,28.958],[51.859,28.765],[51.557,28.765],[51.066,28.444],[51.028,28.765],[50.809,28.83],[50.915,29.087],[50.62,29.151],[50.651,29.408],[50.236,29.729],[50.065,30.179],[49.586,29.987],[49.019,30.308],[49.111,30.436],[49.119,30.501],[49.043,30.501],[48.943,30.308],[48.987,30.051],[48.365,29.922],[48.404,29.601],[47.866,29.537],[47.29,29.794],[46.979,29.729],[46.994,29.858],[46.85,29.922],[46.615,29.858],[46.591,30.308],[45.77,30.436],[44.955,31.272],[44.581,31.336],[44.459,31.593],[43.42,32.493],[43.428,32.557],[43.91,32.75],[44.208,32.686],[44.309,32.879],[44.538,32.879],[44.716,33.072],[45.465,32.943],[45.899,33.329],[46.052,33.329],[46.07,33.457],[45.857,33.586],[45.891,33.843],[45.968,33.843],[45.918,34.036],[46.148,34.036],[46.225,34.036],[46.379,34.036],[46.285,33.907],[46.421,33.779],[46.787,33.65],[46.692,33.522],[46.751,33.393],[47.56,33.136],[47.636,33.136],[47.713,33.136],[48.547,33.072],[48.682,32.943],[48.988,32.943],[49.046,32.814],[49.276,32.814],[49.249,32.622],[49.717,32.686],[49.851,32.557],[49.842,32.493]]],[[[50.462,31.465],[50.471,31.529],[50.547,31.529],[50.538,31.465],[50.462,31.465]]]]}},{"type":"Feature","id":"cliopatria-d88dad72c334ad4e92a8c5dc","properties":{"NAME":"Assyria","ABBREVN":null,"CONTROL":null,"SUBJECTO":"Assyria","PARTOF":null,"BORDERPRECISION":1,"FromYear":-1150,"ToYear":-1101,"Area":515450.6376023157,"Type":"POLITY","Wikipedia":"Assyria","Wikidata":"Q41137","SeshatID":"iq_middle_assyrian_emp","Components":"","MemberOf":"","sourceFeatureId":"cliopatria-d88dad72c334ad4e92a8c5dc","datasetId":"cliopatria"},"geometry":{"type":"MultiPolygon","coordinates":[[[[36.216,36.868],[35.834,36.933],[35.488,36.61],[34.879,36.739],[35.204,36.868],[35.147,37.062],[35.296,36.997],[35.954,37.319],[36.076,37.706],[36.411,37.9],[36.472,38.416],[36.637,38.481],[36.755,38.803],[36.92,38.868],[36.937,38.997],[36.788,39.062],[36.733,39.256],[36.891,39.256],[37.773,39.967],[38.609,40.291],[39.766,40.096],[40.121,40.355],[40.586,40.291],[40.785,40.55],[41.862,40.355],[42.347,40.42],[42.737,39.902],[43.221,39.967],[43.278,39.838],[43.436,39.838],[43.415,39.708],[44.519,39.708],[44.486,39.514],[44.06,39.32],[44.139,39.32],[44.176,39.062],[44.322,38.997],[44.318,38.481],[44.533,38.351],[44.346,38.158],[44.306,37.9],[44.462,37.9],[44.599,37.771],[44.637,37.513],[44.852,37.384],[44.862,36.933],[45.066,36.739],[45.106,36.482],[45.388,36.288],[45.369,36.16],[45.447,36.16],[45.35,36.031],[46.329,35.838],[46.068,35.645],[46.04,35.451],[46.244,35.258],[46.226,35.13],[45.898,35.001],[45.862,34.744],[45.939,34.744],[46.157,34.1],[46.148,34.036],[45.918,34.036],[45.968,33.843],[45.891,33.843],[45.857,33.586],[46.07,33.457],[46.052,33.329],[45.899,33.329],[45.465,32.943],[44.716,33.072],[44.538,32.879],[44.309,32.879],[44.208,32.686],[43.91,32.75],[43.428,32.557],[43.351,32.557],[43.153,32.814],[42.709,32.943],[42.364,33.264],[42.065,33.329],[42.003,33.457],[40.912,33.972],[40.85,34.1],[40.473,34.165],[40.418,34.358],[40.118,34.422],[40.056,34.551],[39.608,34.679],[39.252,34.937],[39.09,34.872],[38.804,35.065],[38.418,35.065],[37.926,34.808],[37.723,35.065],[37.568,35.065],[37.47,34.872],[37.246,34.937],[37.155,34.808],[36.769,34.808],[36.705,34.937],[36.397,34.937],[36.383,34.808],[36.306,34.808],[36.165,34.937],[36.185,35.13],[36.353,35.258],[36.4,35.709],[35.956,35.902],[35.963,35.966],[35.968,36.018],[36.39,35.897],[37.052,36.176],[38.279,37.181],[38.603,37.636],[38.08,38.129],[37.616,37.624],[36.88,37.183],[36.216,36.868]]]]}},{"type":"Feature","id":"cliopatria-e19bcdec0ae5888d67a39d2b","properties":{"NAME":"Elam","ABBREVN":null,"CONTROL":null,"SUBJECTO":"Elam","PARTOF":null,"BORDERPRECISION":1,"FromYear":-1150,"ToYear":-1101,"Area":215099.67666294635,"Type":"POLITY","Wikipedia":"Elam","Wikidata":"Q128904","SeshatID":"ir_elam_7","Components":"","MemberOf":"","sourceFeatureId":"cliopatria-e19bcdec0ae5888d67a39d2b","datasetId":"cliopatria"},"geometry":{"type":"MultiPolygon","coordinates":[[[[47.636,33.136],[48.547,33.072],[48.682,32.943],[48.988,32.943],[49.046,32.814],[49.276,32.814],[49.249,32.622],[49.717,32.686],[49.851,32.557],[49.824,32.365],[50.035,32.236],[50.017,32.107],[50.286,31.85],[50.166,31.529],[50.479,31.593],[50.386,31.465],[50.723,31.143],[50.705,31.015],[50.983,30.822],[51.101,30.565],[51.472,30.501],[51.514,30.244],[51.725,30.115],[51.708,29.987],[52.24,29.408],[52.208,29.151],[51.882,28.958],[51.859,28.765],[51.557,28.765],[51.066,28.444],[51.028,28.765],[50.809,28.83],[50.915,29.087],[50.62,29.151],[50.651,29.408],[50.236,29.729],[50.065,30.179],[49.586,29.987],[48.943,30.308],[48.987,30.051],[48.365,29.922],[48.404,29.601],[48.093,29.537],[47.646,29.601],[47.29,29.794],[46.979,29.729],[46.994,29.858],[46.85,29.922],[46.615,29.858],[46.591,30.308],[45.77,30.436],[44.955,31.272],[44.581,31.336],[44.459,31.593],[43.42,32.493],[43.428,32.557],[43.91,32.75],[44.208,32.686],[44.309,32.879],[44.538,32.879],[44.716,33.072],[45.465,32.943],[45.899,33.329],[46.052,33.329],[46.07,33.457],[45.857,33.586],[45.891,33.843],[45.968,33.843],[45.918,34.036],[46.148,34.036],[46.225,34.036],[46.379,34.036],[46.285,33.907],[46.421,33.779],[46.787,33.65],[46.692,33.522],[46.751,33.393],[47.56,33.136],[47.636,33.136]]],[[[50.538,31.465],[50.462,31.465],[50.471,31.529],[50.547,31.529],[50.538,31.465]]]]}},{"type":"Feature","id":"cliopatria-4022680fef7d42a00d561c81","properties":{"NAME":"Mycenaean Greece","ABBREVN":null,"CONTROL":null,"SUBJECTO":"Mycenaean Greece","PARTOF":null,"BORDERPRECISION":1,"FromYear":-1150,"ToYear":-1101,"Area":58265.942614087544,"Type":"POLITY","Wikipedia":"Mycenaean Greece","Wikidata":"Q181264","SeshatID":"","Components":"","MemberOf":"","sourceFeatureId":"cliopatria-4022680fef7d42a00d561c81","datasetId":"cliopatria"},"geometry":{"type":"MultiPolygon","coordinates":[[[[23.615,35.516],[24.157,35.516],[24.15,35.387],[24.301,35.323],[25.692,35.323],[25.681,35.13],[26.225,35.194],[26.14,35.065],[24.824,35.001],[24.757,35.194],[24.526,35.194],[24.448,35.194],[23.679,35.258],[23.615,35.516]]],[[[28.139,36.031],[27.743,35.902],[27.693,36.288],[28.017,36.482],[28.095,36.482],[28.25,36.482],[28.139,36.031]]],[[[23.107,36.16],[22.874,36.16],[22.887,36.417],[22.965,36.417],[23.117,36.353],[23.107,36.16]]],[[[25.564,36.997],[25.331,36.997],[25.339,37.126],[25.417,37.126],[25.573,37.126],[25.564,36.997]]],[[[24.272,37.513],[24.201,37.642],[24.283,37.706],[24.361,37.706],[24.432,37.577],[24.272,37.513]]],[[[25.286,37.513],[25.052,37.513],[24.986,37.706],[25.064,37.706],[25.22,37.706],[25.286,37.513]]],[[[24.83,37.706],[24.682,37.835],[24.694,38.029],[24.772,38.029],[25.068,37.771],[24.83,37.706]]],[[[23.167,38.674],[23.313,38.481],[23.626,38.481],[23.563,38.739],[24.03,38.674],[24.179,38.545],[24.159,38.222],[24.002,38.222],[23.979,37.835],[23.443,38.029],[23.208,38.029],[23.201,37.9],[23.044,37.9],[23.108,37.642],[23.342,37.642],[23.402,37.319],[23.169,37.319],[23.176,37.448],[22.949,37.577],[22.714,37.577],[22.701,37.319],[22.853,37.255],[23.056,36.675],[22.833,36.868],[22.599,36.868],[22.512,36.675],[22.356,36.675],[22.22,37.062],[21.909,37.062],[21.899,36.868],[21.744,36.868],[21.681,37.19],[21.603,37.19],[21.697,37.513],[21.244,37.835],[21.416,38.158],[21.729,38.158],[21.738,38.351],[21.193,38.416],[20.974,38.739],[20.741,38.803],[20.748,38.933],[21.14,38.933],[21.147,39.062],[20.993,39.126],[21.239,39.32],[21.714,39.385],[21.94,39.191],[22.438,39.644],[22.836,39.708],[23.135,39.45],[22.816,39.385],[22.797,39.062],[22.958,39.126],[23.108,38.997],[23.344,38.997],[23.489,38.803],[23.179,38.868],[23.183,38.933],[22.943,38.868],[22.936,38.739],[23.167,38.674]]],[[[23.489,38.803],[23.567,38.803],[23.563,38.739],[23.485,38.739],[23.489,38.803]]]]}},{"type":"Feature","id":"cliopatria-7582ec2d29718f135c055e1d","properties":{"NAME":"(Phoenician Empire)","ABBREVN":null,"CONTROL":null,"SUBJECTO":"(Phoenician Empire)","PARTOF":null,"BORDERPRECISION":1,"FromYear":-1150,"ToYear":-1001,"Area":12404.97976092665,"Type":"POLITY","Wikipedia":"Phoenicia","Wikidata":"Q41642","SeshatID":"","Components":"Phoenicia","MemberOf":"","sourceFeatureId":"cliopatria-7582ec2d29718f135c055e1d","datasetId":"cliopatria"},"geometry":{"type":"MultiPolygon","coordinates":[[[[36.248,34.229],[36.241,34.165],[36.151,34.036],[36.203,33.779],[36.049,33.779],[36.107,33.586],[35.865,33.457],[35.846,33.264],[35.699,33.329],[35.61,33.2],[35.604,33.136],[35.221,33.136],[35.227,33.2],[35.398,33.393],[35.346,33.65],[35.499,33.65],[35.447,33.907],[35.684,33.972],[35.644,34.358],[35.792,34.293],[36.049,34.551],[36.068,34.744],[35.927,34.872],[35.96,35.194],[35.882,35.194],[35.993,35.516],[35.845,35.58],[35.878,35.902],[35.956,35.902],[36.4,35.709],[36.353,35.258],[36.185,35.13],[36.165,34.937],[36.306,34.808],[36.3,34.744],[36.377,34.744],[36.248,34.229]]]]}},{"type":"Feature","id":"cliopatria-63515a0e5074c21fd89a4146","properties":{"NAME":"Neo-Hittite states","ABBREVN":null,"CONTROL":null,"SUBJECTO":"Neo-Hittite states","PARTOF":null,"BORDERPRECISION":1,"FromYear":-1150,"ToYear":-1001,"Area":24443.835958766398,"Type":"POLITY","Wikipedia":"Neo-Hittite states","Wikidata":"Q770281","SeshatID":"tr_neo_hittite_k","Components":"","MemberOf":"","sourceFeatureId":"cliopatria-63515a0e5074c21fd89a4146","datasetId":"cliopatria"},"geometry":{"type":"MultiPolygon","coordinates":[[[[36.131,36.607],[36.159,36.841],[36.88,37.183],[37.616,37.624],[38.08,38.129],[38.603,37.636],[38.279,37.181],[37.052,36.176],[36.39,35.897],[35.968,36.018],[35.792,36.31],[36.131,36.607]]]]}},{"type":"Feature","id":"cliopatria-8fd9fb56268d2226cced9a34","properties":{"NAME":"New Kingdom of Egypt","ABBREVN":null,"CONTROL":null,"SUBJECTO":"New Kingdom of Egypt","PARTOF":null,"BORDERPRECISION":1,"FromYear":-1150,"ToYear":-1001,"Area":635995.8971432223,"Type":"POLITY","Wikipedia":"New Kingdom of Egypt","Wikidata":"Q180568","SeshatID":"eg_new_k_2","Components":"","MemberOf":"","sourceFeatureId":"cliopatria-8fd9fb56268d2226cced9a34","datasetId":"cliopatria"},"geometry":{"type":"MultiPolygon","coordinates":[[[[32.237,31.208],[32.313,31.208],[32.532,31.079],[32.765,31.143],[32.908,31.015],[33.749,31.079],[34.297,31.272],[34.937,29.729],[34.913,29.408],[34.752,29.279],[34.711,28.701],[34.547,28.508],[34.517,28.058],[34.358,27.93],[34.346,27.737],[34.12,27.737],[33.617,28.122],[33.554,28.315],[33.403,28.315],[33.189,28.508],[33.147,29.022],[32.857,29.215],[32.589,29.729],[32.602,29.922],[32.442,29.794],[32.689,28.958],[32.836,28.894],[33.105,28.38],[33.609,27.994],[33.585,27.608],[33.799,27.415],[33.927,27.029],[34.073,26.965],[34.051,26.579],[34.333,26.258],[34.326,26.129],[34.176,26.129],[32.38,24.651],[32.369,24.393],[32.444,24.393],[32.396,23.236],[32.76,23.043],[32.891,22.593],[33.035,22.465],[33.027,22.272],[33.24,22.015],[33.158,21.822],[33.233,21.822],[33.225,21.629],[33.371,21.565],[33.354,21.115],[33.781,20.665],[33.755,20.022],[34.159,19.058],[33.639,18.993],[33.578,19.315],[33.131,19.251],[32.83,19.122],[32.29,18.543],[31.915,18.415],[31.836,18.286],[31.238,18.093],[30.869,18.093],[30.652,18.222],[30.597,18.736],[30.523,18.736],[30.533,21.115],[30.458,21.115],[30.487,21.951],[30.413,21.951],[30.492,22.079],[30.072,22.851],[29.925,22.915],[29.65,23.558],[29.503,23.622],[29.157,24.393],[28.422,24.715],[27.844,25.294],[27.854,25.551],[27.709,25.679],[27.861,27.544],[27.789,27.608],[27.94,27.608],[28.136,28.572],[28.212,28.572],[28.146,28.765],[28.221,28.765],[28.244,29.215],[28.32,29.215],[28.569,30.951],[28.865,30.822],[29.397,30.822],[29.485,31.015],[29.633,30.951],[29.87,31.079],[29.802,31.208],[29.882,31.272],[30.339,31.272],[30.271,31.4],[30.352,31.465],[30.809,31.465],[30.966,31.529],[30.975,31.658],[31.203,31.658],[31.118,31.529],[31.266,31.465],[31.875,31.465],[31.781,31.208],[31.937,31.272],[32,31.079],[32.304,31.079],[32.237,31.208]]]]}},{"type":"Feature","id":"cliopatria-e46ba93672cb6bb511210fe5","properties":{"NAME":"Philistia","ABBREVN":null,"CONTROL":null,"SUBJECTO":"Philistia","PARTOF":null,"BORDERPRECISION":1,"FromYear":-1150,"ToYear":-1001,"Area":10967.078013650409,"Type":"POLITY","Wikipedia":"Philistia","Wikidata":"Q7185566","SeshatID":"","Components":"","MemberOf":"","sourceFeatureId":"cliopatria-e46ba93672cb6bb511210fe5","datasetId":"cliopatria"},"geometry":{"type":"MultiPolygon","coordinates":[[[[35.004,31.529],[35.064,31.336],[34.358,31.079],[34.308,31.4],[34.633,31.658],[34.573,31.85],[34.813,31.979],[34.77,32.365],[35.022,32.622],[35.056,33.007],[35.215,33.072],[35.221,33.136],[35.604,33.136],[35.598,33.072],[35.41,32.686],[35.463,32.429],[35.288,32.172],[35.249,31.722],[35.009,31.593],[35.004,31.529]]]]}},{"type":"Feature","id":"cliopatria-28293778b9839879061e0960","properties":{"NAME":"Phoenicia","ABBREVN":null,"CONTROL":null,"SUBJECTO":"Phoenicia","PARTOF":"(Phoenician Empire)","BORDERPRECISION":1,"FromYear":-1150,"ToYear":-1001,"Area":12404.97976092665,"Type":"POLITY","Wikipedia":"Phoenicia","Wikidata":"Q41642","SeshatID":"lb_phoenician_emp","Components":"","MemberOf":"(Phoenician Empire)","sourceFeatureId":"cliopatria-28293778b9839879061e0960","datasetId":"cliopatria"},"geometry":{"type":"MultiPolygon","coordinates":[[[[36.248,34.229],[36.241,34.165],[36.151,34.036],[36.203,33.779],[36.049,33.779],[36.107,33.586],[35.865,33.457],[35.846,33.264],[35.699,33.329],[35.61,33.2],[35.604,33.136],[35.221,33.136],[35.227,33.2],[35.398,33.393],[35.346,33.65],[35.499,33.65],[35.447,33.907],[35.684,33.972],[35.644,34.358],[35.792,34.293],[36.049,34.551],[36.068,34.744],[35.927,34.872],[35.96,35.194],[35.882,35.194],[35.993,35.516],[35.845,35.58],[35.878,35.902],[35.956,35.902],[36.4,35.709],[36.353,35.258],[36.185,35.13],[36.165,34.937],[36.306,34.808],[36.3,34.744],[36.377,34.744],[36.248,34.229]]]]}}]}
