{"type":"FeatureCollection","name":"Seshat Cliopatria -1400–-1301","datasetId":"cliopatria","startYear":-1400,"endYear":-1301,"features":[{"type":"Feature","id":"cliopatria-ef732fdef202a94449a474c5","properties":{"NAME":"Shang Dynasty","ABBREVN":null,"CONTROL":null,"SUBJECTO":"Shang Dynasty","PARTOF":null,"BORDERPRECISION":1,"FromYear":-1600,"ToYear":-1241,"Area":154175.1809778602,"Type":"POLITY","Wikipedia":"Shang dynasty","Wikidata":"Q128938","SeshatID":"cn_erligang","Components":"","MemberOf":"","sourceFeatureId":"cliopatria-ef732fdef202a94449a474c5","datasetId":"cliopatria"},"geometry":{"type":"MultiPolygon","coordinates":[[[[116.392,37.771],[116.47,37.771],[116.565,37.642],[116.846,37.577],[116.815,37.513],[118.315,37.062],[118.457,36.868],[118.307,36.546],[117.712,36.095],[117.27,35.451],[117.059,35.323],[117.052,35.13],[116.423,34.744],[116.003,34.293],[115.438,34.229],[115.183,34.358],[115.109,34.551],[114.854,34.679],[114.835,35.001],[114.376,35.194],[112.471,35.258],[111.105,35.13],[110.821,35.001],[110.075,35.065],[110.541,35.451],[110.669,35.387],[110.877,35.516],[111.523,35.58],[113.298,36.288],[113.789,36.868],[113.976,37.448],[114.327,38.029],[114.249,38.029],[114.389,38.481],[115.084,38.933],[115.633,38.933],[116.096,38.287],[116.033,38.158],[116.126,38.029],[116.283,38.029],[116.392,37.771]]]]}},{"type":"Feature","id":"cliopatria-e85f58cfbf6aca76afdbe838","properties":{"NAME":"Assyria","ABBREVN":null,"CONTROL":null,"SUBJECTO":"Assyria","PARTOF":null,"BORDERPRECISION":1,"FromYear":-1400,"ToYear":-1301,"Area":34429.08876087258,"Type":"POLITY","Wikipedia":"Assyria","Wikidata":"Q41137","SeshatID":"","Components":"","MemberOf":"","sourceFeatureId":"cliopatria-e85f58cfbf6aca76afdbe838","datasetId":"cliopatria"},"geometry":{"type":"MultiPolygon","coordinates":[[[[45.54,35.194],[45.531,35.13],[45.762,35.13],[45.889,34.937],[45.88,34.872],[45.717,34.808],[45.69,34.615],[45.536,34.615],[45.5,34.358],[45.645,34.293],[45.551,34.165],[44.474,34.165],[44.593,34.486],[44.38,34.615],[44.397,34.744],[43.445,35.13],[43.411,35.451],[43.514,35.645],[43.437,35.645],[43.594,36.224],[44.348,36.61],[44.338,36.546],[44.466,36.353],[44.621,36.353],[44.603,36.224],[44.808,36.031],[44.963,36.031],[45.167,35.838],[45.149,35.709],[45.294,35.645],[45.276,35.516],[45.422,35.451],[45.403,35.323],[45.54,35.194]]]]}},{"type":"Feature","id":"cliopatria-1fbcf8c7cb80c7a1a785c77f","properties":{"NAME":"Babylonia","ABBREVN":null,"CONTROL":null,"SUBJECTO":"Babylonia","PARTOF":null,"BORDERPRECISION":1,"FromYear":-1400,"ToYear":-1301,"Area":226483.55954840998,"Type":"POLITY","Wikipedia":"Babylonia","Wikidata":"Q47690","SeshatID":"iq_babylonia_2","Components":"","MemberOf":"","sourceFeatureId":"cliopatria-1fbcf8c7cb80c7a1a785c77f","datasetId":"cliopatria"},"geometry":{"type":"MultiPolygon","coordinates":[[[[45.871,34.808],[46.175,34.229],[46.148,34.036],[46.379,34.036],[46.285,33.907],[46.787,33.65],[46.684,33.457],[47.56,33.136],[47.636,33.136],[47.618,33.007],[47.966,32.75],[47.931,32.493],[48.152,32.429],[48.253,31.465],[49.287,30.629],[49.27,30.501],[49.119,30.501],[49.043,30.501],[48.943,30.308],[48.987,30.051],[48.365,29.922],[48.404,29.601],[47.866,29.537],[47.29,29.794],[46.979,29.729],[46.994,29.858],[46.85,29.922],[46.615,29.858],[46.591,30.308],[45.77,30.436],[44.955,31.272],[44.581,31.336],[44.459,31.593],[43.153,32.814],[42.709,32.943],[42.364,33.264],[42.065,33.329],[42.003,33.457],[40.912,33.972],[40.85,34.1],[40.473,34.165],[40.418,34.358],[40.048,34.486],[40.056,34.551],[40.934,34.808],[41.283,35.13],[41.953,34.937],[42.811,35.001],[42.947,35.451],[43.437,35.645],[43.514,35.645],[43.411,35.451],[43.445,35.13],[44.397,34.744],[44.38,34.615],[44.593,34.486],[44.474,34.165],[45.551,34.165],[45.645,34.293],[45.5,34.358],[45.536,34.615],[45.69,34.615],[45.717,34.808],[45.88,34.872],[45.871,34.808]]]]}},{"type":"Feature","id":"cliopatria-7e09691ebecf545a604056d3","properties":{"NAME":"Elam","ABBREVN":null,"CONTROL":null,"SUBJECTO":"Elam","PARTOF":null,"BORDERPRECISION":1,"FromYear":-1400,"ToYear":-1301,"Area":81969.45075125474,"Type":"POLITY","Wikipedia":"Elam","Wikidata":"Q128904","SeshatID":"ir_elam_5","Components":"","MemberOf":"","sourceFeatureId":"cliopatria-7e09691ebecf545a604056d3","datasetId":"cliopatria"},"geometry":{"type":"MultiPolygon","coordinates":[[[[49.842,32.493],[49.824,32.365],[50.035,32.236],[50.017,32.107],[50.286,31.85],[50.166,31.529],[50.479,31.593],[50.386,31.465],[50.723,31.143],[50.705,31.015],[50.983,30.822],[50.966,30.694],[51.101,30.565],[51.472,30.501],[51.514,30.244],[51.725,30.115],[51.708,29.987],[52.24,29.408],[52.208,29.151],[51.882,28.958],[51.859,28.765],[51.557,28.765],[51.066,28.444],[51.028,28.765],[50.809,28.83],[50.915,29.087],[50.62,29.151],[50.651,29.408],[50.236,29.729],[50.065,30.179],[49.586,29.987],[49.019,30.308],[49.111,30.436],[49.119,30.501],[49.27,30.501],[49.287,30.629],[48.253,31.465],[48.152,32.429],[47.931,32.493],[47.966,32.75],[47.618,33.007],[47.636,33.136],[47.713,33.136],[48.547,33.072],[48.682,32.943],[48.988,32.943],[49.046,32.814],[49.276,32.814],[49.249,32.622],[49.717,32.686],[49.851,32.557],[49.842,32.493]]],[[[50.538,31.465],[50.462,31.465],[50.471,31.529],[50.547,31.529],[50.538,31.465]]]]}},{"type":"Feature","id":"cliopatria-14a7a5503c7bc5e77788d6cf","properties":{"NAME":"Hittites","ABBREVN":null,"CONTROL":null,"SUBJECTO":"Hittites","PARTOF":null,"BORDERPRECISION":1,"FromYear":-1400,"ToYear":-1301,"Area":167243.9342233304,"Type":"POLITY","Wikipedia":"Hittites","Wikidata":"Q5406","SeshatID":"tr_hatti_new_k","Components":"","MemberOf":"","sourceFeatureId":"cliopatria-14a7a5503c7bc5e77788d6cf","datasetId":"cliopatria"},"geometry":{"type":"MultiPolygon","coordinates":[[[[36.812,39.256],[36.804,39.191],[37.015,38.997],[36.991,38.803],[37.383,38.803],[37.28,38.61],[37.656,38.481],[37.858,38.222],[37.85,38.158],[37.67,37.964],[37.638,37.706],[37.786,37.642],[37.771,37.513],[37.599,37.384],[36.663,37.384],[36.386,36.997],[36.081,37.062],[35.982,36.868],[35.904,36.868],[35.834,36.933],[35.488,36.61],[35.332,36.61],[35.113,36.739],[34.95,36.675],[34.893,36.868],[34.582,36.868],[34.251,36.675],[33.979,36.288],[32.558,36.031],[32.522,36.482],[32.373,36.546],[32.319,36.804],[32.098,36.933],[31.966,37.19],[32.056,37.319],[31.925,37.577],[31.949,37.835],[31.871,37.835],[31.896,38.093],[31.818,38.093],[31.843,38.351],[31.765,38.351],[31.738,38.868],[31.659,38.868],[31.829,38.997],[31.725,39.514],[31.818,39.644],[32.205,39.579],[33.086,39.708],[33.337,39.838],[33.446,40.096],[34.078,40.096],[34.363,39.838],[34.789,40.096],[35.097,40.032],[35.129,40.291],[35.525,40.291],[35.579,40.096],[35.982,40.161],[35.957,39.967],[36.036,39.967],[36.145,39.579],[36.812,39.256]]]]}},{"type":"Feature","id":"cliopatria-5416ce8179c9a9c62e65f546","properties":{"NAME":"Mitanni","ABBREVN":null,"CONTROL":null,"SUBJECTO":"Mitanni","PARTOF":null,"BORDERPRECISION":1,"FromYear":-1400,"ToYear":-1301,"Area":181413.0123578479,"Type":"POLITY","Wikipedia":"Mitanni","Wikidata":"Q178665","SeshatID":"sy_mitanni_k","Components":"","MemberOf":"","sourceFeatureId":"cliopatria-5416ce8179c9a9c62e65f546","datasetId":"cliopatria"},"geometry":{"type":"MultiPolygon","coordinates":[[[[39.93,37.319],[40.008,37.319],[40.242,37.319],[40.364,37.062],[40.849,37.19],[42.407,37.19],[42.458,36.997],[42.605,36.933],[42.587,36.804],[43.053,36.804],[43.159,36.997],[43.607,36.868],[43.557,37.062],[43.791,37.062],[43.85,36.933],[44.298,36.804],[44.357,36.675],[44.348,36.61],[43.594,36.224],[43.437,35.645],[42.947,35.451],[42.811,35.001],[41.953,34.937],[41.283,35.13],[40.934,34.808],[40.056,34.551],[39.979,34.551],[39.252,34.937],[39.09,34.872],[38.804,35.065],[38.418,35.065],[38.179,35.001],[38.003,34.808],[36.819,34.551],[36.652,34.422],[36.716,34.293],[36.639,34.293],[36.293,34.679],[36.339,35.13],[36.262,35.13],[36.456,36.224],[36.618,36.288],[36.632,36.417],[36.265,36.61],[36.272,36.675],[36.145,36.933],[36.06,36.868],[35.982,36.868],[36.081,37.062],[36.386,36.997],[36.663,37.384],[37.599,37.384],[37.771,37.513],[37.786,37.642],[37.638,37.706],[37.67,37.964],[37.85,38.158],[37.929,38.158],[38.67,37.835],[38.982,37.835],[39.044,37.706],[39.93,37.319]]]]}},{"type":"Feature","id":"cliopatria-9754d20d7fa50dcf97554fd0","properties":{"NAME":"Mycenaean Greece","ABBREVN":null,"CONTROL":null,"SUBJECTO":"Mycenaean Greece","PARTOF":null,"BORDERPRECISION":1,"FromYear":-1400,"ToYear":-1301,"Area":56426.54722371916,"Type":"POLITY","Wikipedia":"Mycenaean Greece","Wikidata":"Q181264","SeshatID":"","Components":"","MemberOf":"","sourceFeatureId":"cliopatria-9754d20d7fa50dcf97554fd0","datasetId":"cliopatria"},"geometry":{"type":"MultiPolygon","coordinates":[[[[23.615,35.516],[24.157,35.516],[24.15,35.387],[24.301,35.323],[25.692,35.323],[25.681,35.13],[26.225,35.194],[26.14,35.065],[24.824,35.001],[24.757,35.194],[24.526,35.194],[24.448,35.194],[23.679,35.258],[23.615,35.516]]],[[[22.874,36.16],[22.887,36.417],[22.965,36.417],[23.117,36.353],[23.107,36.16],[22.874,36.16]]],[[[24.201,37.642],[24.283,37.706],[24.361,37.706],[24.432,37.577],[24.272,37.513],[24.201,37.642]]],[[[24.83,37.706],[24.682,37.835],[24.694,38.029],[24.772,38.029],[25.068,37.771],[24.83,37.706]]],[[[23.167,38.674],[23.313,38.481],[23.626,38.481],[23.563,38.739],[24.03,38.674],[24.179,38.545],[24.159,38.222],[24.002,38.222],[23.979,37.835],[23.443,38.029],[23.208,38.029],[23.201,37.9],[23.044,37.9],[23.108,37.642],[23.342,37.642],[23.402,37.319],[23.169,37.319],[23.176,37.448],[22.949,37.577],[22.714,37.577],[22.701,37.319],[22.853,37.255],[23.056,36.675],[22.833,36.868],[22.599,36.868],[22.512,36.675],[22.356,36.675],[22.22,37.062],[21.909,37.062],[21.899,36.868],[21.744,36.868],[21.681,37.19],[21.603,37.19],[21.697,37.513],[21.244,37.835],[21.416,38.158],[21.729,38.158],[21.738,38.351],[21.272,38.416],[21.366,38.739],[21.854,39.062],[21.786,39.256],[21.94,39.191],[22.599,39.708],[22.836,39.708],[23.135,39.45],[22.816,39.385],[22.797,39.062],[23.116,39.126],[23.108,38.997],[23.344,38.997],[23.489,38.803],[23.179,38.868],[23.183,38.933],[22.943,38.868],[22.936,38.739],[23.167,38.674]]],[[[23.489,38.803],[23.567,38.803],[23.563,38.739],[23.485,38.739],[23.489,38.803]]],[[[24.662,38.739],[24.357,38.868],[24.365,38.997],[24.444,38.997],[24.675,38.933],[24.662,38.739]]],[[[27.743,35.902],[27.693,36.288],[28.017,36.482],[28.095,36.482],[28.25,36.482],[28.139,36.031],[27.743,35.902]]],[[[25.331,36.997],[25.339,37.126],[25.417,37.126],[25.573,37.126],[25.564,36.997],[25.331,36.997]]],[[[25.052,37.513],[24.986,37.706],[25.064,37.706],[25.22,37.706],[25.286,37.513],[25.052,37.513]]],[[[25.988,37.513],[26.08,37.706],[26.158,37.706],[26.314,37.706],[26.305,37.577],[25.988,37.513]]],[[[26.622,37.642],[26.557,37.835],[26.636,37.835],[27.026,37.835],[27.012,37.642],[26.622,37.642]]],[[[25.876,38.158],[25.899,38.481],[25.821,38.481],[25.913,38.674],[25.991,38.674],[26.217,38.545],[26.111,38.158],[25.876,38.158]]]]}},{"type":"Feature","id":"cliopatria-7245c275084d89c1efb93ae1","properties":{"NAME":"New Kingdom of Egypt","ABBREVN":null,"CONTROL":null,"SUBJECTO":"New Kingdom of Egypt","PARTOF":null,"BORDERPRECISION":1,"FromYear":-1400,"ToYear":-1301,"Area":708814.3636673576,"Type":"POLITY","Wikipedia":"New Kingdom of Egypt","Wikidata":"Q180568","SeshatID":"eg_new_k_1","Components":"","MemberOf":"","sourceFeatureId":"cliopatria-7245c275084d89c1efb93ae1","datasetId":"cliopatria"},"geometry":{"type":"MultiPolygon","coordinates":[[[[36.901,33.843],[36.869,33.522],[36.997,33.264],[36.717,32.75],[36.751,32.3],[36.516,32.236],[36.656,32.107],[36.492,31.979],[36.463,31.658],[36.387,31.658],[36.423,31.208],[36.271,31.208],[36.401,30.951],[36.156,30.758],[36.146,30.629],[35.999,30.694],[35.755,30.501],[35.457,30.565],[35.315,30.694],[35.331,30.886],[35.108,30.951],[34.804,30.951],[34.556,30.694],[34.672,30.244],[34.814,30.115],[34.8,29.922],[34.875,29.922],[34.861,29.729],[34.937,29.729],[34.913,29.408],[34.752,29.279],[34.711,28.701],[34.547,28.508],[34.517,28.058],[34.358,27.93],[34.346,27.737],[33.902,27.865],[33.554,28.315],[33.403,28.315],[33.189,28.508],[33.147,29.022],[32.857,29.215],[32.589,29.729],[32.602,29.922],[32.442,29.794],[32.689,28.958],[32.836,28.894],[33.105,28.38],[33.609,27.994],[33.585,27.608],[33.799,27.415],[33.927,27.029],[34.073,26.965],[34.051,26.579],[34.333,26.258],[34.326,26.129],[34.176,26.129],[32.38,24.651],[32.369,24.393],[32.444,24.393],[32.396,23.236],[32.76,23.043],[32.891,22.593],[33.035,22.465],[33.027,22.272],[33.24,22.015],[33.158,21.822],[33.233,21.822],[33.225,21.629],[33.371,21.565],[33.354,21.115],[33.781,20.665],[33.755,20.022],[34.159,19.058],[33.639,18.993],[33.578,19.315],[33.131,19.251],[32.83,19.122],[32.29,18.543],[31.915,18.415],[31.836,18.286],[31.238,18.093],[30.869,18.093],[30.652,18.222],[30.597,18.736],[30.523,18.736],[30.533,21.115],[30.458,21.115],[30.487,21.951],[30.413,21.951],[30.492,22.079],[30.072,22.851],[29.925,22.915],[29.65,23.558],[29.503,23.622],[29.157,24.393],[28.422,24.715],[27.987,25.101],[27.992,25.229],[27.844,25.294],[27.854,25.551],[27.709,25.679],[27.861,27.544],[27.789,27.608],[27.94,27.608],[28.136,28.572],[28.212,28.572],[28.146,28.765],[28.221,28.765],[28.244,29.215],[28.32,29.215],[28.569,30.951],[28.865,30.822],[29.397,30.822],[29.485,31.015],[29.633,30.951],[29.87,31.079],[29.802,31.208],[29.882,31.272],[30.339,31.272],[30.271,31.4],[30.352,31.465],[30.809,31.465],[30.966,31.529],[30.975,31.658],[31.203,31.658],[31.118,31.529],[31.266,31.465],[31.875,31.465],[31.781,31.208],[31.937,31.272],[32,31.079],[32.304,31.079],[32.237,31.208],[32.532,31.079],[32.765,31.143],[32.832,31.015],[33.749,31.079],[34.297,31.272],[34.308,31.4],[34.633,31.658],[34.573,31.85],[34.813,31.979],[34.77,32.365],[35.022,32.622],[35.056,33.007],[35.215,33.072],[35.398,33.393],[35.346,33.65],[35.499,33.65],[35.447,33.907],[35.684,33.972],[35.644,34.358],[35.792,34.293],[36.049,34.551],[36.068,34.744],[35.927,34.872],[35.96,35.194],[35.882,35.194],[35.993,35.516],[35.845,35.58],[35.99,36.224],[35.842,36.288],[36.187,36.61],[36.265,36.61],[36.632,36.417],[36.618,36.288],[36.456,36.224],[36.262,35.13],[36.339,35.13],[36.293,34.679],[36.639,34.293],[36.632,34.229],[36.901,33.843]]]]}}]}
