{"type":"FeatureCollection","name":"Seshat Cliopatria -1500–-1401","datasetId":"cliopatria","startYear":-1500,"endYear":-1401,"features":[{"type":"Feature","id":"cliopatria-09e49b1b49d8066c60aeffdb","properties":{"NAME":"Elam","ABBREVN":null,"CONTROL":null,"SUBJECTO":"Elam","PARTOF":null,"BORDERPRECISION":1,"FromYear":-1600,"ToYear":-1401,"Area":79387.24858399261,"Type":"POLITY","Wikipedia":"Elam","Wikidata":"Q128904","SeshatID":"ir_elam_4","Components":"","MemberOf":"","sourceFeatureId":"cliopatria-09e49b1b49d8066c60aeffdb","datasetId":"cliopatria"},"geometry":{"type":"MultiPolygon","coordinates":[[[[49.842,32.493],[49.824,32.365],[50.035,32.236],[50.017,32.107],[50.286,31.85],[50.166,31.529],[50.479,31.593],[50.386,31.465],[50.723,31.143],[50.705,31.015],[50.983,30.822],[50.966,30.694],[51.101,30.565],[51.472,30.501],[51.514,30.244],[51.725,30.115],[51.708,29.987],[52.24,29.408],[52.208,29.151],[51.882,28.958],[51.859,28.765],[51.557,28.765],[51.066,28.444],[51.028,28.765],[50.809,28.83],[50.915,29.087],[50.62,29.151],[50.651,29.408],[50.236,29.729],[50.065,30.179],[49.346,30.501],[49.111,30.436],[49.127,30.565],[49.287,30.629],[49.135,30.629],[49.143,30.694],[48.744,31.143],[48.592,31.143],[48.253,31.465],[48.152,32.429],[47.931,32.493],[47.966,32.75],[47.618,33.007],[47.636,33.136],[47.713,33.136],[48.547,33.072],[48.682,32.943],[48.988,32.943],[49.046,32.814],[49.276,32.814],[49.249,32.622],[49.717,32.686],[49.851,32.557],[49.842,32.493]]],[[[50.538,31.465],[50.462,31.465],[50.471,31.529],[50.547,31.529],[50.538,31.465]]]]}},{"type":"Feature","id":"cliopatria-ef732fdef202a94449a474c5","properties":{"NAME":"Shang Dynasty","ABBREVN":null,"CONTROL":null,"SUBJECTO":"Shang Dynasty","PARTOF":null,"BORDERPRECISION":1,"FromYear":-1600,"ToYear":-1241,"Area":154175.1809778602,"Type":"POLITY","Wikipedia":"Shang dynasty","Wikidata":"Q128938","SeshatID":"cn_erligang","Components":"","MemberOf":"","sourceFeatureId":"cliopatria-ef732fdef202a94449a474c5","datasetId":"cliopatria"},"geometry":{"type":"MultiPolygon","coordinates":[[[[116.392,37.771],[116.47,37.771],[116.565,37.642],[116.846,37.577],[116.815,37.513],[118.315,37.062],[118.457,36.868],[118.307,36.546],[117.712,36.095],[117.27,35.451],[117.059,35.323],[117.052,35.13],[116.423,34.744],[116.003,34.293],[115.438,34.229],[115.183,34.358],[115.109,34.551],[114.854,34.679],[114.835,35.001],[114.376,35.194],[112.471,35.258],[111.105,35.13],[110.821,35.001],[110.075,35.065],[110.541,35.451],[110.669,35.387],[110.877,35.516],[111.523,35.58],[113.298,36.288],[113.789,36.868],[113.976,37.448],[114.327,38.029],[114.249,38.029],[114.389,38.481],[115.084,38.933],[115.633,38.933],[116.096,38.287],[116.033,38.158],[116.126,38.029],[116.283,38.029],[116.392,37.771]]]]}},{"type":"Feature","id":"cliopatria-8ef06fa263c74cc7e080bfc1","properties":{"NAME":"Assyria","ABBREVN":null,"CONTROL":null,"SUBJECTO":"Assyria","PARTOF":null,"BORDERPRECISION":1,"FromYear":-1500,"ToYear":-1401,"Area":35815.6862702609,"Type":"POLITY","Wikipedia":"Assyria","Wikidata":"Q41137","SeshatID":"","Components":"","MemberOf":"","sourceFeatureId":"cliopatria-8ef06fa263c74cc7e080bfc1","datasetId":"cliopatria"},"geometry":{"type":"MultiPolygon","coordinates":[[[[45.531,35.13],[45.762,35.13],[45.898,35.001],[45.88,34.872],[45.717,34.808],[45.767,34.615],[45.536,34.615],[45.509,34.422],[45.654,34.358],[45.619,34.1],[44.397,34.165],[44.525,34.551],[44.251,34.808],[43.368,35.13],[43.333,35.451],[43.506,35.58],[43.428,35.58],[43.437,35.645],[43.594,36.224],[44.348,36.61],[44.338,36.546],[44.466,36.353],[44.621,36.353],[44.603,36.224],[44.808,36.031],[44.963,36.031],[45.167,35.838],[45.149,35.709],[45.294,35.645],[45.276,35.516],[45.422,35.451],[45.403,35.323],[45.54,35.194],[45.531,35.13]]]]}},{"type":"Feature","id":"cliopatria-61e3ca32b454039b67e0aeba","properties":{"NAME":"Babylonia","ABBREVN":null,"CONTROL":null,"SUBJECTO":"Babylonia","PARTOF":null,"BORDERPRECISION":1,"FromYear":-1500,"ToYear":-1401,"Area":119373.26682198902,"Type":"POLITY","Wikipedia":"Babylonia","Wikidata":"Q47690","SeshatID":"iq_babylonia_2","Components":"","MemberOf":"","sourceFeatureId":"cliopatria-61e3ca32b454039b67e0aeba","datasetId":"cliopatria"},"geometry":{"type":"MultiPolygon","coordinates":[[[[47.483,33.136],[47.56,33.136],[47.636,33.136],[47.618,33.007],[47.966,32.75],[47.931,32.493],[48.152,32.429],[48.253,31.465],[48.592,31.143],[48.744,31.143],[49.143,30.694],[49.067,30.694],[48.103,30.886],[48.095,30.822],[47.799,30.886],[46.621,30.565],[46.591,30.308],[46.515,30.308],[45.77,30.436],[44.955,31.272],[44.581,31.336],[44.444,31.465],[44.459,31.593],[43.42,32.493],[43.436,32.622],[43.826,32.686],[43.918,32.814],[44.14,32.75],[44.103,33.072],[43.881,33.136],[43.974,33.264],[44.204,33.264],[44.305,33.457],[45.883,33.779],[45.909,33.972],[45.832,33.972],[45.927,34.1],[46.379,34.036],[46.285,33.907],[46.787,33.65],[46.692,33.522],[46.751,33.393],[47.347,33.264],[47.483,33.136]]]]}},{"type":"Feature","id":"cliopatria-19edfb75fe02358e1d97b8ae","properties":{"NAME":"First Sealand Dynasty","ABBREVN":null,"CONTROL":null,"SUBJECTO":"First Sealand Dynasty","PARTOF":null,"BORDERPRECISION":1,"FromYear":-1500,"ToYear":-1401,"Area":15392.040567171154,"Type":"POLITY","Wikipedia":"First Sealand dynasty","Wikidata":"Q7440601","SeshatID":"","Components":"","MemberOf":"","sourceFeatureId":"cliopatria-19edfb75fe02358e1d97b8ae","datasetId":"cliopatria"},"geometry":{"type":"MultiPolygon","coordinates":[[[[47.51,29.729],[46.979,29.729],[46.994,29.858],[46.85,29.922],[46.615,29.858],[46.583,30.244],[46.591,30.308],[46.621,30.565],[47.799,30.886],[48.095,30.822],[48.087,30.758],[48.056,30.501],[48.283,30.501],[48.48,30.244],[48.009,30.115],[48.07,29.987],[47.842,29.987],[47.585,29.729],[47.51,29.729]]]]}},{"type":"Feature","id":"cliopatria-26bca5685534f79f20271fde","properties":{"NAME":"Hittites","ABBREVN":null,"CONTROL":null,"SUBJECTO":"Hittites","PARTOF":null,"BORDERPRECISION":1,"FromYear":-1500,"ToYear":-1401,"Area":57838.25350770176,"Type":"POLITY","Wikipedia":"Hittites","Wikidata":"Q5406","SeshatID":"tr_hatti_old_k","Components":"","MemberOf":"","sourceFeatureId":"cliopatria-26bca5685534f79f20271fde","datasetId":"cliopatria"},"geometry":{"type":"MultiPolygon","coordinates":[[[[36.812,39.256],[36.804,39.191],[37.015,38.997],[36.991,38.803],[37.383,38.803],[37.28,38.61],[37.656,38.481],[37.858,38.222],[37.85,38.158],[37.67,37.964],[37.638,37.706],[37.786,37.642],[37.771,37.513],[37.599,37.384],[37.124,37.319],[37.061,37.448],[36.905,37.448],[36.493,37.255],[36.386,36.997],[36.003,37.062],[36.011,37.126],[35.862,37.19],[35.686,37.706],[35.544,37.835],[35.31,37.835],[35.275,38.222],[35.047,38.287],[35.006,38.61],[35.114,38.868],[34.965,38.933],[34.995,39.191],[34.838,39.191],[34.782,39.385],[34.632,39.45],[34.167,39.514],[34.111,39.708],[34.789,40.096],[35.097,40.032],[35.129,40.291],[35.525,40.291],[35.579,40.096],[35.982,40.161],[35.957,39.967],[36.036,39.967],[36.145,39.579],[36.812,39.256]]]]}},{"type":"Feature","id":"cliopatria-c665dfb896a5200a9c24a9ae","properties":{"NAME":"Hyksos","ABBREVN":null,"CONTROL":null,"SUBJECTO":"Hyksos","PARTOF":null,"BORDERPRECISION":1,"FromYear":-1500,"ToYear":-1401,"Area":66526.81902757405,"Type":"POLITY","Wikipedia":"Hyksos","Wikidata":"Q192319","SeshatID":"","Components":"","MemberOf":"","sourceFeatureId":"cliopatria-c665dfb896a5200a9c24a9ae","datasetId":"cliopatria"},"geometry":{"type":"MultiPolygon","coordinates":[[[[36.888,33.715],[36.881,33.65],[36.99,33.2],[36.717,32.75],[36.751,32.3],[36.516,32.236],[36.656,32.107],[36.492,31.979],[36.463,31.658],[36.387,31.658],[36.423,31.208],[36.271,31.208],[36.26,31.079],[36.406,31.015],[36.314,30.822],[36.156,30.758],[36.146,30.629],[35.999,30.694],[35.755,30.501],[35.457,30.565],[35.315,30.694],[35.331,30.886],[35.108,30.951],[34.804,30.951],[34.632,30.694],[34.556,30.694],[34.297,31.272],[34.302,31.336],[34.633,31.658],[34.573,31.85],[34.813,31.979],[34.77,32.365],[35.022,32.622],[35.056,33.007],[35.215,33.072],[35.398,33.393],[35.346,33.65],[35.499,33.65],[35.447,33.907],[35.684,33.972],[35.644,34.358],[35.792,34.293],[36.049,34.551],[36.068,34.744],[35.927,34.872],[35.96,35.194],[35.882,35.194],[35.889,35.258],[36.269,35.194],[36.165,34.937],[36.313,34.872],[36.293,34.679],[36.447,34.679],[36.441,34.615],[36.888,33.715]]]]}},{"type":"Feature","id":"cliopatria-1b8423c32a17f1af96512939","properties":{"NAME":"Minoan civilization","ABBREVN":null,"CONTROL":null,"SUBJECTO":"Minoan civilization","PARTOF":null,"BORDERPRECISION":1,"FromYear":-1500,"ToYear":-1401,"Area":5498.97315441141,"Type":"POLITY","Wikipedia":"Minoan civilization","Wikidata":"Q134178","SeshatID":"gr_crete_new_palace","Components":"","MemberOf":"","sourceFeatureId":"cliopatria-1b8423c32a17f1af96512939","datasetId":"cliopatria"},"geometry":{"type":"MultiPolygon","coordinates":[[[[24.526,35.194],[24.448,35.194],[23.679,35.258],[23.615,35.516],[24.157,35.516],[24.15,35.387],[24.301,35.323],[25.692,35.323],[25.681,35.13],[26.225,35.194],[26.14,35.065],[24.824,35.001],[24.757,35.194],[24.526,35.194]]]]}},{"type":"Feature","id":"cliopatria-1c611c6398f2e0b1a5bdae3e","properties":{"NAME":"Mitanni","ABBREVN":null,"CONTROL":null,"SUBJECTO":"Mitanni","PARTOF":null,"BORDERPRECISION":1,"FromYear":-1500,"ToYear":-1401,"Area":189149.06227042567,"Type":"POLITY","Wikipedia":"Mitanni","Wikidata":"Q178665","SeshatID":"","Components":"","MemberOf":"","sourceFeatureId":"cliopatria-1c611c6398f2e0b1a5bdae3e","datasetId":"cliopatria"},"geometry":{"type":"MultiPolygon","coordinates":[[[[39.93,37.319],[40.008,37.319],[40.242,37.319],[40.364,37.062],[40.849,37.19],[42.407,37.19],[42.458,36.997],[42.605,36.933],[42.587,36.804],[43.053,36.804],[43.159,36.997],[43.607,36.868],[43.557,37.062],[43.791,37.062],[43.85,36.933],[44.298,36.804],[44.357,36.675],[44.348,36.61],[43.594,36.224],[43.437,35.645],[43.359,35.645],[43.119,35.58],[42.938,35.387],[42.965,35.001],[41.876,34.937],[41.283,35.13],[41.127,34.486],[40.627,34.165],[40.473,34.165],[40.418,34.358],[40.118,34.422],[40.056,34.551],[39.608,34.679],[39.546,34.808],[39.252,34.937],[39.09,34.872],[38.804,35.065],[38.179,35.001],[37.926,34.808],[37.723,35.065],[37.568,35.065],[37.47,34.872],[37.246,34.937],[37.155,34.808],[36.93,34.872],[36.454,34.744],[36.447,34.679],[36.293,34.679],[36.313,34.872],[36.165,34.937],[36.269,35.194],[35.889,35.258],[35.896,35.323],[35.993,35.516],[35.845,35.58],[35.872,35.838],[35.99,36.224],[35.849,36.353],[36.265,36.61],[36.286,36.804],[36.145,36.933],[35.904,36.868],[35.926,37.062],[36.003,37.062],[36.386,36.997],[36.493,37.255],[36.905,37.448],[37.061,37.448],[37.124,37.319],[37.599,37.384],[37.771,37.513],[37.786,37.642],[37.638,37.706],[37.67,37.964],[37.85,38.158],[37.929,38.158],[38.67,37.835],[38.982,37.835],[39.044,37.706],[39.93,37.319]]]]}},{"type":"Feature","id":"cliopatria-a34198139e74f6b843abf51c","properties":{"NAME":"Mycenaean Greece","ABBREVN":null,"CONTROL":null,"SUBJECTO":"Mycenaean Greece","PARTOF":null,"BORDERPRECISION":1,"FromYear":-1500,"ToYear":-1401,"Area":45664.03809307217,"Type":"POLITY","Wikipedia":"Mycenaean Greece","Wikidata":"Q181264","SeshatID":"","Components":"","MemberOf":"","sourceFeatureId":"cliopatria-a34198139e74f6b843abf51c","datasetId":"cliopatria"},"geometry":{"type":"MultiPolygon","coordinates":[[[[23.117,36.353],[23.107,36.16],[22.874,36.16],[22.887,36.417],[22.965,36.417],[23.117,36.353]]],[[[25.564,36.997],[25.331,36.997],[25.339,37.126],[25.417,37.126],[25.573,37.126],[25.564,36.997]]],[[[24.272,37.513],[24.201,37.642],[24.283,37.706],[24.361,37.706],[24.432,37.577],[24.272,37.513]]],[[[25.286,37.513],[25.052,37.513],[24.986,37.706],[25.064,37.706],[25.22,37.706],[25.286,37.513]]],[[[24.83,37.706],[24.682,37.835],[24.694,38.029],[24.772,38.029],[25.068,37.771],[24.83,37.706]]],[[[22.936,38.739],[23.167,38.674],[23.313,38.481],[23.626,38.481],[23.563,38.739],[24.03,38.674],[24.179,38.545],[24.159,38.222],[24.002,38.222],[23.979,37.835],[23.443,38.029],[23.208,38.029],[23.201,37.9],[23.044,37.9],[23.108,37.642],[23.342,37.642],[23.402,37.319],[23.169,37.319],[23.176,37.448],[22.949,37.577],[22.714,37.577],[22.701,37.319],[22.853,37.255],[23.056,36.675],[22.833,36.868],[22.599,36.868],[22.512,36.675],[22.356,36.675],[22.22,37.062],[21.909,37.062],[21.899,36.868],[21.744,36.868],[21.681,37.19],[21.603,37.19],[21.697,37.513],[21.244,37.835],[21.416,38.158],[21.729,38.158],[21.738,38.351],[21.272,38.416],[21.366,38.739],[21.854,39.062],[21.786,39.256],[21.94,39.191],[22.599,39.708],[22.836,39.708],[23.135,39.45],[22.816,39.385],[22.797,39.062],[23.116,39.126],[23.108,38.997],[23.344,38.997],[23.489,38.803],[23.179,38.868],[23.183,38.933],[22.943,38.868],[22.936,38.739]]],[[[23.485,38.739],[23.489,38.803],[23.567,38.803],[23.563,38.739],[23.485,38.739]]]]}},{"type":"Feature","id":"cliopatria-9a8b48f5926083c50816e4ae","properties":{"NAME":"New Kingdom of Egypt","ABBREVN":null,"CONTROL":null,"SUBJECTO":"New Kingdom of Egypt","PARTOF":null,"BORDERPRECISION":1,"FromYear":-1500,"ToYear":-1401,"Area":635841.4681346857,"Type":"POLITY","Wikipedia":"New Kingdom of Egypt","Wikidata":"Q180568","SeshatID":"eg_new_k_1","Components":"","MemberOf":"","sourceFeatureId":"cliopatria-9a8b48f5926083c50816e4ae","datasetId":"cliopatria"},"geometry":{"type":"MultiPolygon","coordinates":[[[[32.313,31.208],[32.532,31.079],[32.765,31.143],[32.908,31.015],[33.749,31.079],[34.221,31.272],[34.297,31.272],[34.556,30.694],[34.551,30.629],[34.937,29.729],[34.913,29.408],[34.752,29.279],[34.711,28.701],[34.547,28.508],[34.517,28.058],[34.358,27.93],[34.346,27.737],[33.902,27.865],[33.554,28.315],[33.403,28.315],[33.189,28.508],[33.214,28.894],[32.857,29.215],[32.589,29.729],[32.602,29.922],[32.442,29.794],[32.429,29.601],[32.639,29.344],[32.689,28.958],[32.836,28.894],[33.105,28.38],[33.609,27.994],[33.585,27.608],[33.799,27.415],[33.927,27.029],[34.073,26.965],[34.051,26.579],[34.333,26.258],[34.326,26.129],[34.176,26.129],[32.38,24.651],[32.369,24.393],[32.444,24.393],[32.396,23.236],[32.76,23.043],[32.891,22.593],[33.035,22.465],[33.027,22.272],[33.24,22.015],[33.158,21.822],[33.233,21.822],[33.225,21.629],[33.371,21.565],[33.354,21.115],[33.781,20.665],[33.755,20.022],[34.159,19.058],[33.639,18.993],[33.578,19.315],[33.131,19.251],[32.83,19.122],[32.29,18.543],[31.915,18.415],[31.836,18.286],[31.238,18.093],[30.869,18.093],[30.652,18.222],[30.597,18.736],[30.523,18.736],[30.533,21.115],[30.458,21.115],[30.487,21.951],[30.413,21.951],[30.492,22.079],[30.072,22.851],[29.925,22.915],[29.65,23.558],[29.503,23.622],[29.157,24.393],[28.422,24.715],[27.844,25.294],[27.854,25.551],[27.709,25.679],[27.861,27.544],[27.789,27.608],[27.94,27.608],[28.136,28.572],[28.212,28.572],[28.146,28.765],[28.221,28.765],[28.244,29.215],[28.32,29.215],[28.569,30.951],[28.865,30.822],[29.397,30.822],[29.485,31.015],[29.633,30.951],[29.87,31.079],[29.802,31.208],[29.882,31.272],[30.339,31.272],[30.271,31.4],[30.352,31.465],[30.809,31.465],[30.966,31.529],[30.975,31.658],[31.203,31.658],[31.118,31.529],[31.266,31.465],[31.875,31.465],[31.781,31.208],[31.937,31.272],[32,31.079],[32.304,31.079],[32.237,31.208],[32.313,31.208]]]]}}]}
