{"type":"FeatureCollection","name":"Seshat Cliopatria -1600–-1501","datasetId":"cliopatria","startYear":-1600,"endYear":-1501,"features":[{"type":"Feature","id":"cliopatria-8e4370903827e7dd79d25bd5","properties":{"NAME":"Assyria","ABBREVN":null,"CONTROL":null,"SUBJECTO":"Assyria","PARTOF":null,"BORDERPRECISION":1,"FromYear":-1700,"ToYear":-1501,"Area":63721.64145582211,"Type":"POLITY","Wikipedia":"Assyria","Wikidata":"Q41137","SeshatID":"","Components":"","MemberOf":"","sourceFeatureId":"cliopatria-8e4370903827e7dd79d25bd5","datasetId":"cliopatria"},"geometry":{"type":"MultiPolygon","coordinates":[[[[45.54,35.194],[45.898,35.001],[45.88,34.872],[45.717,34.808],[45.767,34.615],[45.536,34.615],[45.509,34.422],[45.654,34.358],[45.636,34.229],[45.628,34.165],[44.397,34.165],[44.371,33.972],[44.5,33.779],[44.423,33.779],[44.373,33.393],[44.212,33.329],[44.135,33.329],[44.075,33.457],[43.477,33.586],[43.279,33.843],[43.125,33.843],[42.919,34.036],[42.89,34.422],[42.728,34.358],[42.436,34.486],[42.433,35.065],[42.896,35.065],[42.861,35.387],[43.127,35.645],[43.446,35.709],[43.412,36.031],[43.603,36.288],[44.279,36.675],[44.357,36.675],[44.397,36.417],[44.621,36.353],[44.603,36.224],[45.167,35.838],[45.149,35.709],[45.549,35.258],[45.54,35.194]]],[[[27.595,40.938],[27.516,40.938],[27.522,41.003],[27.601,41.003],[27.595,40.938]]],[[[27.766,41.068],[27.76,41.003],[27.68,41.003],[27.601,41.003],[27.607,41.068],[27.686,41.068],[27.766,41.068]]]]}},{"type":"Feature","id":"cliopatria-e71a4c9f31f44a6504bbecbf","properties":{"NAME":"Babylonia","ABBREVN":null,"CONTROL":null,"SUBJECTO":"Babylonia","PARTOF":null,"BORDERPRECISION":1,"FromYear":-1600,"ToYear":-1501,"Area":126674.71669401185,"Type":"POLITY","Wikipedia":"Babylonia","Wikidata":"Q47690","SeshatID":"iq_babylonia_1","Components":"","MemberOf":"","sourceFeatureId":"cliopatria-e71a4c9f31f44a6504bbecbf","datasetId":"cliopatria"},"geometry":{"type":"MultiPolygon","coordinates":[[[[46.642,33.715],[46.633,33.65],[46.787,33.65],[46.692,33.522],[46.751,33.393],[47.56,33.136],[47.636,33.136],[47.618,33.007],[47.966,32.75],[47.931,32.493],[48.152,32.429],[48.253,31.465],[48.592,31.143],[48.744,31.143],[49.143,30.694],[49.067,30.694],[48.103,30.886],[48.095,30.822],[47.799,30.886],[46.621,30.565],[46.591,30.308],[46.515,30.308],[45.77,30.436],[44.955,31.272],[44.581,31.336],[44.459,31.593],[43.42,32.493],[43.436,32.622],[43.826,32.686],[43.918,32.814],[44.216,32.75],[44.103,33.072],[43.881,33.136],[43.974,33.264],[44.204,33.264],[44.212,33.329],[44.373,33.393],[44.423,33.779],[44.5,33.779],[44.371,33.972],[44.397,34.165],[45.628,34.165],[45.619,34.1],[46.379,34.036],[46.285,33.907],[46.642,33.715]]]]}},{"type":"Feature","id":"cliopatria-a904162b7866fa195a62d7d8","properties":{"NAME":"Fifteenth Dynasty of Egypt","ABBREVN":null,"CONTROL":null,"SUBJECTO":"Fifteenth Dynasty of Egypt","PARTOF":null,"BORDERPRECISION":1,"FromYear":-1600,"ToYear":-1501,"Area":34444.34083250757,"Type":"POLITY","Wikipedia":"Fifteenth Dynasty of Egypt","Wikidata":"Q728479","SeshatID":"eg_thebes_hyksos","Components":"","MemberOf":"","sourceFeatureId":"cliopatria-a904162b7866fa195a62d7d8","datasetId":"cliopatria"},"geometry":{"type":"MultiPolygon","coordinates":[[[[31.098,31.602],[31.103,31.601],[31.521,31.449],[31.525,31.448],[31.434,31.246],[31.053,31.183],[30.95,30.863],[30.807,30.796],[30.657,30.087],[30.931,30.29],[30.806,29.678],[30.626,29.366],[30.884,29.233],[31.328,29.232],[31.319,29.216],[31.002,28.51],[30.931,28.033],[31.003,27.658],[30.6,27.659],[30.448,28.711],[30.052,28.773],[29.946,28.915],[30.029,29.186],[30.385,29.422],[30.375,29.72],[30.116,30.067],[29.503,30.503],[29.497,30.946],[30.064,31.32],[30.29,31.237],[30.354,31.448],[30.429,31.432],[30.355,31.503],[30.956,31.576],[30.544,31.393],[30.903,31.42],[31.126,31.497],[30.978,31.584],[31.098,31.602]]]]}},{"type":"Feature","id":"cliopatria-6545cdf6df425a975f9aaebe","properties":{"NAME":"First Sealand Dynasty","ABBREVN":null,"CONTROL":null,"SUBJECTO":"First Sealand Dynasty","PARTOF":null,"BORDERPRECISION":1,"FromYear":-1600,"ToYear":-1501,"Area":13100.583986038713,"Type":"POLITY","Wikipedia":"First Sealand dynasty","Wikidata":"Q7440601","SeshatID":"","Components":"","MemberOf":"","sourceFeatureId":"cliopatria-6545cdf6df425a975f9aaebe","datasetId":"cliopatria"},"geometry":{"type":"MultiPolygon","coordinates":[[[[46.918,29.858],[46.615,29.858],[46.583,30.244],[46.591,30.308],[46.621,30.565],[47.799,30.886],[48.095,30.822],[48.087,30.758],[48.056,30.501],[48.2,30.436],[48.184,30.308],[47.865,30.179],[47.85,30.051],[47.623,30.051],[47.365,29.794],[46.979,29.729],[46.994,29.858],[46.918,29.858]]]]}},{"type":"Feature","id":"cliopatria-d5cdef0e5bc7447308f409e5","properties":{"NAME":"Hittites","ABBREVN":null,"CONTROL":null,"SUBJECTO":"Hittites","PARTOF":null,"BORDERPRECISION":1,"FromYear":-1600,"ToYear":-1501,"Area":58875.389019388276,"Type":"POLITY","Wikipedia":"Hittites","Wikidata":"Q5406","SeshatID":"tr_hatti_old_k","Components":"","MemberOf":"","sourceFeatureId":"cliopatria-d5cdef0e5bc7447308f409e5","datasetId":"cliopatria"},"geometry":{"type":"MultiPolygon","coordinates":[[[[36.812,39.256],[36.804,39.191],[37.015,38.997],[36.991,38.803],[37.383,38.803],[37.28,38.61],[37.437,38.61],[37.796,38.351],[37.834,38.029],[37.646,37.771],[37.794,37.706],[37.763,37.448],[37.116,37.255],[36.983,37.448],[36.812,37.319],[36.578,37.319],[36.463,36.997],[35.996,36.997],[36.018,37.19],[35.862,37.19],[35.686,37.706],[35.544,37.835],[35.31,37.835],[35.275,38.222],[35.047,38.287],[35.006,38.61],[35.114,38.868],[34.965,38.933],[34.995,39.191],[34.838,39.191],[34.782,39.385],[34.632,39.45],[34.167,39.514],[34.111,39.708],[34.789,40.096],[35.097,40.032],[35.129,40.291],[35.525,40.291],[35.579,40.096],[35.982,40.161],[35.957,39.967],[36.036,39.967],[36.145,39.579],[36.812,39.256]]]]}},{"type":"Feature","id":"cliopatria-35d9cc1b8207ccacdffa81ae","properties":{"NAME":"Hyksos","ABBREVN":null,"CONTROL":null,"SUBJECTO":"Hyksos","PARTOF":null,"BORDERPRECISION":1,"FromYear":-1600,"ToYear":-1501,"Area":134166.97549460095,"Type":"POLITY","Wikipedia":"Hyksos","Wikidata":"Q192319","SeshatID":"","Components":"","MemberOf":"","sourceFeatureId":"cliopatria-35d9cc1b8207ccacdffa81ae","datasetId":"cliopatria"},"geometry":{"type":"MultiPolygon","coordinates":[[[[36.351,34.501],[36.924,33.968],[36.228,30.876],[35.685,30.634],[35.379,30.707],[35.066,30.984],[34.717,30.996],[34.49,30.689],[34.904,29.487],[34.761,29.335],[34.409,28.319],[34.442,27.997],[34.254,27.729],[33.763,28.022],[33.243,28.554],[33.173,28.995],[32.741,29.455],[32.577,29.92],[32.845,30.076],[32.849,30.186],[32.849,30.195],[32.86,30.506],[32.746,30.502],[32.666,30.498],[31.618,30.445],[31.436,29.455],[31.431,29.425],[31.46,29.232],[31.328,29.232],[30.884,29.233],[30.626,29.366],[30.806,29.678],[30.931,30.29],[31.41,30.441],[31.499,30.6],[31.851,30.658],[32.322,31.024],[32.379,31.212],[32.381,31.216],[32.712,31.034],[33.116,31.193],[33.144,31.058],[33.744,31.133],[34.21,31.317],[34.708,31.948],[34.953,32.823],[35.073,32.873],[35.475,33.902],[35.634,34.013],[35.649,34.281],[35.984,34.528],[35.875,34.912],[35.926,35.316],[36.113,35.266],[36.18,34.781],[36.459,34.63],[36.36,34.525],[36.351,34.501]]]]}},{"type":"Feature","id":"cliopatria-56af550316fce087c52a331c","properties":{"NAME":"Minoan civilization","ABBREVN":null,"CONTROL":null,"SUBJECTO":"Minoan civilization","PARTOF":null,"BORDERPRECISION":1,"FromYear":-1600,"ToYear":-1501,"Area":5498.97315441141,"Type":"POLITY","Wikipedia":"Minoan civilization","Wikidata":"Q134178","SeshatID":"gr_crete_new_palace","Components":"","MemberOf":"","sourceFeatureId":"cliopatria-56af550316fce087c52a331c","datasetId":"cliopatria"},"geometry":{"type":"MultiPolygon","coordinates":[[[[24.526,35.194],[24.448,35.194],[23.679,35.258],[23.615,35.516],[24.157,35.516],[24.15,35.387],[24.301,35.323],[25.692,35.323],[25.681,35.13],[26.225,35.194],[26.14,35.065],[24.824,35.001],[24.757,35.194],[24.526,35.194]]]]}},{"type":"Feature","id":"cliopatria-2965dec7a339b7733f3f44e9","properties":{"NAME":"Seventeenth Dynasty of Egypt","ABBREVN":null,"CONTROL":null,"SUBJECTO":"Seventeenth Dynasty of Egypt","PARTOF":null,"BORDERPRECISION":1,"FromYear":-1600,"ToYear":-1501,"Area":34736.888615572316,"Type":"POLITY","Wikipedia":"Seventeenth Dynasty of Egypt","Wikidata":"Q642301","SeshatID":"eg_thebes_hyksos","Components":"","MemberOf":"","sourceFeatureId":"cliopatria-2965dec7a339b7733f3f44e9","datasetId":"cliopatria"},"geometry":{"type":"MultiPolygon","coordinates":[[[[31.692,26.933],[31.754,26.887],[33.831,27.131],[33.943,26.936],[33.945,26.649],[33.072,26.732],[32.588,26.454],[32.936,26.248],[33.03,25.885],[32.823,25.351],[33.076,25.118],[33.363,24.395],[33.354,24.075],[32.752,24.126],[32.381,25.553],[32.543,25.893],[31.848,25.944],[31.62,26.435],[30.636,27.378],[30.6,27.659],[30.965,27.662],[30.984,27.465],[31.692,26.933]]]]}},{"type":"Feature","id":"cliopatria-2262e17890df5f2d66e13de7","properties":{"NAME":"Sixteenth Dynasty of Egypt","ABBREVN":null,"CONTROL":null,"SUBJECTO":"Sixteenth Dynasty of Egypt","PARTOF":null,"BORDERPRECISION":1,"FromYear":-1600,"ToYear":-1501,"Area":24578.44282569545,"Type":"POLITY","Wikipedia":"Sixteenth Dynasty of Egypt","Wikidata":"Q737695","SeshatID":"eg_thebes_hyksos","Components":"","MemberOf":"","sourceFeatureId":"cliopatria-2262e17890df5f2d66e13de7","datasetId":"cliopatria"},"geometry":{"type":"MultiPolygon","coordinates":[[[[32.757,30.035],[32.478,29.937],[32.361,29.683],[32.368,29.545],[32.573,29.37],[31.674,29.263],[31.46,29.232],[31.431,29.425],[31.436,29.457],[31.618,30.445],[32.666,30.498],[32.746,30.502],[32.86,30.506],[32.849,30.195],[32.849,30.173],[32.848,30.15],[32.847,30.123],[32.846,30.095],[32.845,30.076],[32.799,30.054],[32.757,30.035]]],[[[32.143,31.074],[32.28,31.124],[32.215,31.282],[32.33,31.269],[32.381,31.216],[32.379,31.212],[32.322,31.024],[31.851,30.658],[31.499,30.6],[31.41,30.441],[30.931,30.29],[30.657,30.087],[30.807,30.796],[30.95,30.863],[31.053,31.183],[31.434,31.246],[31.525,31.448],[31.526,31.448],[31.908,31.525],[31.777,31.277],[32.143,31.074]]],[[[31.951,31.505],[32.202,31.291],[32.017,31.381],[31.911,31.526],[31.924,31.528],[31.951,31.505]]]]}},{"type":"Feature","id":"cliopatria-09e49b1b49d8066c60aeffdb","properties":{"NAME":"Elam","ABBREVN":null,"CONTROL":null,"SUBJECTO":"Elam","PARTOF":null,"BORDERPRECISION":1,"FromYear":-1600,"ToYear":-1401,"Area":79387.24858399261,"Type":"POLITY","Wikipedia":"Elam","Wikidata":"Q128904","SeshatID":"ir_elam_4","Components":"","MemberOf":"","sourceFeatureId":"cliopatria-09e49b1b49d8066c60aeffdb","datasetId":"cliopatria"},"geometry":{"type":"MultiPolygon","coordinates":[[[[49.842,32.493],[49.824,32.365],[50.035,32.236],[50.017,32.107],[50.286,31.85],[50.166,31.529],[50.479,31.593],[50.386,31.465],[50.723,31.143],[50.705,31.015],[50.983,30.822],[50.966,30.694],[51.101,30.565],[51.472,30.501],[51.514,30.244],[51.725,30.115],[51.708,29.987],[52.24,29.408],[52.208,29.151],[51.882,28.958],[51.859,28.765],[51.557,28.765],[51.066,28.444],[51.028,28.765],[50.809,28.83],[50.915,29.087],[50.62,29.151],[50.651,29.408],[50.236,29.729],[50.065,30.179],[49.346,30.501],[49.111,30.436],[49.127,30.565],[49.287,30.629],[49.135,30.629],[49.143,30.694],[48.744,31.143],[48.592,31.143],[48.253,31.465],[48.152,32.429],[47.931,32.493],[47.966,32.75],[47.618,33.007],[47.636,33.136],[47.713,33.136],[48.547,33.072],[48.682,32.943],[48.988,32.943],[49.046,32.814],[49.276,32.814],[49.249,32.622],[49.717,32.686],[49.851,32.557],[49.842,32.493]]],[[[50.538,31.465],[50.462,31.465],[50.471,31.529],[50.547,31.529],[50.538,31.465]]]]}},{"type":"Feature","id":"cliopatria-ef732fdef202a94449a474c5","properties":{"NAME":"Shang Dynasty","ABBREVN":null,"CONTROL":null,"SUBJECTO":"Shang Dynasty","PARTOF":null,"BORDERPRECISION":1,"FromYear":-1600,"ToYear":-1241,"Area":154175.1809778602,"Type":"POLITY","Wikipedia":"Shang dynasty","Wikidata":"Q128938","SeshatID":"cn_erligang","Components":"","MemberOf":"","sourceFeatureId":"cliopatria-ef732fdef202a94449a474c5","datasetId":"cliopatria"},"geometry":{"type":"MultiPolygon","coordinates":[[[[116.392,37.771],[116.47,37.771],[116.565,37.642],[116.846,37.577],[116.815,37.513],[118.315,37.062],[118.457,36.868],[118.307,36.546],[117.712,36.095],[117.27,35.451],[117.059,35.323],[117.052,35.13],[116.423,34.744],[116.003,34.293],[115.438,34.229],[115.183,34.358],[115.109,34.551],[114.854,34.679],[114.835,35.001],[114.376,35.194],[112.471,35.258],[111.105,35.13],[110.821,35.001],[110.075,35.065],[110.541,35.451],[110.669,35.387],[110.877,35.516],[111.523,35.58],[113.298,36.288],[113.789,36.868],[113.976,37.448],[114.327,38.029],[114.249,38.029],[114.389,38.481],[115.084,38.933],[115.633,38.933],[116.096,38.287],[116.033,38.158],[116.126,38.029],[116.283,38.029],[116.392,37.771]]]]}}]}
