{"type":"FeatureCollection","name":"Seshat Cliopatria -1700–-1601","datasetId":"cliopatria","startYear":-1700,"endYear":-1601,"features":[{"type":"Feature","id":"cliopatria-b07fbf7c8dcc506e4db047db","properties":{"NAME":"Elam","ABBREVN":null,"CONTROL":null,"SUBJECTO":"Elam","PARTOF":null,"BORDERPRECISION":1,"FromYear":-1760,"ToYear":-1601,"Area":79387.24858399261,"Type":"POLITY","Wikipedia":"Elam","Wikidata":"Q128904","SeshatID":"ir_elam_3","Components":"","MemberOf":"","sourceFeatureId":"cliopatria-b07fbf7c8dcc506e4db047db","datasetId":"cliopatria"},"geometry":{"type":"MultiPolygon","coordinates":[[[[49.842,32.493],[49.824,32.365],[50.035,32.236],[50.017,32.107],[50.286,31.85],[50.166,31.529],[50.479,31.593],[50.386,31.465],[50.723,31.143],[50.705,31.015],[50.983,30.822],[50.966,30.694],[51.101,30.565],[51.472,30.501],[51.514,30.244],[51.725,30.115],[51.708,29.987],[52.24,29.408],[52.208,29.151],[51.882,28.958],[51.859,28.765],[51.557,28.765],[51.066,28.444],[51.028,28.765],[50.809,28.83],[50.915,29.087],[50.62,29.151],[50.651,29.408],[50.236,29.729],[50.065,30.179],[49.346,30.501],[49.111,30.436],[49.127,30.565],[49.287,30.629],[49.135,30.629],[49.143,30.694],[48.744,31.143],[48.592,31.143],[48.253,31.465],[48.152,32.429],[47.931,32.493],[47.966,32.75],[47.618,33.007],[47.636,33.136],[47.713,33.136],[48.547,33.072],[48.682,32.943],[48.988,32.943],[49.046,32.814],[49.276,32.814],[49.249,32.622],[49.717,32.686],[49.851,32.557],[49.842,32.493]]],[[[50.538,31.465],[50.462,31.465],[50.471,31.529],[50.547,31.529],[50.538,31.465]]]]}},{"type":"Feature","id":"cliopatria-d04798cd56ab8aea26f90942","properties":{"NAME":"Babylonia","ABBREVN":null,"CONTROL":null,"SUBJECTO":"Babylonia","PARTOF":null,"BORDERPRECISION":1,"FromYear":-1700,"ToYear":-1601,"Area":126725.11742038671,"Type":"POLITY","Wikipedia":"Babylonia","Wikidata":"Q47690","SeshatID":"iq_babylonia_1","Components":"","MemberOf":"","sourceFeatureId":"cliopatria-d04798cd56ab8aea26f90942","datasetId":"cliopatria"},"geometry":{"type":"MultiPolygon","coordinates":[[[[46.642,33.715],[46.633,33.65],[46.787,33.65],[46.692,33.522],[46.751,33.393],[47.56,33.136],[47.636,33.136],[47.618,33.007],[47.966,32.75],[47.931,32.493],[48.152,32.429],[48.253,31.465],[48.592,31.143],[48.744,31.143],[49.143,30.694],[49.067,30.694],[48.255,30.886],[47.487,30.822],[47.479,30.758],[46.621,30.565],[46.591,30.308],[46.515,30.308],[45.77,30.436],[44.955,31.272],[44.581,31.336],[44.459,31.593],[43.42,32.493],[43.436,32.622],[43.826,32.686],[43.918,32.814],[44.216,32.75],[44.103,33.072],[43.881,33.136],[43.974,33.264],[44.204,33.264],[44.212,33.329],[44.373,33.393],[44.423,33.779],[44.5,33.779],[44.371,33.972],[44.397,34.165],[45.628,34.165],[45.619,34.1],[46.379,34.036],[46.285,33.907],[46.642,33.715]]]]}},{"type":"Feature","id":"cliopatria-288c0b4241f1ba780859a56a","properties":{"NAME":"First Sealand Dynasty","ABBREVN":null,"CONTROL":null,"SUBJECTO":"First Sealand Dynasty","PARTOF":null,"BORDERPRECISION":1,"FromYear":-1700,"ToYear":-1601,"Area":8320.359199691247,"Type":"POLITY","Wikipedia":"First Sealand dynasty","Wikidata":"Q7440601","SeshatID":"","Components":"","MemberOf":"","sourceFeatureId":"cliopatria-288c0b4241f1ba780859a56a","datasetId":"cliopatria"},"geometry":{"type":"MultiPolygon","coordinates":[[[[47.146,29.858],[47.055,29.729],[46.85,29.922],[46.615,29.858],[46.583,30.244],[46.591,30.308],[46.621,30.565],[47.479,30.758],[47.471,30.694],[47.448,30.501],[48.063,30.565],[48.124,30.436],[47.494,30.244],[47.41,30.179],[47.471,30.051],[47.153,29.922],[47.146,29.858]]]]}},{"type":"Feature","id":"cliopatria-98d31b703e00bffc5ae682a1","properties":{"NAME":"Hyksos","ABBREVN":null,"CONTROL":null,"SUBJECTO":"Hyksos","PARTOF":null,"BORDERPRECISION":1,"FromYear":-1700,"ToYear":-1601,"Area":87491.47579664075,"Type":"POLITY","Wikipedia":"Hyksos","Wikidata":"Q192319","SeshatID":"","Components":"","MemberOf":"","sourceFeatureId":"cliopatria-98d31b703e00bffc5ae682a1","datasetId":"cliopatria"},"geometry":{"type":"MultiPolygon","coordinates":[[[[36.351,34.501],[36.924,33.968],[36.228,30.876],[35.685,30.634],[35.379,30.707],[35.066,30.984],[34.717,30.996],[34.49,30.689],[34.848,29.741],[34.837,29.501],[34.771,29.5],[33.243,30.115],[32.983,30.404],[32.685,31.045],[32.69,31.043],[33.116,31.193],[33.144,31.058],[33.932,31.182],[34.483,31.583],[34.779,32.126],[34.953,32.823],[35.073,32.873],[35.475,33.902],[35.634,34.013],[35.649,34.281],[35.984,34.528],[35.875,34.912],[35.926,35.316],[36.113,35.266],[36.18,34.781],[36.459,34.63],[36.36,34.525],[36.351,34.501]]]]}},{"type":"Feature","id":"cliopatria-222f21fb278b4d0c7d4def97","properties":{"NAME":"Middle Kingdom of Egypt","ABBREVN":null,"CONTROL":null,"SUBJECTO":"Middle Kingdom of Egypt","PARTOF":null,"BORDERPRECISION":1,"FromYear":-1700,"ToYear":-1601,"Area":433182.3059937801,"Type":"POLITY","Wikipedia":"Middle Kingdom of Egypt","Wikidata":"Q191324","SeshatID":"eg_middle_k","Components":"","MemberOf":"","sourceFeatureId":"cliopatria-222f21fb278b4d0c7d4def97","datasetId":"cliopatria"},"geometry":{"type":"MultiPolygon","coordinates":[[[[31.101,31.601],[31.103,31.601],[31.557,31.442],[31.872,31.535],[31.921,31.53],[32.202,31.291],[32.017,31.381],[31.91,31.528],[31.777,31.277],[32.028,31.216],[32.078,31.083],[32.28,31.124],[32.254,31.282],[32.682,31.047],[32.685,31.045],[32.983,30.404],[33.243,30.115],[34.771,29.5],[34.837,29.501],[34.409,28.319],[34.442,27.997],[34.254,27.729],[33.763,28.022],[33.243,28.554],[33.173,28.995],[32.741,29.455],[32.576,30.003],[32.478,29.937],[32.341,29.595],[32.596,29.341],[32.619,28.984],[33.559,27.883],[33.495,27.644],[33.829,27.255],[33.938,26.655],[34.192,26.274],[34.015,26.137],[33.03,25.885],[32.823,25.351],[33.076,25.118],[33.363,24.395],[33.224,22.351],[32.265,22.382],[31.472,21.772],[31.19,21.42],[30.655,21.572],[31.375,22.779],[31.432,23.19],[31.047,23.67],[30.452,24.095],[28.677,24.534],[28.147,24.946],[27.673,25.664],[27.824,26.33],[28.702,27.904],[29.167,28.08],[29.558,28.569],[29.663,28.965],[29.673,29.267],[29.528,29.313],[29.119,29.828],[28.499,31.054],[29.18,30.83],[30.064,31.32],[30.29,31.237],[30.355,31.503],[30.956,31.576],[30.544,31.393],[30.903,31.42],[31.126,31.497],[30.978,31.584],[31.101,31.601]]]]}},{"type":"Feature","id":"cliopatria-8e4370903827e7dd79d25bd5","properties":{"NAME":"Assyria","ABBREVN":null,"CONTROL":null,"SUBJECTO":"Assyria","PARTOF":null,"BORDERPRECISION":1,"FromYear":-1700,"ToYear":-1501,"Area":63721.64145582211,"Type":"POLITY","Wikipedia":"Assyria","Wikidata":"Q41137","SeshatID":"","Components":"","MemberOf":"","sourceFeatureId":"cliopatria-8e4370903827e7dd79d25bd5","datasetId":"cliopatria"},"geometry":{"type":"MultiPolygon","coordinates":[[[[45.54,35.194],[45.898,35.001],[45.88,34.872],[45.717,34.808],[45.767,34.615],[45.536,34.615],[45.509,34.422],[45.654,34.358],[45.636,34.229],[45.628,34.165],[44.397,34.165],[44.371,33.972],[44.5,33.779],[44.423,33.779],[44.373,33.393],[44.212,33.329],[44.135,33.329],[44.075,33.457],[43.477,33.586],[43.279,33.843],[43.125,33.843],[42.919,34.036],[42.89,34.422],[42.728,34.358],[42.436,34.486],[42.433,35.065],[42.896,35.065],[42.861,35.387],[43.127,35.645],[43.446,35.709],[43.412,36.031],[43.603,36.288],[44.279,36.675],[44.357,36.675],[44.397,36.417],[44.621,36.353],[44.603,36.224],[45.167,35.838],[45.149,35.709],[45.549,35.258],[45.54,35.194]]],[[[27.595,40.938],[27.516,40.938],[27.522,41.003],[27.601,41.003],[27.595,40.938]]],[[[27.766,41.068],[27.76,41.003],[27.68,41.003],[27.601,41.003],[27.607,41.068],[27.686,41.068],[27.766,41.068]]]]}}]}
