{"type":"FeatureCollection","name":"Seshat Cliopatria -1800–-1701","datasetId":"cliopatria","startYear":-1800,"endYear":-1701,"features":[{"type":"Feature","id":"cliopatria-f952343a8076f690bfa4042b","properties":{"NAME":"Assyria","ABBREVN":null,"CONTROL":null,"SUBJECTO":"Assyria","PARTOF":null,"BORDERPRECISION":1,"FromYear":-1800,"ToYear":-1761,"Area":77170.61591512688,"Type":"POLITY","Wikipedia":"Assyria","Wikidata":"Q41137","SeshatID":"","Components":"","MemberOf":"","sourceFeatureId":"cliopatria-f952343a8076f690bfa4042b","datasetId":"cliopatria"},"geometry":{"type":"MultiPolygon","coordinates":[[[[43.781,36.997],[44.298,36.804],[44.397,36.417],[44.621,36.353],[44.603,36.224],[45.031,35.966],[45.012,35.838],[44.703,35.838],[44.83,35.645],[44.735,35.516],[44.794,35.387],[44.604,35.13],[44.904,35.065],[44.963,34.937],[44.954,34.872],[44.756,34.551],[44.516,34.486],[44.525,34.551],[44.251,34.808],[43.874,34.872],[43.445,35.13],[42.493,34.937],[41.876,34.937],[41.437,35.13],[41.197,35.065],[41.245,35.451],[40.789,35.516],[40.589,35.773],[40.365,35.838],[41.161,36.61],[41.178,36.739],[41.429,36.868],[41.532,37.062],[41.463,37.126],[42.269,37.319],[42.605,36.933],[42.587,36.804],[43.053,36.804],[43.159,36.997],[43.607,36.868],[43.557,37.062],[43.791,37.062],[43.781,36.997]]],[[[27.595,40.938],[27.516,40.938],[27.522,41.003],[27.601,41.003],[27.595,40.938]]],[[[27.766,41.068],[27.76,41.003],[27.68,41.003],[27.601,41.003],[27.607,41.068],[27.686,41.068],[27.766,41.068]]]]}},{"type":"Feature","id":"cliopatria-27805821620f3c74da8eb2a3","properties":{"NAME":"Babylonia","ABBREVN":null,"CONTROL":null,"SUBJECTO":"Babylonia","PARTOF":null,"BORDERPRECISION":1,"FromYear":-1800,"ToYear":-1761,"Area":7832.842399271224,"Type":"POLITY","Wikipedia":"Babylonia","Wikidata":"Q47690","SeshatID":"iq_babylonia_1","Components":"","MemberOf":"","sourceFeatureId":"cliopatria-27805821620f3c74da8eb2a3","datasetId":"cliopatria"},"geometry":{"type":"MultiPolygon","coordinates":[[[[44.528,32.172],[44.52,32.107],[44.375,32.172],[44.391,32.3],[44.001,32.236],[44.085,32.3],[44.063,32.75],[44.216,32.75],[44.164,32.943],[44.502,33.2],[44.579,33.2],[44.607,32.814],[45.255,32.493],[45.239,32.365],[44.986,32.172],[44.91,32.172],[44.894,32.043],[44.665,32.043],[44.528,32.172]]]]}},{"type":"Feature","id":"cliopatria-8fbe3c4f5b41db77d8157b4b","properties":{"NAME":"Elam","ABBREVN":null,"CONTROL":null,"SUBJECTO":"Elam","PARTOF":null,"BORDERPRECISION":1,"FromYear":-1800,"ToYear":-1761,"Area":145480.0113290921,"Type":"POLITY","Wikipedia":"Elam","Wikidata":"Q128904","SeshatID":"ir_elam_3","Components":"","MemberOf":"","sourceFeatureId":"cliopatria-8fbe3c4f5b41db77d8157b4b","datasetId":"cliopatria"},"geometry":{"type":"MultiPolygon","coordinates":[[[[50.538,31.465],[50.462,31.465],[50.471,31.529],[50.547,31.529],[50.538,31.465]]],[[[46.814,33.843],[46.684,33.457],[46.896,33.329],[47.347,33.264],[47.483,33.136],[48.547,33.072],[48.682,32.943],[48.988,32.943],[49.046,32.814],[49.276,32.814],[49.249,32.622],[49.717,32.686],[49.851,32.557],[49.824,32.365],[50.035,32.236],[50.017,32.107],[50.286,31.85],[50.166,31.529],[50.479,31.593],[50.386,31.465],[50.723,31.143],[50.705,31.015],[50.983,30.822],[50.966,30.694],[51.101,30.565],[51.472,30.501],[51.514,30.244],[51.725,30.115],[51.708,29.987],[52.24,29.408],[52.208,29.151],[51.882,28.958],[51.859,28.765],[51.557,28.765],[51.066,28.444],[51.028,28.765],[50.809,28.83],[50.915,29.087],[50.62,29.151],[50.651,29.408],[50.236,29.729],[50.065,30.179],[49.913,30.179],[49.929,30.308],[49.702,30.308],[49.346,30.501],[49.111,30.436],[49.127,30.565],[49.287,30.629],[49.143,30.694],[48.103,30.886],[48.027,30.886],[47.807,30.951],[47.695,31.272],[47.262,31.465],[47.134,31.658],[46.982,31.658],[46.854,31.85],[46.481,31.915],[46.445,32.236],[46.369,32.236],[46.538,32.943],[46.163,33.007],[46.129,33.329],[45.899,33.329],[45.465,32.943],[44.946,33.072],[44.749,33.329],[44.587,33.264],[44.595,33.329],[44.297,33.393],[44.44,33.907],[44.32,34.165],[44.482,34.229],[44.508,34.422],[44.516,34.486],[44.756,34.551],[44.954,34.872],[45.031,34.872],[45.304,34.615],[45.417,34.872],[45.581,34.937],[45.608,35.13],[45.762,35.13],[45.898,35.001],[45.708,34.744],[46.039,34.358],[46.08,34.1],[46.678,33.972],[46.737,33.843],[46.814,33.843]]]]}},{"type":"Feature","id":"cliopatria-a10d63c32dd04d1356c19e8c","properties":{"NAME":"Indus Valley Civilization","ABBREVN":null,"CONTROL":null,"SUBJECTO":"Indus Valley Civilization","PARTOF":null,"BORDERPRECISION":1,"FromYear":-1800,"ToYear":-1761,"Area":252962.83920120983,"Type":"POLITY","Wikipedia":"Indus Valley Civilisation","Wikidata":"Q42534","SeshatID":"pk_kachi_urban_2","Components":"","MemberOf":"","sourceFeatureId":"cliopatria-a10d63c32dd04d1356c19e8c","datasetId":"cliopatria"},"geometry":{"type":"MultiPolygon","coordinates":[[[[68.782,24.072],[68.79,24.136],[68.864,24.136],[68.857,24.072],[68.782,24.072]]],[[[72.555,29.601],[71.792,28.315],[71.62,28.187],[70.855,28.122],[70.607,27.994],[70.241,28.058],[69.641,27.608],[69.421,27.158],[69.327,26.001],[68.708,25.294],[68.416,24.136],[68.476,24.008],[68.849,24.008],[69.096,24.201],[69.394,24.201],[69.782,23.686],[70.207,23.493],[72.339,23.236],[72.458,22.979],[72.667,22.851],[72.357,22.079],[71.864,22.336],[71.737,22.529],[70.805,22.851],[70.067,22.915],[69.748,22.722],[69.451,22.722],[68.808,22.979],[68.552,23.365],[68.336,23.429],[68.35,23.558],[68.127,23.558],[68.155,23.815],[67.633,23.815],[67.491,23.879],[67.438,24.072],[67.289,24.072],[67.326,24.393],[67.251,24.393],[67.215,24.715],[66.632,24.844],[66.679,25.229],[66.487,25.486],[66.27,25.551],[66.021,25.358],[65.722,25.358],[66.078,25.808],[66.112,26.065],[66.482,26.579],[66.611,26.965],[67.432,27.93],[68.873,28.894],[69.511,29.087],[69.795,29.408],[69.934,29.344],[70.329,30.244],[70.48,31.015],[70.724,31.465],[71.056,31.593],[71.513,31.593],[72.463,31.4],[72.865,31.143],[72.923,30.694],[72.91,30.629],[72.555,29.601]]],[[[70.22,27.93],[70.23,27.994],[70.306,27.994],[70.295,27.93],[70.22,27.93]]],[[[70.661,31.529],[70.738,31.529],[70.724,31.465],[70.648,31.465],[70.661,31.529]]],[[[73.087,36.546],[73.199,36.675],[73.277,36.675],[73.337,36.61],[73.087,36.546]]]]}},{"type":"Feature","id":"cliopatria-2aa0c205dbc814c269b71d9f","properties":{"NAME":"Sumerian City-States","ABBREVN":null,"CONTROL":null,"SUBJECTO":"Sumerian City-States","PARTOF":null,"BORDERPRECISION":1,"FromYear":-1800,"ToYear":-1761,"Area":48484.003876687755,"Type":"POLITY","Wikipedia":"History of Sumer","Wikidata":"Q2345840","SeshatID":"","Components":"","MemberOf":"","sourceFeatureId":"cliopatria-2aa0c205dbc814c269b71d9f","datasetId":"cliopatria"},"geometry":{"type":"MultiPolygon","coordinates":[[[[48.095,30.822],[48.019,30.822],[48.027,30.886],[48.103,30.886],[48.095,30.822]]],[[[47.251,30.758],[47.236,30.629],[46.696,30.565],[46.591,30.308],[45.77,30.436],[45.381,31.015],[45.45,31.593],[45.305,31.658],[45.397,31.786],[45.184,31.915],[45.062,32.172],[44.986,32.172],[45.239,32.365],[45.255,32.493],[44.607,32.814],[44.579,33.2],[44.587,33.264],[44.749,33.329],[44.946,33.072],[45.465,32.943],[45.899,33.329],[46.129,33.329],[46.163,33.007],[46.538,32.943],[46.369,32.236],[46.445,32.236],[46.481,31.915],[46.854,31.85],[46.982,31.658],[47.134,31.658],[47.262,31.465],[47.695,31.272],[47.807,30.951],[48.027,30.886],[47.951,30.886],[47.251,30.758]]]]}},{"type":"Feature","id":"cliopatria-eaab2de009ebf03c2259c7d6","properties":{"NAME":"Hyksos","ABBREVN":null,"CONTROL":null,"SUBJECTO":"Hyksos","PARTOF":null,"BORDERPRECISION":1,"FromYear":-1800,"ToYear":-1701,"Area":57073.52750507146,"Type":"POLITY","Wikipedia":"Hyksos","Wikidata":"Q192319","SeshatID":"","Components":"","MemberOf":"","sourceFeatureId":"cliopatria-eaab2de009ebf03c2259c7d6","datasetId":"cliopatria"},"geometry":{"type":"MultiPolygon","coordinates":[[[[36.526,34.432],[36.624,34.205],[36.283,33.911],[36.374,33.831],[36.205,33.85],[35.562,32.358],[35.555,31.764],[35.345,30.987],[34.717,30.996],[34.49,30.689],[34.848,29.741],[34.837,29.501],[34.771,29.5],[33.243,30.115],[32.983,30.404],[32.685,31.045],[32.69,31.043],[33.116,31.193],[33.144,31.058],[33.932,31.182],[34.483,31.583],[34.779,32.126],[34.953,32.823],[35.073,32.873],[35.475,33.902],[35.634,34.013],[35.649,34.281],[35.984,34.528],[35.875,34.912],[35.926,35.316],[36.113,35.266],[36.18,34.781],[36.459,34.63],[36.36,34.525],[36.351,34.501],[36.526,34.432]]],[[[36.266,33.65],[36.189,33.65],[36.196,33.715],[36.272,33.715],[36.266,33.65]]]]}},{"type":"Feature","id":"cliopatria-a52ee65a93dd185a065a3715","properties":{"NAME":"Middle Kingdom of Egypt","ABBREVN":null,"CONTROL":null,"SUBJECTO":"Middle Kingdom of Egypt","PARTOF":null,"BORDERPRECISION":1,"FromYear":-1800,"ToYear":-1701,"Area":433182.3059937801,"Type":"POLITY","Wikipedia":"Middle Kingdom of Egypt","Wikidata":"Q191324","SeshatID":"eg_middle_k","Components":"","MemberOf":"","sourceFeatureId":"cliopatria-a52ee65a93dd185a065a3715","datasetId":"cliopatria"},"geometry":{"type":"MultiPolygon","coordinates":[[[[31.101,31.601],[31.103,31.601],[31.557,31.442],[31.872,31.535],[31.921,31.53],[32.202,31.291],[32.017,31.381],[31.91,31.528],[31.777,31.277],[32.028,31.216],[32.078,31.083],[32.28,31.124],[32.254,31.282],[32.682,31.047],[32.685,31.045],[32.983,30.404],[33.243,30.115],[34.771,29.5],[34.837,29.501],[34.409,28.319],[34.442,27.997],[34.254,27.729],[33.763,28.022],[33.243,28.554],[33.173,28.995],[32.741,29.455],[32.576,30.003],[32.478,29.937],[32.341,29.595],[32.596,29.341],[32.619,28.984],[33.559,27.883],[33.495,27.644],[33.829,27.255],[33.938,26.655],[34.192,26.274],[34.015,26.137],[33.03,25.885],[32.823,25.351],[33.076,25.118],[33.363,24.395],[33.224,22.351],[32.265,22.382],[31.472,21.772],[31.19,21.42],[30.655,21.572],[31.375,22.779],[31.432,23.19],[31.047,23.67],[30.452,24.095],[28.677,24.534],[28.147,24.946],[27.673,25.664],[27.824,26.33],[28.702,27.904],[29.167,28.08],[29.558,28.569],[29.663,28.965],[29.673,29.267],[29.528,29.313],[29.119,29.828],[28.499,31.054],[29.18,30.83],[30.064,31.32],[30.29,31.237],[30.355,31.503],[30.956,31.576],[30.544,31.393],[30.903,31.42],[31.126,31.497],[30.978,31.584],[31.101,31.601]]]]}},{"type":"Feature","id":"cliopatria-f2db7e2ac325872afc7e43cd","properties":{"NAME":"Babylonia","ABBREVN":null,"CONTROL":null,"SUBJECTO":"Babylonia","PARTOF":null,"BORDERPRECISION":1,"FromYear":-1760,"ToYear":-1751,"Area":97099.23030608514,"Type":"POLITY","Wikipedia":"Babylonia","Wikidata":"Q47690","SeshatID":"iq_babylonia_1","Components":"","MemberOf":"","sourceFeatureId":"cliopatria-f2db7e2ac325872afc7e43cd","datasetId":"cliopatria"},"geometry":{"type":"MultiPolygon","coordinates":[[[[47.56,33.136],[47.636,33.136],[47.618,33.007],[47.966,32.75],[47.931,32.493],[48.152,32.429],[48.253,31.465],[48.592,31.143],[48.744,31.143],[49.143,30.694],[49.067,30.694],[47.799,30.886],[47.251,30.758],[47.236,30.629],[46.696,30.565],[46.591,30.308],[45.77,30.436],[45.381,31.015],[45.45,31.593],[45.305,31.658],[45.397,31.786],[45.184,31.915],[45.199,32.043],[45.062,32.172],[44.91,32.172],[44.894,32.043],[44.665,32.043],[44.604,32.172],[44.444,32.107],[44.391,32.3],[44.001,32.236],[44.085,32.3],[44.063,32.75],[44.216,32.75],[44.164,32.943],[44.426,33.2],[44.579,33.2],[44.595,33.329],[44.749,33.329],[45.022,33.072],[45.55,33.007],[45.737,33.264],[46.061,33.393],[45.72,33.715],[45.883,33.779],[45.909,33.972],[45.832,33.972],[45.927,34.1],[46.379,34.036],[46.285,33.907],[46.787,33.65],[46.692,33.522],[46.751,33.393],[47.347,33.264],[47.483,33.136],[47.56,33.136]]]]}},{"type":"Feature","id":"cliopatria-b8483f16c5d2dc8127ffc71d","properties":{"NAME":"Indus Valley Civilization","ABBREVN":null,"CONTROL":null,"SUBJECTO":"Indus Valley Civilization","PARTOF":null,"BORDERPRECISION":1,"FromYear":-1760,"ToYear":-1751,"Area":222948.35611590662,"Type":"POLITY","Wikipedia":"Indus Valley Civilisation","Wikidata":"Q42534","SeshatID":"","Components":"","MemberOf":"","sourceFeatureId":"cliopatria-b8483f16c5d2dc8127ffc71d","datasetId":"cliopatria"},"geometry":{"type":"MultiPolygon","coordinates":[[[[71.951,23.108],[72.249,23.108],[72.235,22.979],[72.518,22.851],[72.488,22.593],[72.176,22.465],[72.162,22.336],[71.864,22.336],[71.744,22.593],[71.595,22.593],[71.699,22.851],[71.773,22.851],[71.951,23.108]]],[[[70.73,22.851],[70.067,22.915],[69.748,22.722],[69.451,22.722],[68.808,22.979],[68.552,23.365],[68.336,23.429],[68.357,23.622],[68.685,23.879],[68.834,23.879],[69.096,24.201],[69.394,24.201],[69.782,23.686],[70.714,23.365],[70.841,23.172],[70.916,23.172],[70.894,22.979],[70.73,22.851]]],[[[70.23,27.994],[70.306,27.994],[70.295,27.93],[70.22,27.93],[70.23,27.994]]],[[[72.555,29.601],[71.792,28.315],[71.62,28.187],[70.855,28.122],[70.607,27.994],[70.241,28.058],[69.737,27.737],[69.421,27.158],[69.327,26.001],[68.883,25.486],[67.38,24.844],[67.282,24.651],[67.148,24.779],[66.632,24.844],[66.679,25.229],[66.345,25.551],[66.021,25.358],[65.722,25.358],[66.078,25.808],[66.112,26.065],[66.482,26.579],[66.611,26.965],[67.432,27.93],[68.873,28.894],[69.511,29.087],[69.795,29.408],[69.934,29.344],[70.329,30.244],[70.48,31.015],[70.724,31.465],[71.056,31.593],[71.513,31.593],[72.463,31.4],[72.865,31.143],[72.923,30.694],[72.91,30.629],[72.555,29.601]]],[[[70.661,31.529],[70.738,31.529],[70.724,31.465],[70.648,31.465],[70.661,31.529]]],[[[73.087,36.546],[73.199,36.675],[73.277,36.675],[73.337,36.61],[73.087,36.546]]]]}},{"type":"Feature","id":"cliopatria-3cbb6b97f6c0b6b9340593fa","properties":{"NAME":"Assyria","ABBREVN":null,"CONTROL":null,"SUBJECTO":"Assyria","PARTOF":null,"BORDERPRECISION":1,"FromYear":-1760,"ToYear":-1701,"Area":25617.153844053166,"Type":"POLITY","Wikipedia":"Assyria","Wikidata":"Q41137","SeshatID":"","Components":"","MemberOf":"","sourceFeatureId":"cliopatria-3cbb6b97f6c0b6b9340593fa","datasetId":"cliopatria"},"geometry":{"type":"MultiPolygon","coordinates":[[[[44.699,35.258],[44.604,35.13],[44.972,35.001],[44.842,34.615],[44.67,34.486],[44.516,34.486],[44.251,34.808],[43.874,34.872],[43.445,35.13],[42.888,35.001],[42.913,35.194],[42.836,35.194],[42.955,35.516],[43.446,35.709],[43.412,36.031],[43.603,36.288],[44.279,36.675],[44.357,36.675],[44.397,36.417],[44.621,36.353],[44.603,36.224],[45.031,35.966],[45.012,35.838],[44.703,35.838],[44.83,35.645],[44.708,35.323],[44.699,35.258]]],[[[27.595,40.938],[27.516,40.938],[27.522,41.003],[27.601,41.003],[27.595,40.938]]],[[[27.766,41.068],[27.76,41.003],[27.68,41.003],[27.601,41.003],[27.607,41.068],[27.686,41.068],[27.766,41.068]]]]}},{"type":"Feature","id":"cliopatria-b07fbf7c8dcc506e4db047db","properties":{"NAME":"Elam","ABBREVN":null,"CONTROL":null,"SUBJECTO":"Elam","PARTOF":null,"BORDERPRECISION":1,"FromYear":-1760,"ToYear":-1601,"Area":79387.24858399261,"Type":"POLITY","Wikipedia":"Elam","Wikidata":"Q128904","SeshatID":"ir_elam_3","Components":"","MemberOf":"","sourceFeatureId":"cliopatria-b07fbf7c8dcc506e4db047db","datasetId":"cliopatria"},"geometry":{"type":"MultiPolygon","coordinates":[[[[49.842,32.493],[49.824,32.365],[50.035,32.236],[50.017,32.107],[50.286,31.85],[50.166,31.529],[50.479,31.593],[50.386,31.465],[50.723,31.143],[50.705,31.015],[50.983,30.822],[50.966,30.694],[51.101,30.565],[51.472,30.501],[51.514,30.244],[51.725,30.115],[51.708,29.987],[52.24,29.408],[52.208,29.151],[51.882,28.958],[51.859,28.765],[51.557,28.765],[51.066,28.444],[51.028,28.765],[50.809,28.83],[50.915,29.087],[50.62,29.151],[50.651,29.408],[50.236,29.729],[50.065,30.179],[49.346,30.501],[49.111,30.436],[49.127,30.565],[49.287,30.629],[49.135,30.629],[49.143,30.694],[48.744,31.143],[48.592,31.143],[48.253,31.465],[48.152,32.429],[47.931,32.493],[47.966,32.75],[47.618,33.007],[47.636,33.136],[47.713,33.136],[48.547,33.072],[48.682,32.943],[48.988,32.943],[49.046,32.814],[49.276,32.814],[49.249,32.622],[49.717,32.686],[49.851,32.557],[49.842,32.493]]],[[[50.538,31.465],[50.462,31.465],[50.471,31.529],[50.547,31.529],[50.538,31.465]]]]}},{"type":"Feature","id":"cliopatria-d8144268cc035f25261cf8e3","properties":{"NAME":"Babylonia","ABBREVN":null,"CONTROL":null,"SUBJECTO":"Babylonia","PARTOF":null,"BORDERPRECISION":1,"FromYear":-1750,"ToYear":-1701,"Area":220074.81674962363,"Type":"POLITY","Wikipedia":"Babylonia","Wikidata":"Q47690","SeshatID":"iq_babylonia_1","Components":"","MemberOf":"","sourceFeatureId":"cliopatria-d8144268cc035f25261cf8e3","datasetId":"cliopatria"},"geometry":{"type":"MultiPolygon","coordinates":[[[[45.54,35.194],[45.762,35.13],[46.016,34.744],[46.004,34.1],[46.379,34.036],[46.285,33.907],[46.787,33.65],[46.692,33.522],[46.751,33.393],[47.56,33.136],[47.636,33.136],[47.618,33.007],[47.966,32.75],[47.931,32.493],[48.152,32.429],[48.253,31.465],[48.592,31.143],[48.744,31.143],[49.143,30.694],[49.067,30.694],[47.799,30.886],[47.251,30.758],[47.236,30.629],[46.696,30.565],[46.591,30.308],[45.77,30.436],[44.955,31.272],[44.581,31.336],[44.459,31.593],[43.283,32.622],[43.062,33.329],[42.786,33.586],[42.633,33.586],[42.081,34.1],[40.788,34.229],[40.518,34.551],[40.703,34.808],[40.996,34.679],[41.767,34.679],[41.86,34.808],[42.177,34.872],[42.116,35.001],[42.896,35.065],[42.861,35.387],[43.127,35.645],[43.446,35.709],[43.412,36.031],[43.603,36.288],[44.279,36.675],[44.357,36.675],[44.397,36.417],[44.621,36.353],[44.603,36.224],[45.167,35.838],[45.149,35.709],[45.363,35.58],[45.344,35.451],[45.549,35.258],[45.54,35.194]]]]}},{"type":"Feature","id":"cliopatria-4a3861651c41552cee263db9","properties":{"NAME":"Indus Valley Civilization","ABBREVN":null,"CONTROL":null,"SUBJECTO":"Indus Valley Civilization","PARTOF":null,"BORDERPRECISION":1,"FromYear":-1750,"ToYear":-1701,"Area":222948.35611590662,"Type":"POLITY","Wikipedia":"Indus Valley Civilisation","Wikidata":"Q42534","SeshatID":"","Components":"","MemberOf":"","sourceFeatureId":"cliopatria-4a3861651c41552cee263db9","datasetId":"cliopatria"},"geometry":{"type":"MultiPolygon","coordinates":[[[[71.951,23.108],[72.249,23.108],[72.235,22.979],[72.518,22.851],[72.488,22.593],[72.176,22.465],[72.162,22.336],[71.864,22.336],[71.744,22.593],[71.595,22.593],[71.699,22.851],[71.773,22.851],[71.951,23.108]]],[[[70.73,22.851],[70.067,22.915],[69.748,22.722],[69.451,22.722],[68.808,22.979],[68.552,23.365],[68.336,23.429],[68.357,23.622],[68.685,23.879],[68.834,23.879],[69.096,24.201],[69.394,24.201],[69.782,23.686],[70.714,23.365],[70.841,23.172],[70.916,23.172],[70.894,22.979],[70.73,22.851]]],[[[70.23,27.994],[70.306,27.994],[70.295,27.93],[70.22,27.93],[70.23,27.994]]],[[[72.555,29.601],[71.792,28.315],[71.62,28.187],[70.855,28.122],[70.607,27.994],[70.241,28.058],[69.737,27.737],[69.421,27.158],[69.327,26.001],[68.883,25.486],[67.38,24.844],[67.282,24.651],[67.148,24.779],[66.632,24.844],[66.679,25.229],[66.345,25.551],[66.021,25.358],[65.722,25.358],[66.078,25.808],[66.112,26.065],[66.482,26.579],[66.611,26.965],[67.432,27.93],[68.873,28.894],[69.511,29.087],[69.795,29.408],[69.934,29.344],[70.329,30.244],[70.48,31.015],[70.724,31.465],[71.056,31.593],[71.513,31.593],[72.463,31.4],[72.865,31.143],[72.923,30.694],[72.91,30.629],[72.555,29.601]]],[[[70.661,31.529],[70.738,31.529],[70.724,31.465],[70.648,31.465],[70.661,31.529]]],[[[73.087,36.546],[73.199,36.675],[73.277,36.675],[73.337,36.61],[73.087,36.546]]]]}}]}
