{"type":"FeatureCollection","name":"Seshat Cliopatria -1900–-1801","datasetId":"cliopatria","startYear":-1900,"endYear":-1801,"features":[{"type":"Feature","id":"cliopatria-e4f78ffa4582ca5ff4c24e4d","properties":{"NAME":"Elam","ABBREVN":null,"CONTROL":null,"SUBJECTO":"Elam","PARTOF":null,"BORDERPRECISION":1,"FromYear":-2000,"ToYear":-1801,"Area":111341.68821524376,"Type":"POLITY","Wikipedia":"Elam","Wikidata":"Q128904","SeshatID":"ir_elam_2","Components":"","MemberOf":"","sourceFeatureId":"cliopatria-e4f78ffa4582ca5ff4c24e4d","datasetId":"cliopatria"},"geometry":{"type":"MultiPolygon","coordinates":[[[[46.814,33.843],[46.684,33.457],[46.896,33.329],[47.347,33.264],[47.483,33.136],[48.547,33.072],[48.682,32.943],[48.988,32.943],[49.046,32.814],[49.276,32.814],[49.249,32.622],[49.717,32.686],[49.851,32.557],[49.824,32.365],[50.035,32.236],[50.017,32.107],[50.286,31.85],[49.979,31.272],[50.105,31.079],[50.071,30.822],[50.359,30.694],[50.477,30.436],[50.141,30.179],[49.913,30.179],[49.929,30.308],[49.702,30.308],[49.566,30.436],[49.111,30.436],[49.127,30.565],[49.287,30.629],[49.143,30.694],[48.103,30.886],[48.027,30.886],[47.807,30.951],[47.695,31.272],[47.262,31.465],[47.134,31.658],[46.982,31.658],[46.854,31.85],[46.481,31.915],[46.445,32.236],[46.369,32.236],[46.538,32.943],[46.461,32.943],[46.384,32.943],[46.163,33.007],[46.129,33.329],[45.899,33.329],[45.465,32.943],[44.946,33.072],[44.749,33.329],[44.587,33.264],[44.595,33.329],[44.297,33.393],[44.44,33.907],[44.32,34.165],[44.482,34.229],[44.525,34.551],[44.765,34.615],[44.877,34.872],[45.109,34.872],[45.304,34.615],[45.417,34.872],[45.581,34.937],[45.608,35.13],[45.898,35.001],[45.708,34.744],[46.039,34.358],[46.08,34.1],[46.678,33.972],[46.737,33.843],[46.814,33.843]]]]}},{"type":"Feature","id":"cliopatria-95b4019f107d5fda05c15329","properties":{"NAME":"Indus Valley Civilization","ABBREVN":null,"CONTROL":null,"SUBJECTO":"Indus Valley Civilization","PARTOF":null,"BORDERPRECISION":1,"FromYear":-2000,"ToYear":-1801,"Area":755121.2924974479,"Type":"POLITY","Wikipedia":"Indus Valley Civilisation","Wikidata":"Q42534","SeshatID":"pk_kachi_urban_2","Components":"","MemberOf":"","sourceFeatureId":"cliopatria-95b4019f107d5fda05c15329","datasetId":"cliopatria"},"geometry":{"type":"MultiPolygon","coordinates":[[[[75.735,33.65],[75.872,33.586],[76.037,33.007],[76.174,32.943],[76.066,32.814],[76.143,32.814],[76.096,32.622],[75.532,32.172],[75.502,32.043],[75.716,31.979],[75.509,31.4],[75.866,30.951],[75.838,30.822],[76.038,30.694],[76.011,30.565],[76.211,30.436],[76.184,30.308],[76.474,30.244],[76.371,30.115],[76.799,29.987],[76.772,29.858],[76.946,29.601],[76.818,28.958],[76.239,28.701],[75.786,28.701],[75.762,28.572],[74.177,28.572],[72.633,28.38],[72.072,28.187],[71.781,28.251],[70.855,28.122],[70.607,27.994],[70.241,28.058],[69.737,27.737],[69.421,27.158],[69.297,26.322],[69.372,26.322],[69.54,25.358],[70.52,24.844],[70.578,24.715],[70.728,24.715],[70.786,24.586],[71.085,24.586],[71.202,24.329],[71.352,24.329],[71.41,24.201],[71.976,23.943],[72.102,23.751],[72.876,23.365],[72.868,22.658],[72.69,22.401],[72.743,22.208],[72.378,22.272],[72.342,21.951],[72.112,21.886],[72.173,21.758],[72.321,21.758],[72.28,21.372],[72.104,21.115],[71.092,20.665],[70.721,20.665],[70.295,20.858],[69.89,21.243],[69.903,21.372],[69.497,21.758],[69.349,21.758],[68.949,22.208],[68.977,22.465],[69.409,22.336],[69.497,22.465],[69.869,22.465],[70.263,22.658],[70.365,22.915],[69.451,22.722],[68.808,22.979],[68.552,23.365],[68.336,23.429],[68.35,23.558],[68.127,23.558],[68.155,23.815],[67.633,23.815],[67.491,23.879],[67.438,24.072],[67.289,24.072],[67.326,24.393],[67.251,24.393],[67.215,24.715],[66.632,24.844],[66.679,25.229],[66.345,25.551],[66.021,25.358],[64.816,25.294],[64.801,25.165],[64.285,25.229],[64.225,25.358],[63.626,25.358],[63.536,25.229],[62.563,25.229],[62.474,25.101],[62.025,25.101],[62.137,25.422],[62.301,25.551],[64.28,25.808],[65.088,25.679],[65.696,25.744],[66.02,25.936],[65.846,26.322],[65.872,26.515],[65.797,26.515],[65.774,27.415],[65.699,27.415],[66.056,28.765],[66.554,29.922],[67.113,30.501],[67.873,30.501],[67.973,30.629],[68.934,30.886],[69.073,31.208],[69.251,31.336],[69.316,31.658],[69.571,31.786],[69.611,31.979],[69.764,31.979],[70.408,32.493],[70.36,32.622],[70.785,32.814],[70.933,33.136],[71.313,33.457],[71.727,33.586],[71.757,33.715],[71.896,33.65],[72.172,33.843],[72.571,33.907],[72.679,34.036],[73.31,34.1],[73.387,34.1],[73.355,33.972],[74.355,33.972],[74.631,33.843],[75.537,33.779],[75.658,33.65],[75.735,33.65]]],[[[70.22,27.93],[70.23,27.994],[70.306,27.994],[70.295,27.93],[70.22,27.93]]],[[[76.522,30.115],[76.536,30.179],[76.612,30.179],[76.598,30.115],[76.522,30.115]]]]}},{"type":"Feature","id":"cliopatria-6c26c15a9c9824b0329eb96f","properties":{"NAME":"Middle Kingdom of Egypt","ABBREVN":null,"CONTROL":null,"SUBJECTO":"Middle Kingdom of Egypt","PARTOF":null,"BORDERPRECISION":1,"FromYear":-2000,"ToYear":-1801,"Area":93286.0629244843,"Type":"POLITY","Wikipedia":"Middle Kingdom of Egypt","Wikidata":"Q191324","SeshatID":"eg_middle_k","Components":"","MemberOf":"","sourceFeatureId":"cliopatria-6c26c15a9c9824b0329eb96f","datasetId":"cliopatria"},"geometry":{"type":"MultiPolygon","coordinates":[[[[31.101,31.601],[31.103,31.601],[31.557,31.442],[31.872,31.535],[31.921,31.53],[32.202,31.291],[32.017,31.381],[31.91,31.528],[31.777,31.277],[32.143,31.074],[32.28,31.124],[32.215,31.282],[32.33,31.269],[32.685,31.045],[32.762,30.868],[32.729,30.558],[32.848,30.162],[32.478,29.937],[32.341,29.595],[32.538,29.407],[31.872,29.267],[31.37,29.306],[31.002,28.51],[30.931,28.033],[30.981,27.417],[31.383,27.266],[31.524,26.999],[32.172,26.411],[32.901,26.195],[32.948,25.891],[32.694,25.494],[32.895,25.166],[33.108,25.045],[33.132,23.996],[32.748,24.001],[32.765,24.712],[32.637,25.005],[32.242,25.306],[32.348,25.726],[32.543,25.893],[31.848,25.944],[31.62,26.435],[30.748,27.233],[30.448,28.711],[30.052,28.773],[29.946,28.915],[30.029,29.186],[30.385,29.422],[30.375,29.72],[30.116,30.067],[29.503,30.503],[29.497,30.946],[30.064,31.32],[30.29,31.237],[30.355,31.503],[30.956,31.576],[30.544,31.393],[30.903,31.42],[31.126,31.497],[30.978,31.584],[31.101,31.601]]]]}},{"type":"Feature","id":"cliopatria-13e2dda0d75911b7eb142f93","properties":{"NAME":"Sumerian City-States","ABBREVN":null,"CONTROL":null,"SUBJECTO":"Sumerian City-States","PARTOF":null,"BORDERPRECISION":1,"FromYear":-2000,"ToYear":-1801,"Area":53983.44046533461,"Type":"POLITY","Wikipedia":"History of Sumer","Wikidata":"Q2345840","SeshatID":"","Components":"","MemberOf":"","sourceFeatureId":"cliopatria-13e2dda0d75911b7eb142f93","datasetId":"cliopatria"},"geometry":{"type":"MultiPolygon","coordinates":[[[[48.095,30.822],[48.019,30.822],[48.027,30.886],[48.103,30.886],[48.095,30.822]]],[[[46.461,32.943],[46.538,32.943],[46.369,32.236],[46.445,32.236],[46.481,31.915],[46.854,31.85],[46.982,31.658],[47.134,31.658],[47.262,31.465],[47.695,31.272],[47.807,30.951],[48.027,30.886],[47.951,30.886],[47.251,30.758],[47.236,30.629],[46.696,30.565],[46.591,30.308],[45.77,30.436],[45.381,31.015],[45.45,31.593],[45.305,31.658],[45.397,31.786],[45.184,31.915],[45.062,32.172],[44.833,32.172],[44.712,32.429],[44.322,32.365],[44.338,32.493],[44.193,32.557],[44.164,32.943],[44.426,33.2],[44.579,33.2],[44.587,33.264],[44.749,33.329],[44.946,33.072],[45.465,32.943],[45.899,33.329],[46.129,33.329],[46.163,33.007],[46.384,32.943],[46.461,32.943]]]]}}]}
