{"type":"FeatureCollection","name":"Seshat Cliopatria -2200–-2101","datasetId":"cliopatria","startYear":-2200,"endYear":-2101,"features":[{"type":"Feature","id":"cliopatria-e7781491295ca547c4afc3ee","properties":{"NAME":"Indus Valley Civilization","ABBREVN":null,"CONTROL":null,"SUBJECTO":"Indus Valley Civilization","PARTOF":null,"BORDERPRECISION":1,"FromYear":-2300,"ToYear":-2001,"Area":755121.2924974479,"Type":"POLITY","Wikipedia":"Indus Valley Civilisation","Wikidata":"Q42534","SeshatID":"pk_kachi_urban_1","Components":"","MemberOf":"","sourceFeatureId":"cliopatria-e7781491295ca547c4afc3ee","datasetId":"cliopatria"},"geometry":{"type":"MultiPolygon","coordinates":[[[[75.735,33.65],[75.872,33.586],[76.037,33.007],[76.174,32.943],[76.066,32.814],[76.143,32.814],[76.096,32.622],[75.532,32.172],[75.502,32.043],[75.716,31.979],[75.509,31.4],[75.866,30.951],[75.838,30.822],[76.038,30.694],[76.011,30.565],[76.211,30.436],[76.184,30.308],[76.474,30.244],[76.371,30.115],[76.799,29.987],[76.772,29.858],[76.946,29.601],[76.818,28.958],[76.239,28.701],[75.786,28.701],[75.762,28.572],[74.177,28.572],[72.633,28.38],[72.072,28.187],[71.781,28.251],[70.855,28.122],[70.607,27.994],[70.241,28.058],[69.737,27.737],[69.421,27.158],[69.297,26.322],[69.372,26.322],[69.54,25.358],[70.52,24.844],[70.578,24.715],[70.728,24.715],[70.786,24.586],[71.085,24.586],[71.202,24.329],[71.352,24.329],[71.41,24.201],[71.976,23.943],[72.102,23.751],[72.876,23.365],[72.868,22.658],[72.69,22.401],[72.743,22.208],[72.378,22.272],[72.342,21.951],[72.112,21.886],[72.173,21.758],[72.321,21.758],[72.28,21.372],[72.104,21.115],[71.092,20.665],[70.721,20.665],[70.295,20.858],[69.89,21.243],[69.903,21.372],[69.497,21.758],[69.349,21.758],[68.949,22.208],[68.977,22.465],[69.409,22.336],[69.497,22.465],[69.869,22.465],[70.263,22.658],[70.365,22.915],[69.451,22.722],[68.808,22.979],[68.552,23.365],[68.336,23.429],[68.35,23.558],[68.127,23.558],[68.155,23.815],[67.633,23.815],[67.491,23.879],[67.438,24.072],[67.289,24.072],[67.326,24.393],[67.251,24.393],[67.215,24.715],[66.632,24.844],[66.679,25.229],[66.345,25.551],[66.021,25.358],[64.816,25.294],[64.801,25.165],[64.285,25.229],[64.225,25.358],[63.626,25.358],[63.536,25.229],[62.563,25.229],[62.474,25.101],[62.025,25.101],[62.137,25.422],[62.301,25.551],[64.28,25.808],[65.088,25.679],[65.696,25.744],[66.02,25.936],[65.846,26.322],[65.872,26.515],[65.797,26.515],[65.774,27.415],[65.699,27.415],[66.056,28.765],[66.554,29.922],[67.113,30.501],[67.873,30.501],[67.973,30.629],[68.934,30.886],[69.073,31.208],[69.251,31.336],[69.316,31.658],[69.571,31.786],[69.611,31.979],[69.764,31.979],[70.408,32.493],[70.36,32.622],[70.785,32.814],[70.933,33.136],[71.313,33.457],[71.727,33.586],[71.757,33.715],[71.896,33.65],[72.172,33.843],[72.571,33.907],[72.679,34.036],[73.31,34.1],[73.387,34.1],[73.355,33.972],[74.355,33.972],[74.631,33.843],[75.537,33.779],[75.658,33.65],[75.735,33.65]]],[[[70.22,27.93],[70.23,27.994],[70.306,27.994],[70.295,27.93],[70.22,27.93]]],[[[76.522,30.115],[76.536,30.179],[76.612,30.179],[76.598,30.115],[76.522,30.115]]]]}},{"type":"Feature","id":"cliopatria-0995087cd42b401ff522818c","properties":{"NAME":"Akkadian Empire","ABBREVN":null,"CONTROL":null,"SUBJECTO":"Akkadian Empire","PARTOF":null,"BORDERPRECISION":1,"FromYear":-2200,"ToYear":-2101,"Area":296575.8485807046,"Type":"POLITY","Wikipedia":"Akkadian Empire","Wikidata":"Q4461035","SeshatID":"iq_akkad_emp","Components":"","MemberOf":"","sourceFeatureId":"cliopatria-0995087cd42b401ff522818c","datasetId":"cliopatria"},"geometry":{"type":"MultiPolygon","coordinates":[[[[48.095,30.822],[48.019,30.822],[48.027,30.886],[48.103,30.886],[48.095,30.822]]],[[[44.366,36.739],[44.438,36.16],[44.516,36.16],[44.557,35.902],[44.712,35.902],[44.753,35.645],[45.663,35.516],[46.059,35.58],[46.226,35.13],[45.898,35.001],[45.88,34.872],[45.717,34.808],[45.785,34.744],[45.681,34.551],[45.536,34.615],[45.509,34.422],[45.654,34.358],[45.619,34.1],[45.448,33.972],[45.883,33.779],[45.865,33.65],[46.146,33.457],[46.163,33.007],[46.47,33.007],[46.759,32.879],[47.022,32.557],[47.396,32.493],[47.472,32.493],[47.455,32.365],[47.599,32.3],[47.582,32.172],[47.981,31.722],[47.796,31.465],[47.739,31.015],[48.027,30.886],[47.951,30.886],[47.251,30.758],[47.236,30.629],[46.696,30.565],[46.591,30.308],[46.302,30.436],[45.77,30.436],[45.648,30.694],[45.503,30.758],[45.518,30.886],[45.29,30.886],[45.168,31.143],[45.016,31.143],[44.955,31.272],[44.581,31.336],[44.459,31.593],[43.153,32.814],[42.709,32.943],[42.578,33.136],[41.489,33.65],[41.212,33.907],[40.912,33.972],[40.85,34.1],[40.473,34.165],[40.418,34.358],[40.118,34.422],[40.056,34.551],[39.608,34.679],[39.252,34.937],[39.09,34.872],[38.874,35.001],[39.412,35.645],[39.559,36.224],[39.637,36.224],[39.669,36.482],[39.366,36.546],[39.312,36.739],[39.864,36.804],[40.529,37.126],[41.697,37.126],[42.035,37.319],[42.269,37.319],[42.605,36.933],[42.587,36.804],[43.053,36.804],[43.159,36.997],[43.607,36.868],[43.557,37.062],[43.791,37.062],[43.781,36.997],[44.366,36.739]]]]}},{"type":"Feature","id":"cliopatria-9f3e4346331e755ff5e50a86","properties":{"NAME":"Elam","ABBREVN":null,"CONTROL":null,"SUBJECTO":"Elam","PARTOF":null,"BORDERPRECISION":1,"FromYear":-2200,"ToYear":-2101,"Area":89634.28893415602,"Type":"POLITY","Wikipedia":"Elam","Wikidata":"Q128904","SeshatID":"","Components":"","MemberOf":"","sourceFeatureId":"cliopatria-9f3e4346331e755ff5e50a86","datasetId":"cliopatria"},"geometry":{"type":"MultiPolygon","coordinates":[[[[50.035,32.236],[50.017,32.107],[50.286,31.85],[50.166,31.529],[50.479,31.593],[50.386,31.465],[50.723,31.143],[50.705,31.015],[50.983,30.822],[51.101,30.565],[51.472,30.501],[51.514,30.244],[51.725,30.115],[51.708,29.987],[52.24,29.408],[52.208,29.151],[51.882,28.958],[51.859,28.765],[51.557,28.765],[51.066,28.444],[51.028,28.765],[50.809,28.83],[50.915,29.087],[50.62,29.151],[50.651,29.408],[50.236,29.729],[50.065,30.179],[49.913,30.179],[49.929,30.308],[49.702,30.308],[49.346,30.501],[49.111,30.436],[49.127,30.565],[49.287,30.629],[49.143,30.694],[48.103,30.886],[48.027,30.886],[47.739,31.015],[47.796,31.465],[47.981,31.722],[47.582,32.172],[47.599,32.3],[47.455,32.365],[47.472,32.493],[47.549,32.493],[47.863,32.557],[47.898,32.814],[48.087,33.072],[48.547,33.072],[48.682,32.943],[48.988,32.943],[49.046,32.814],[49.276,32.814],[49.249,32.622],[49.717,32.686],[49.959,32.236],[50.035,32.236]]],[[[50.538,31.465],[50.462,31.465],[50.471,31.529],[50.547,31.529],[50.538,31.465]]]]}},{"type":"Feature","id":"cliopatria-27bade1f1f565cdf3e5b5bce","properties":{"NAME":"Lower Egypt","ABBREVN":null,"CONTROL":null,"SUBJECTO":"Lower Egypt","PARTOF":null,"BORDERPRECISION":1,"FromYear":-2200,"ToYear":-2101,"Area":74524.33486391467,"Type":"POLITY","Wikipedia":"Old Kingdom of Egypt","Wikidata":"Q463871","SeshatID":"eg_old_k_2","Components":"","MemberOf":"","sourceFeatureId":"cliopatria-27bade1f1f565cdf3e5b5bce","datasetId":"cliopatria"},"geometry":{"type":"MultiPolygon","coordinates":[[[[31.101,31.601],[31.103,31.601],[31.557,31.442],[31.872,31.535],[31.921,31.53],[32.202,31.291],[32.017,31.381],[31.91,31.528],[31.777,31.277],[32.028,31.216],[32.078,31.083],[32.28,31.124],[32.254,31.282],[32.685,31.045],[32.848,30.162],[32.478,29.937],[32.361,29.683],[32.538,29.407],[31.872,29.267],[31.37,29.306],[30.96,28.278],[30.963,27.517],[31.063,27.359],[31.042,27.329],[30.898,27.183],[30.889,27.163],[30.748,27.233],[30.613,27.561],[30.448,28.711],[30.052,28.773],[29.946,28.915],[30.029,29.186],[30.385,29.422],[30.375,29.72],[30.116,30.067],[29.503,30.503],[29.497,30.946],[30.064,31.32],[30.29,31.237],[30.355,31.503],[30.956,31.576],[30.544,31.393],[30.903,31.42],[31.126,31.497],[30.978,31.584],[31.101,31.601]]]]}},{"type":"Feature","id":"cliopatria-988e4787039a0a1b8e8d3d47","properties":{"NAME":"Upper Egypt","ABBREVN":null,"CONTROL":null,"SUBJECTO":"Upper Egypt","PARTOF":null,"BORDERPRECISION":1,"FromYear":-2200,"ToYear":-2101,"Area":19656.39645648067,"Type":"POLITY","Wikipedia":"Old Kingdom of Egypt","Wikidata":"Q203751","SeshatID":"eg_old_k_2","Components":"","MemberOf":"","sourceFeatureId":"cliopatria-988e4787039a0a1b8e8d3d47","datasetId":"cliopatria"},"geometry":{"type":"MultiPolygon","coordinates":[[[[31.493,27.142],[31.524,26.999],[32.172,26.411],[32.901,26.195],[32.948,25.891],[32.694,25.494],[32.895,25.166],[33.108,25.045],[33.132,23.996],[32.748,24.001],[32.765,24.712],[32.637,25.005],[32.242,25.306],[32.348,25.726],[32.543,25.893],[31.848,25.944],[31.77,26.246],[30.891,27.166],[30.898,27.183],[31.042,27.329],[31.064,27.36],[31.085,27.389],[31.086,27.391],[31.178,27.366],[31.28,27.316],[31.383,27.266],[31.493,27.142]]]]}}]}
