{"type":"FeatureCollection","name":"Seshat Cliopatria -2300–-2201","datasetId":"cliopatria","startYear":-2300,"endYear":-2201,"features":[{"type":"Feature","id":"cliopatria-1142ed1039dea0d1b0e281d0","properties":{"NAME":"Akkadian Empire","ABBREVN":null,"CONTROL":null,"SUBJECTO":"Akkadian Empire","PARTOF":null,"BORDERPRECISION":1,"FromYear":-2300,"ToYear":-2251,"Area":390386.841153921,"Type":"POLITY","Wikipedia":"Akkadian Empire","Wikidata":"Q4461035","SeshatID":"","Components":"","MemberOf":"","sourceFeatureId":"cliopatria-1142ed1039dea0d1b0e281d0","datasetId":"cliopatria"},"geometry":{"type":"MultiPolygon","coordinates":[[[[37.943,37.642],[38.021,37.642],[38.239,37.513],[38.481,37.577],[39.914,37.19],[40.147,37.19],[40.242,37.319],[40.364,37.062],[40.849,37.19],[41.697,37.126],[42.035,37.319],[42.269,37.319],[42.605,36.933],[42.587,36.804],[43.053,36.804],[43.159,36.997],[43.607,36.868],[43.557,37.062],[43.791,37.062],[43.85,36.933],[44.298,36.804],[44.438,36.16],[44.83,35.645],[44.735,35.516],[44.794,35.387],[44.604,35.13],[44.904,35.065],[44.954,34.872],[45.245,34.744],[45.227,34.615],[45.536,34.615],[45.509,34.422],[45.654,34.358],[45.619,34.1],[45.448,33.972],[45.883,33.779],[45.865,33.65],[46.146,33.457],[46.163,33.007],[46.759,32.879],[47.022,32.557],[47.863,32.557],[47.837,32.365],[48.363,32.3],[48.566,32.107],[49.1,30.951],[48.939,30.886],[48.915,30.694],[47.875,30.886],[47.799,30.886],[47.343,30.886],[47.214,31.079],[46.91,31.079],[46.698,31.208],[46.362,30.951],[45.982,30.951],[45.883,30.758],[45.807,30.758],[45.359,30.822],[45.153,31.015],[45.168,31.143],[45.016,31.143],[44.81,31.336],[44.581,31.336],[44.459,31.593],[43.153,32.814],[42.709,32.943],[42.578,33.136],[41.489,33.65],[41.212,33.907],[40.912,33.972],[40.85,34.1],[40.473,34.165],[40.418,34.358],[40.118,34.422],[40.056,34.551],[38.804,35.065],[38.179,35.001],[37.926,34.808],[37.723,35.065],[37.568,35.065],[37.47,34.872],[37.246,34.937],[37.155,34.808],[36.615,34.808],[36.454,34.744],[36.441,34.615],[36.293,34.679],[36.26,34.358],[35.825,33.843],[35.711,33.457],[35.328,33.457],[35.346,33.65],[35.499,33.65],[35.447,33.907],[35.684,33.972],[35.644,34.358],[35.792,34.293],[36.049,34.551],[36.068,34.744],[35.927,34.872],[35.96,35.194],[35.882,35.194],[35.993,35.516],[35.845,35.58],[35.99,36.224],[35.842,36.288],[36.265,36.61],[36.286,36.804],[36.145,36.933],[35.904,36.868],[36.018,37.19],[35.862,37.19],[35.876,37.319],[36.076,37.706],[36.318,37.771],[36.366,37.513],[37.068,37.513],[37.124,37.319],[37.685,37.448],[37.708,37.642],[37.943,37.642]]]]}},{"type":"Feature","id":"cliopatria-09a4b32652198b883db0c82a","properties":{"NAME":"Old Kingdom of Egypt","ABBREVN":null,"CONTROL":null,"SUBJECTO":"Old Kingdom of Egypt","PARTOF":null,"BORDERPRECISION":1,"FromYear":-2300,"ToYear":-2251,"Area":93286.0629244843,"Type":"POLITY","Wikipedia":"Old Kingdom of Egypt","Wikidata":"Q177819","SeshatID":"eg_old_k_2","Components":"","MemberOf":"","sourceFeatureId":"cliopatria-09a4b32652198b883db0c82a","datasetId":"cliopatria"},"geometry":{"type":"MultiPolygon","coordinates":[[[[31.101,31.601],[31.103,31.601],[31.557,31.442],[31.872,31.535],[31.921,31.53],[32.202,31.291],[32.017,31.381],[31.91,31.528],[31.777,31.277],[32.143,31.074],[32.28,31.124],[32.215,31.282],[32.33,31.269],[32.685,31.045],[32.762,30.868],[32.729,30.558],[32.848,30.162],[32.478,29.937],[32.341,29.595],[32.538,29.407],[31.872,29.267],[31.37,29.306],[31.002,28.51],[30.931,28.033],[30.981,27.417],[31.383,27.266],[31.524,26.999],[32.172,26.411],[32.901,26.195],[32.948,25.891],[32.694,25.494],[32.895,25.166],[33.108,25.045],[33.132,23.996],[32.748,24.001],[32.765,24.712],[32.637,25.005],[32.242,25.306],[32.348,25.726],[32.543,25.893],[31.848,25.944],[31.62,26.435],[30.748,27.233],[30.448,28.711],[30.052,28.773],[29.946,28.915],[30.029,29.186],[30.385,29.422],[30.375,29.72],[30.116,30.067],[29.503,30.503],[29.497,30.946],[30.064,31.32],[30.29,31.237],[30.355,31.503],[30.956,31.576],[30.544,31.393],[30.903,31.42],[31.126,31.497],[30.978,31.584],[31.101,31.601]]]]}},{"type":"Feature","id":"cliopatria-c0848cd7cbd4ab3c0bde67ed","properties":{"NAME":"Sumerian City-States","ABBREVN":null,"CONTROL":null,"SUBJECTO":"Sumerian City-States","PARTOF":null,"BORDERPRECISION":1,"FromYear":-2300,"ToYear":-2251,"Area":8294.096180585033,"Type":"POLITY","Wikipedia":"History of Sumer","Wikidata":"Q2345840","SeshatID":"","Components":"","MemberOf":"","sourceFeatureId":"cliopatria-c0848cd7cbd4ab3c0bde67ed","datasetId":"cliopatria"},"geometry":{"type":"MultiPolygon","coordinates":[[[[46.605,30.436],[46.591,30.308],[46.439,30.308],[45.876,30.694],[45.883,30.758],[45.982,30.951],[46.362,30.951],[46.698,31.208],[46.91,31.079],[47.214,31.079],[47.343,30.886],[47.799,30.886],[47.791,30.822],[47.251,30.758],[47.236,30.629],[46.613,30.501],[46.605,30.436]]]]}},{"type":"Feature","id":"cliopatria-e7781491295ca547c4afc3ee","properties":{"NAME":"Indus Valley Civilization","ABBREVN":null,"CONTROL":null,"SUBJECTO":"Indus Valley Civilization","PARTOF":null,"BORDERPRECISION":1,"FromYear":-2300,"ToYear":-2001,"Area":755121.2924974479,"Type":"POLITY","Wikipedia":"Indus Valley Civilisation","Wikidata":"Q42534","SeshatID":"pk_kachi_urban_1","Components":"","MemberOf":"","sourceFeatureId":"cliopatria-e7781491295ca547c4afc3ee","datasetId":"cliopatria"},"geometry":{"type":"MultiPolygon","coordinates":[[[[75.735,33.65],[75.872,33.586],[76.037,33.007],[76.174,32.943],[76.066,32.814],[76.143,32.814],[76.096,32.622],[75.532,32.172],[75.502,32.043],[75.716,31.979],[75.509,31.4],[75.866,30.951],[75.838,30.822],[76.038,30.694],[76.011,30.565],[76.211,30.436],[76.184,30.308],[76.474,30.244],[76.371,30.115],[76.799,29.987],[76.772,29.858],[76.946,29.601],[76.818,28.958],[76.239,28.701],[75.786,28.701],[75.762,28.572],[74.177,28.572],[72.633,28.38],[72.072,28.187],[71.781,28.251],[70.855,28.122],[70.607,27.994],[70.241,28.058],[69.737,27.737],[69.421,27.158],[69.297,26.322],[69.372,26.322],[69.54,25.358],[70.52,24.844],[70.578,24.715],[70.728,24.715],[70.786,24.586],[71.085,24.586],[71.202,24.329],[71.352,24.329],[71.41,24.201],[71.976,23.943],[72.102,23.751],[72.876,23.365],[72.868,22.658],[72.69,22.401],[72.743,22.208],[72.378,22.272],[72.342,21.951],[72.112,21.886],[72.173,21.758],[72.321,21.758],[72.28,21.372],[72.104,21.115],[71.092,20.665],[70.721,20.665],[70.295,20.858],[69.89,21.243],[69.903,21.372],[69.497,21.758],[69.349,21.758],[68.949,22.208],[68.977,22.465],[69.409,22.336],[69.497,22.465],[69.869,22.465],[70.263,22.658],[70.365,22.915],[69.451,22.722],[68.808,22.979],[68.552,23.365],[68.336,23.429],[68.35,23.558],[68.127,23.558],[68.155,23.815],[67.633,23.815],[67.491,23.879],[67.438,24.072],[67.289,24.072],[67.326,24.393],[67.251,24.393],[67.215,24.715],[66.632,24.844],[66.679,25.229],[66.345,25.551],[66.021,25.358],[64.816,25.294],[64.801,25.165],[64.285,25.229],[64.225,25.358],[63.626,25.358],[63.536,25.229],[62.563,25.229],[62.474,25.101],[62.025,25.101],[62.137,25.422],[62.301,25.551],[64.28,25.808],[65.088,25.679],[65.696,25.744],[66.02,25.936],[65.846,26.322],[65.872,26.515],[65.797,26.515],[65.774,27.415],[65.699,27.415],[66.056,28.765],[66.554,29.922],[67.113,30.501],[67.873,30.501],[67.973,30.629],[68.934,30.886],[69.073,31.208],[69.251,31.336],[69.316,31.658],[69.571,31.786],[69.611,31.979],[69.764,31.979],[70.408,32.493],[70.36,32.622],[70.785,32.814],[70.933,33.136],[71.313,33.457],[71.727,33.586],[71.757,33.715],[71.896,33.65],[72.172,33.843],[72.571,33.907],[72.679,34.036],[73.31,34.1],[73.387,34.1],[73.355,33.972],[74.355,33.972],[74.631,33.843],[75.537,33.779],[75.658,33.65],[75.735,33.65]]],[[[70.22,27.93],[70.23,27.994],[70.306,27.994],[70.295,27.93],[70.22,27.93]]],[[[76.522,30.115],[76.536,30.179],[76.612,30.179],[76.598,30.115],[76.522,30.115]]]]}},{"type":"Feature","id":"cliopatria-055164126ce777c80e0ea907","properties":{"NAME":"Akkadian Empire","ABBREVN":null,"CONTROL":null,"SUBJECTO":"Akkadian Empire","PARTOF":null,"BORDERPRECISION":1,"FromYear":-2250,"ToYear":-2201,"Area":526585.1114920083,"Type":"POLITY","Wikipedia":"Akkadian Empire","Wikidata":"Q4461035","SeshatID":"iq_akkad_emp","Components":"","MemberOf":"","sourceFeatureId":"cliopatria-055164126ce777c80e0ea907","datasetId":"cliopatria"},"geometry":{"type":"MultiPolygon","coordinates":[[[[56.028,24.972],[55.841,24.586],[55.623,24.651],[55.462,24.522],[55.163,24.522],[55.181,24.715],[54.981,24.972],[55.311,25.294],[55.412,25.551],[55.97,25.872],[56.168,26.322],[56.475,26.387],[56.543,26.322],[56.385,25.551],[56.46,25.551],[56.489,25.101],[56.302,24.715],[56.152,24.715],[56.021,24.908],[56.028,24.972]]],[[[50.462,31.465],[50.471,31.529],[50.547,31.529],[50.538,31.465],[50.462,31.465]]],[[[37.373,37.448],[37.685,37.448],[37.708,37.642],[37.951,37.706],[38.239,37.513],[38.481,37.577],[39.914,37.19],[40.147,37.19],[40.242,37.319],[40.364,37.062],[40.849,37.19],[41.697,37.126],[42.035,37.319],[42.269,37.319],[42.605,36.933],[42.587,36.804],[43.053,36.804],[43.159,36.997],[43.607,36.868],[43.557,37.062],[43.791,37.062],[43.85,36.933],[44.298,36.804],[44.438,36.16],[44.516,36.16],[44.557,35.902],[44.712,35.902],[44.753,35.645],[45.663,35.516],[46.059,35.58],[46.099,35.323],[46.244,35.258],[46.226,35.13],[45.985,35.065],[45.717,34.808],[45.767,34.615],[45.536,34.615],[45.509,34.422],[45.654,34.358],[45.619,34.1],[45.448,33.972],[45.883,33.779],[45.865,33.65],[46.146,33.457],[46.163,33.007],[46.759,32.879],[47.022,32.557],[47.243,32.493],[47.778,32.493],[48.087,33.072],[48.988,32.943],[49.046,32.814],[49.276,32.814],[49.249,32.622],[49.717,32.686],[49.851,32.557],[49.824,32.365],[50.035,32.236],[50.017,32.107],[50.286,31.85],[50.26,31.658],[50.479,31.593],[50.386,31.465],[50.723,31.143],[50.705,31.015],[50.983,30.822],[51.101,30.565],[51.472,30.501],[51.514,30.244],[52.113,29.601],[52.097,29.472],[52.24,29.408],[52.208,29.151],[51.882,28.958],[51.859,28.765],[51.557,28.765],[51.066,28.444],[51.028,28.765],[50.809,28.83],[50.915,29.087],[50.62,29.151],[50.651,29.408],[50.236,29.729],[50.065,30.179],[49.346,30.501],[49.111,30.436],[49.127,30.565],[49.287,30.629],[49.143,30.694],[47.799,30.886],[47.251,30.758],[47.236,30.629],[46.696,30.565],[46.591,30.308],[46.378,30.436],[45.778,30.501],[45.503,30.758],[45.518,30.886],[45.29,30.886],[45.153,31.015],[45.168,31.143],[45.016,31.143],[44.81,31.336],[44.581,31.336],[44.459,31.593],[43.153,32.814],[42.709,32.943],[42.578,33.136],[41.489,33.65],[41.212,33.907],[40.912,33.972],[40.85,34.1],[40.473,34.165],[40.418,34.358],[40.118,34.422],[40.056,34.551],[38.804,35.065],[38.179,35.001],[37.926,34.808],[37.723,35.065],[37.568,35.065],[37.47,34.872],[37.246,34.937],[37.155,34.808],[36.615,34.808],[36.454,34.744],[36.441,34.615],[36.293,34.679],[36.26,34.358],[35.825,33.843],[35.711,33.457],[35.328,33.457],[35.346,33.65],[35.499,33.65],[35.447,33.907],[35.684,33.972],[35.644,34.358],[35.792,34.293],[36.049,34.551],[36.068,34.744],[35.927,34.872],[35.96,35.194],[35.882,35.194],[35.993,35.516],[35.845,35.58],[35.99,36.224],[35.842,36.288],[36.265,36.61],[36.286,36.804],[36.145,36.933],[35.834,36.933],[35.488,36.61],[35.113,36.739],[34.95,36.675],[34.893,36.868],[34.582,36.868],[34.251,36.675],[33.979,36.288],[33.274,36.224],[32.713,36.031],[32.487,36.095],[32.588,36.353],[32.988,36.482],[32.774,36.675],[32.792,36.868],[33.097,36.804],[33.278,37.062],[34.388,37.255],[34.409,37.448],[34.962,37.513],[34.99,37.771],[35.224,37.771],[35.317,37.9],[35.551,37.9],[35.991,37.642],[36.318,37.771],[36.366,37.513],[37.068,37.513],[37.124,37.319],[37.202,37.319],[37.373,37.448]]]]}},{"type":"Feature","id":"cliopatria-0dd1e06af67b351b351a80b5","properties":{"NAME":"Old Kingdom of Egypt","ABBREVN":null,"CONTROL":null,"SUBJECTO":"Old Kingdom of Egypt","PARTOF":null,"BORDERPRECISION":1,"FromYear":-2250,"ToYear":-2201,"Area":93286.0629244843,"Type":"POLITY","Wikipedia":"Old Kingdom of Egypt","Wikidata":"Q177819","SeshatID":"eg_old_k_2","Components":"","MemberOf":"","sourceFeatureId":"cliopatria-0dd1e06af67b351b351a80b5","datasetId":"cliopatria"},"geometry":{"type":"MultiPolygon","coordinates":[[[[31.101,31.601],[31.103,31.601],[31.557,31.442],[31.872,31.535],[31.921,31.53],[32.202,31.291],[32.017,31.381],[31.91,31.528],[31.777,31.277],[32.143,31.074],[32.28,31.124],[32.215,31.282],[32.33,31.269],[32.685,31.045],[32.762,30.868],[32.729,30.558],[32.848,30.162],[32.478,29.937],[32.341,29.595],[32.538,29.407],[31.872,29.267],[31.37,29.306],[31.002,28.51],[30.931,28.033],[30.981,27.417],[31.383,27.266],[31.524,26.999],[32.172,26.411],[32.901,26.195],[32.948,25.891],[32.694,25.494],[32.895,25.166],[33.108,25.045],[33.132,23.996],[32.748,24.001],[32.765,24.712],[32.637,25.005],[32.242,25.306],[32.348,25.726],[32.543,25.893],[31.848,25.944],[31.62,26.435],[30.748,27.233],[30.448,28.711],[30.052,28.773],[29.946,28.915],[30.029,29.186],[30.385,29.422],[30.375,29.72],[30.116,30.067],[29.503,30.503],[29.497,30.946],[30.064,31.32],[30.29,31.237],[30.355,31.503],[30.956,31.576],[30.544,31.393],[30.903,31.42],[31.126,31.497],[30.978,31.584],[31.101,31.601]]]]}}]}
