{"type":"FeatureCollection","name":"Seshat Cliopatria -2400–-2301","datasetId":"cliopatria","startYear":-2400,"endYear":-2301,"features":[{"type":"Feature","id":"cliopatria-06dc6c43e65ebac0b26c05d4","properties":{"NAME":"Indus Valley Civilization","ABBREVN":null,"CONTROL":null,"SUBJECTO":"Indus Valley Civilization","PARTOF":null,"BORDERPRECISION":1,"FromYear":-2500,"ToYear":-2301,"Area":40148.65017281176,"Type":"POLITY","Wikipedia":"Indus Valley Civilisation","Wikidata":"Q42534","SeshatID":"pk_kachi_pre_urban","Components":"","MemberOf":"","sourceFeatureId":"cliopatria-06dc6c43e65ebac0b26c05d4","datasetId":"cliopatria"},"geometry":{"type":"MultiPolygon","coordinates":[[[[72.249,23.108],[72.235,22.979],[72.518,22.851],[72.488,22.593],[72.176,22.465],[72.162,22.336],[71.864,22.336],[71.744,22.593],[71.595,22.593],[71.699,22.851],[71.773,22.851],[71.951,23.108],[72.249,23.108]]],[[[69.999,24.265],[70.149,24.265],[70.365,24.201],[70.483,23.943],[70.633,23.943],[70.602,23.686],[70.289,23.558],[70.274,23.429],[69.976,23.429],[69.856,23.686],[69.707,23.686],[69.73,23.879],[69.737,23.943],[70.051,24.072],[69.999,24.265]]],[[[68.17,26.837],[68.02,26.837],[68.039,26.965],[67.813,26.965],[67.701,27.222],[67.551,27.222],[67.589,27.479],[67.74,27.479],[67.93,27.737],[68.231,27.737],[68.211,27.608],[68.361,27.608],[68.472,27.351],[68.698,27.351],[68.678,27.222],[68.96,27.094],[68.921,26.837],[68.602,26.708],[68.584,26.579],[68.283,26.579],[68.293,26.644],[68.152,26.708],[68.17,26.837]]],[[[75.558,29.087],[75.633,29.087],[75.621,29.022],[75.545,29.022],[75.558,29.087]]],[[[73.981,29.537],[73.956,29.408],[74.234,29.279],[74.185,29.022],[73.859,28.894],[73.835,28.765],[73.533,28.765],[73.557,28.894],[73.405,28.894],[73.429,29.022],[73.278,29.022],[73.402,29.279],[73.478,29.279],[73.678,29.537],[73.981,29.537]]],[[[76.341,29.601],[76.315,29.472],[76.592,29.344],[76.541,29.087],[76.213,28.958],[76.188,28.83],[75.886,28.83],[75.911,28.958],[75.76,28.958],[75.785,29.087],[75.633,29.087],[75.759,29.344],[75.835,29.344],[76.038,29.601],[76.341,29.601]]],[[[66.998,29.858],[66.975,29.729],[67.255,29.601],[67.211,29.344],[66.886,29.215],[66.865,29.087],[66.562,29.087],[66.454,29.344],[66.303,29.344],[66.423,29.601],[66.498,29.601],[66.694,29.858],[66.998,29.858]]],[[[71.571,31.143],[71.545,31.015],[71.823,30.886],[71.771,30.629],[71.441,30.501],[71.416,30.372],[71.112,30.372],[71.138,30.501],[70.986,30.501],[71.011,30.629],[70.859,30.629],[70.987,30.886],[71.063,30.886],[71.267,31.143],[71.571,31.143]]]]}},{"type":"Feature","id":"cliopatria-f2b0915eafa90f2044eeee19","properties":{"NAME":"Old Kingdom of Egypt","ABBREVN":null,"CONTROL":null,"SUBJECTO":"Old Kingdom of Egypt","PARTOF":null,"BORDERPRECISION":1,"FromYear":-2500,"ToYear":-2301,"Area":93286.0629244843,"Type":"POLITY","Wikipedia":"Old Kingdom of Egypt","Wikidata":"Q177819","SeshatID":"eg_old_k_1","Components":"","MemberOf":"","sourceFeatureId":"cliopatria-f2b0915eafa90f2044eeee19","datasetId":"cliopatria"},"geometry":{"type":"MultiPolygon","coordinates":[[[[31.101,31.601],[31.103,31.601],[31.557,31.442],[31.872,31.535],[31.921,31.53],[32.202,31.291],[32.017,31.381],[31.91,31.528],[31.777,31.277],[32.143,31.074],[32.28,31.124],[32.215,31.282],[32.33,31.269],[32.685,31.045],[32.762,30.868],[32.729,30.558],[32.848,30.162],[32.478,29.937],[32.341,29.595],[32.538,29.407],[31.872,29.267],[31.37,29.306],[31.002,28.51],[30.931,28.033],[30.981,27.417],[31.383,27.266],[31.524,26.999],[32.172,26.411],[32.901,26.195],[32.948,25.891],[32.694,25.494],[32.895,25.166],[33.108,25.045],[33.132,23.996],[32.748,24.001],[32.765,24.712],[32.637,25.005],[32.242,25.306],[32.348,25.726],[32.543,25.893],[31.848,25.944],[31.62,26.435],[30.748,27.233],[30.448,28.711],[30.052,28.773],[29.946,28.915],[30.029,29.186],[30.385,29.422],[30.375,29.72],[30.116,30.067],[29.503,30.503],[29.497,30.946],[30.064,31.32],[30.29,31.237],[30.355,31.503],[30.956,31.576],[30.544,31.393],[30.903,31.42],[31.126,31.497],[30.978,31.584],[31.101,31.601]]]]}},{"type":"Feature","id":"cliopatria-fb23eb7e04fae61440e814af","properties":{"NAME":"Sumerian City-States","ABBREVN":null,"CONTROL":null,"SUBJECTO":"Sumerian City-States","PARTOF":null,"BORDERPRECISION":1,"FromYear":-2500,"ToYear":-2301,"Area":106576.07060876074,"Type":"POLITY","Wikipedia":"History of Sumer","Wikidata":"Q2345840","SeshatID":"","Components":"","MemberOf":"","sourceFeatureId":"cliopatria-fb23eb7e04fae61440e814af","datasetId":"cliopatria"},"geometry":{"type":"MultiPolygon","coordinates":[[[[42.976,34.486],[42.967,34.422],[43.267,34.358],[43.328,34.229],[43.841,34.036],[44.261,33.715],[44.5,33.779],[44.595,33.329],[44.749,33.329],[45.022,33.072],[45.55,33.007],[45.737,33.264],[46.146,33.457],[46.163,33.007],[46.759,32.879],[47.022,32.557],[47.693,32.429],[47.855,32.493],[48.575,32.172],[48.872,30.951],[48.948,30.951],[48.915,30.694],[48.255,30.886],[47.799,30.886],[47.251,30.758],[47.236,30.629],[46.696,30.565],[46.591,30.308],[46.294,30.372],[45.678,30.951],[45.45,31.593],[45.305,31.658],[45.397,31.786],[45.184,31.915],[45.199,32.043],[45.062,32.172],[44.833,32.172],[44.712,32.429],[44.322,32.365],[44.103,33.072],[43.95,33.072],[43.82,33.264],[43.522,33.329],[43.461,33.457],[43.307,33.457],[43.247,33.586],[42.948,33.65],[42.887,33.779],[42.38,34.036],[40.788,34.229],[40.518,34.551],[40.618,34.744],[40.857,34.808],[40.996,34.679],[41.235,34.744],[41.836,34.615],[42.538,34.679],[42.522,34.551],[42.736,34.422],[42.976,34.486]]]]}}]}
