{"type":"FeatureCollection","name":"Seshat Cliopatria -2700–-2601","datasetId":"cliopatria","startYear":-2700,"endYear":-2601,"features":[{"type":"Feature","id":"cliopatria-405ad42bd572e1f0dc06a3ee","properties":{"NAME":"Early Dynastic Period of Egypt","ABBREVN":null,"CONTROL":null,"SUBJECTO":"Early Dynastic Period of Egypt","PARTOF":null,"BORDERPRECISION":1,"FromYear":-2700,"ToYear":-2501,"Area":93286.0629244843,"Type":"POLITY","Wikipedia":"Early Dynastic Period (Egypt)","Wikidata":"Q187979","SeshatID":"eg_dynasty_2","Components":"","MemberOf":"","sourceFeatureId":"cliopatria-405ad42bd572e1f0dc06a3ee","datasetId":"cliopatria"},"geometry":{"type":"MultiPolygon","coordinates":[[[[31.101,31.601],[31.103,31.601],[31.557,31.442],[31.872,31.535],[31.921,31.53],[32.202,31.291],[32.017,31.381],[31.91,31.528],[31.777,31.277],[32.143,31.074],[32.28,31.124],[32.215,31.282],[32.33,31.269],[32.685,31.045],[32.762,30.868],[32.729,30.558],[32.848,30.162],[32.478,29.937],[32.341,29.595],[32.538,29.407],[31.872,29.267],[31.37,29.306],[31.002,28.51],[30.931,28.033],[30.981,27.417],[31.383,27.266],[31.524,26.999],[32.172,26.411],[32.901,26.195],[32.948,25.891],[32.694,25.494],[32.895,25.166],[33.108,25.045],[33.132,23.996],[32.748,24.001],[32.765,24.712],[32.637,25.005],[32.242,25.306],[32.348,25.726],[32.543,25.893],[31.848,25.944],[31.62,26.435],[30.748,27.233],[30.448,28.711],[30.052,28.773],[29.946,28.915],[30.029,29.186],[30.385,29.422],[30.375,29.72],[30.116,30.067],[29.503,30.503],[29.497,30.946],[30.064,31.32],[30.29,31.237],[30.355,31.503],[30.956,31.576],[30.544,31.393],[30.903,31.42],[31.126,31.497],[30.978,31.584],[31.101,31.601]]]]}},{"type":"Feature","id":"cliopatria-0f98554184a72e289e249e6f","properties":{"NAME":"Indus Valley Civilization","ABBREVN":null,"CONTROL":null,"SUBJECTO":"Indus Valley Civilization","PARTOF":null,"BORDERPRECISION":1,"FromYear":-2700,"ToYear":-2501,"Area":14900.505341821243,"Type":"POLITY","Wikipedia":"Indus Valley Civilisation","Wikidata":"Q42534","SeshatID":"pk_kachi_pre_urban","Components":"","MemberOf":"","sourceFeatureId":"cliopatria-0f98554184a72e289e249e6f","datasetId":"cliopatria"},"geometry":{"type":"MultiPolygon","coordinates":[[[[68.312,27.287],[68.613,27.287],[68.594,27.158],[68.875,27.029],[68.837,26.772],[68.518,26.644],[68.499,26.515],[68.199,26.515],[68.086,26.772],[67.936,26.772],[68.048,27.029],[68.123,27.029],[68.312,27.287]]],[[[75.545,29.022],[75.558,29.087],[75.633,29.087],[75.621,29.022],[75.545,29.022]]],[[[73.678,29.537],[73.981,29.537],[73.956,29.408],[74.234,29.279],[74.185,29.022],[73.859,28.894],[73.835,28.765],[73.533,28.765],[73.557,28.894],[73.405,28.894],[73.429,29.022],[73.278,29.022],[73.402,29.279],[73.478,29.279],[73.678,29.537]]],[[[76.038,29.601],[76.341,29.601],[76.315,29.472],[76.592,29.344],[76.541,29.087],[76.213,28.958],[76.188,28.83],[75.886,28.83],[75.911,28.958],[75.76,28.958],[75.785,29.087],[75.633,29.087],[75.759,29.344],[75.835,29.344],[76.038,29.601]]]]}},{"type":"Feature","id":"cliopatria-3ab4617ae7ffcc1c774ea826","properties":{"NAME":"Sumerian City-States","ABBREVN":null,"CONTROL":null,"SUBJECTO":"Sumerian City-States","PARTOF":null,"BORDERPRECISION":1,"FromYear":-2700,"ToYear":-2501,"Area":80617.54918929553,"Type":"POLITY","Wikipedia":"History of Sumer","Wikidata":"Q2345840","SeshatID":"","Components":"","MemberOf":"","sourceFeatureId":"cliopatria-3ab4617ae7ffcc1c774ea826","datasetId":"cliopatria"},"geometry":{"type":"MultiPolygon","coordinates":[[[[47.778,32.493],[47.855,32.493],[48.575,32.172],[48.872,30.951],[48.948,30.951],[48.915,30.694],[48.255,30.886],[47.799,30.886],[47.251,30.758],[47.236,30.629],[46.696,30.565],[46.591,30.308],[46.439,30.308],[45.807,30.758],[45.199,32.043],[45.062,32.172],[44.833,32.172],[44.712,32.429],[44.322,32.365],[44.338,32.493],[44.193,32.557],[44.224,32.814],[44.148,32.814],[44.164,32.943],[44.426,33.2],[44.579,33.2],[44.595,33.329],[44.749,33.329],[45.022,33.072],[45.55,33.007],[45.737,33.264],[46.146,33.457],[46.163,33.007],[46.759,32.879],[47.022,32.557],[47.693,32.429],[47.778,32.493]]]]}}]}
