{"type":"FeatureCollection","name":"Seshat Cliopatria -3000–-2901","datasetId":"cliopatria","startYear":-3000,"endYear":-2901,"features":[{"type":"Feature","id":"cliopatria-abd4a73c592486fe88a47678","properties":{"NAME":"Elam","ABBREVN":null,"CONTROL":null,"SUBJECTO":"Elam","PARTOF":null,"BORDERPRECISION":1,"FromYear":-3200,"ToYear":-2701,"Area":4927.8478131011,"Type":"POLITY","Wikipedia":"Elam","Wikidata":"Q128904","SeshatID":"","Components":"","MemberOf":"","sourceFeatureId":"cliopatria-abd4a73c592486fe88a47678","datasetId":"cliopatria"},"geometry":{"type":"MultiPolygon","coordinates":[[[[48.058,32.3],[48.134,32.3],[48.322,32.557],[48.628,32.557],[48.61,32.429],[48.898,32.3],[48.863,32.043],[48.541,31.915],[48.523,31.786],[48.218,31.786],[48.1,32.043],[47.947,32.043],[47.981,32.3],[48.058,32.3]]]]}},{"type":"Feature","id":"cliopatria-c5acc6c0f6dd9c89ca0e301c","properties":{"NAME":"Early Dynastic Period of Egypt","ABBREVN":null,"CONTROL":null,"SUBJECTO":"Early Dynastic Period of Egypt","PARTOF":null,"BORDERPRECISION":1,"FromYear":-3000,"ToYear":-2701,"Area":93286.0629244843,"Type":"POLITY","Wikipedia":"Early Dynastic Period (Egypt)","Wikidata":"Q187979","SeshatID":"eg_dynasty_1","Components":"","MemberOf":"","sourceFeatureId":"cliopatria-c5acc6c0f6dd9c89ca0e301c","datasetId":"cliopatria"},"geometry":{"type":"MultiPolygon","coordinates":[[[[31.101,31.601],[31.103,31.601],[31.557,31.442],[31.872,31.535],[31.921,31.53],[32.202,31.291],[32.017,31.381],[31.91,31.528],[31.777,31.277],[32.143,31.074],[32.28,31.124],[32.215,31.282],[32.33,31.269],[32.685,31.045],[32.762,30.868],[32.729,30.558],[32.848,30.162],[32.478,29.937],[32.341,29.595],[32.538,29.407],[31.872,29.267],[31.37,29.306],[31.002,28.51],[30.931,28.033],[30.981,27.417],[31.383,27.266],[31.524,26.999],[32.172,26.411],[32.901,26.195],[32.948,25.891],[32.694,25.494],[32.895,25.166],[33.108,25.045],[33.132,23.996],[32.748,24.001],[32.765,24.712],[32.637,25.005],[32.242,25.306],[32.348,25.726],[32.543,25.893],[31.848,25.944],[31.62,26.435],[30.748,27.233],[30.448,28.711],[30.052,28.773],[29.946,28.915],[30.029,29.186],[30.385,29.422],[30.375,29.72],[30.116,30.067],[29.503,30.503],[29.497,30.946],[30.064,31.32],[30.29,31.237],[30.355,31.503],[30.956,31.576],[30.544,31.393],[30.903,31.42],[31.126,31.497],[30.978,31.584],[31.101,31.601]]]]}},{"type":"Feature","id":"cliopatria-81daf6b029b684a1b3b37410","properties":{"NAME":"Indus Valley Civilization","ABBREVN":null,"CONTROL":null,"SUBJECTO":"Indus Valley Civilization","PARTOF":null,"BORDERPRECISION":1,"FromYear":-3000,"ToYear":-2701,"Area":4997.632390870805,"Type":"POLITY","Wikipedia":"Indus Valley Civilisation","Wikidata":"Q42534","SeshatID":"pk_kachi_pre_urban","Components":"","MemberOf":"","sourceFeatureId":"cliopatria-81daf6b029b684a1b3b37410","datasetId":"cliopatria"},"geometry":{"type":"MultiPolygon","coordinates":[[[[68.048,27.029],[68.123,27.029],[68.312,27.287],[68.613,27.287],[68.594,27.158],[68.875,27.029],[68.837,26.772],[68.518,26.644],[68.499,26.515],[68.199,26.515],[68.086,26.772],[67.936,26.772],[68.048,27.029]]]]}},{"type":"Feature","id":"cliopatria-ef9b425639e2cdb5ce4d5534","properties":{"NAME":"Sumerian City-States","ABBREVN":null,"CONTROL":null,"SUBJECTO":"Sumerian City-States","PARTOF":null,"BORDERPRECISION":1,"FromYear":-3000,"ToYear":-2701,"Area":45289.54883803891,"Type":"POLITY","Wikipedia":"History of Sumer","Wikidata":"Q2345840","SeshatID":"","Components":"","MemberOf":"","sourceFeatureId":"cliopatria-ef9b425639e2cdb5ce4d5534","datasetId":"cliopatria"},"geometry":{"type":"MultiPolygon","coordinates":[[[[46.541,31.786],[46.533,31.722],[46.842,31.143],[47.298,31.143],[47.236,30.629],[46.696,30.565],[46.591,30.308],[46.439,30.308],[45.807,30.758],[45.199,32.043],[45.062,32.172],[44.833,32.172],[44.712,32.429],[44.322,32.365],[44.338,32.493],[44.193,32.557],[44.164,32.943],[44.426,33.2],[44.579,33.2],[44.595,33.329],[44.749,33.329],[45.022,33.072],[45.55,33.007],[45.737,33.264],[46.146,33.457],[46.163,33.007],[46.614,32.943],[46.377,32.3],[46.453,32.3],[46.489,31.979],[46.633,31.915],[46.541,31.786]]]]}}]}
