{"type":"FeatureCollection","name":"Seshat Cliopatria -3100–-3001","datasetId":"cliopatria","startYear":-3100,"endYear":-3001,"features":[{"type":"Feature","id":"cliopatria-81d30569b9b8914340cf6448","properties":{"NAME":"Sumerian City-States","ABBREVN":null,"CONTROL":null,"SUBJECTO":"Sumerian City-States","PARTOF":null,"BORDERPRECISION":1,"FromYear":-3200,"ToYear":-3001,"Area":35614.59527198169,"Type":"POLITY","Wikipedia":"History of Sumer","Wikidata":"Q2345840","SeshatID":"","Components":"","MemberOf":"","sourceFeatureId":"cliopatria-81d30569b9b8914340cf6448","datasetId":"cliopatria"},"geometry":{"type":"MultiPolygon","coordinates":[[[[46.055,32.172],[46.132,32.172],[46.32,31.85],[46.549,31.85],[46.525,31.658],[46.842,31.143],[47.298,31.143],[47.236,30.629],[46.696,30.565],[46.591,30.308],[46.294,30.372],[46.165,30.565],[46.013,30.565],[45.807,30.758],[45.45,31.593],[45.305,31.658],[45.397,31.786],[45.184,31.915],[45.062,32.172],[44.833,32.172],[44.712,32.429],[44.322,32.365],[44.338,32.493],[44.193,32.557],[44.164,32.943],[44.426,33.2],[44.579,33.2],[44.595,33.329],[44.749,33.329],[44.877,33.136],[45.176,33.072],[45.083,32.943],[45.815,32.686],[46.055,32.172]]]]}},{"type":"Feature","id":"cliopatria-abd4a73c592486fe88a47678","properties":{"NAME":"Elam","ABBREVN":null,"CONTROL":null,"SUBJECTO":"Elam","PARTOF":null,"BORDERPRECISION":1,"FromYear":-3200,"ToYear":-2701,"Area":4927.8478131011,"Type":"POLITY","Wikipedia":"Elam","Wikidata":"Q128904","SeshatID":"","Components":"","MemberOf":"","sourceFeatureId":"cliopatria-abd4a73c592486fe88a47678","datasetId":"cliopatria"},"geometry":{"type":"MultiPolygon","coordinates":[[[[48.058,32.3],[48.134,32.3],[48.322,32.557],[48.628,32.557],[48.61,32.429],[48.898,32.3],[48.863,32.043],[48.541,31.915],[48.523,31.786],[48.218,31.786],[48.1,32.043],[47.947,32.043],[47.981,32.3],[48.058,32.3]]]]}}]}
