{"type":"FeatureCollection","name":"Seshat Cliopatria -3300–-3201","datasetId":"cliopatria","startYear":-3300,"endYear":-3201,"features":[{"type":"Feature","id":"cliopatria-a373e5feee7e6b770aac3f03","properties":{"NAME":"Sumerian City-States","ABBREVN":null,"CONTROL":null,"SUBJECTO":"Sumerian City-States","PARTOF":null,"BORDERPRECISION":1,"FromYear":-3400,"ToYear":-3201,"Area":22012.292763497044,"Type":"POLITY","Wikipedia":"History of Sumer","Wikidata":"Q2345840","SeshatID":"","Components":"","MemberOf":"","sourceFeatureId":"cliopatria-a373e5feee7e6b770aac3f03","datasetId":"cliopatria"},"geometry":{"type":"MultiPolygon","coordinates":[[[[46.136,31.593],[46.212,31.593],[46.196,31.465],[46.545,31.208],[46.782,31.272],[46.842,31.143],[47.298,31.143],[47.236,30.629],[46.696,30.565],[46.591,30.308],[46.013,30.565],[45.678,30.951],[45.45,31.593],[45.305,31.658],[45.397,31.786],[45.184,31.915],[45.199,32.043],[45.062,32.172],[44.833,32.172],[44.712,32.429],[44.559,32.429],[44.675,32.75],[45.195,32.622],[45.46,32.3],[45.613,32.3],[45.818,32.107],[45.862,31.85],[46.159,31.786],[46.075,31.722],[46.136,31.593]]]]}}]}
