{"type":"FeatureCollection","name":"Seshat Cliopatria -800–-701","datasetId":"cliopatria","startYear":-800,"endYear":-701,"features":[{"type":"Feature","id":"cliopatria-09209f1396ac40b006891401","properties":{"NAME":"Philistia","ABBREVN":null,"CONTROL":null,"SUBJECTO":"Philistia","PARTOF":null,"BORDERPRECISION":1,"FromYear":-900,"ToYear":-751,"Area":3188.9790213329084,"Type":"POLITY","Wikipedia":"Philistia","Wikidata":"Q7185566","SeshatID":"","Components":"","MemberOf":"","sourceFeatureId":"cliopatria-09209f1396ac40b006891401","datasetId":"cliopatria"},"geometry":{"type":"MultiPolygon","coordinates":[[[[34.633,31.658],[34.573,31.85],[34.813,31.979],[34.759,32.236],[34.846,32.365],[34.852,32.429],[35.005,32.429],[35.141,32.236],[35.036,31.915],[34.857,31.593],[34.781,31.593],[34.297,31.272],[34.557,31.658],[34.633,31.658]]]]}},{"type":"Feature","id":"cliopatria-5aff1c1d5316e7bd25cb23ba","properties":{"NAME":"Phrygia","ABBREVN":null,"CONTROL":null,"SUBJECTO":"Phrygia","PARTOF":null,"BORDERPRECISION":1,"FromYear":-900,"ToYear":-751,"Area":29488.257634327354,"Type":"POLITY","Wikipedia":"Phrygia","Wikidata":"Q32579","SeshatID":"tr_phrygian_k","Components":"","MemberOf":"","sourceFeatureId":"cliopatria-5aff1c1d5316e7bd25cb23ba","datasetId":"cliopatria"},"geometry":{"type":"MultiPolygon","coordinates":[[[[33.129,39.385],[33.208,39.385],[33.358,39.32],[33.479,38.997],[33.786,38.933],[33.701,38.868],[33.758,38.674],[33.587,38.545],[33.195,38.545],[33.144,38.803],[33.001,38.933],[32.418,38.61],[32.261,38.61],[32.196,38.739],[31.797,38.674],[31.659,38.868],[31.836,39.062],[31.757,39.062],[31.784,39.32],[31.705,39.32],[31.811,39.579],[31.66,39.644],[31.674,39.773],[30.727,39.773],[30.674,40.032],[30.918,40.096],[31.017,40.291],[31.248,40.226],[31.313,40.096],[31.787,40.096],[31.959,40.226],[32.196,40.226],[32.146,40.485],[33.009,40.42],[32.994,40.291],[33.209,40.096],[33.525,40.096],[33.416,39.838],[33.165,39.708],[33.129,39.385]]]]}},{"type":"Feature","id":"cliopatria-65cb35f51d987cf0e4b42639","properties":{"NAME":"Tabal Kingdom","ABBREVN":null,"CONTROL":null,"SUBJECTO":"Tabal Kingdom","PARTOF":null,"BORDERPRECISION":1,"FromYear":-900,"ToYear":-751,"Area":38587.13148898826,"Type":"POLITY","Wikipedia":"Tabal (state)","Wikidata":"Q727710","SeshatID":"tr_tabal_k","Components":"","MemberOf":"","sourceFeatureId":"cliopatria-65cb35f51d987cf0e4b42639","datasetId":"cliopatria"},"geometry":{"type":"MultiPolygon","coordinates":[[[[35.353,36.557],[34.525,36.746],[35.077,37.75],[35.633,37.853],[35.754,38.123],[36.185,38.351],[36.232,38.56],[36.366,38.612],[36.559,38.444],[36.785,38.732],[37.266,38.8],[37.369,38.748],[37.29,38.661],[38.075,38.125],[37.602,37.626],[36.835,37.159],[36.156,36.846],[35.973,36.928],[35.604,36.619],[35.353,36.557]]]]}},{"type":"Feature","id":"cliopatria-98cfc3cfe62e7bf13da48c2c","properties":{"NAME":"(Phoenician Empire)","ABBREVN":null,"CONTROL":null,"SUBJECTO":"(Phoenician Empire)","PARTOF":null,"BORDERPRECISION":1,"FromYear":-800,"ToYear":-751,"Area":25425.179299740485,"Type":"POLITY","Wikipedia":"Phoenicia","Wikidata":"Q41642","SeshatID":"","Components":"Phoenicia","MemberOf":"","sourceFeatureId":"cliopatria-98cfc3cfe62e7bf13da48c2c","datasetId":"cliopatria"},"geometry":{"type":"MultiPolygon","coordinates":[[[[14.369,32.557],[14.675,32.557],[14.901,32.365],[14.825,32.365],[14.517,32.172],[14.369,32.557]]],[[[35.776,33.329],[35.445,33.072],[35.221,33.136],[35.227,33.2],[35.398,33.393],[35.346,33.65],[35.499,33.65],[35.447,33.907],[35.684,33.972],[35.644,34.358],[35.792,34.293],[36.049,34.551],[36.068,34.744],[35.927,34.872],[35.96,35.194],[35.882,35.194],[35.986,35.451],[35.993,35.516],[36.232,35.58],[36.373,35.451],[36.353,35.258],[36.185,35.13],[36.165,34.937],[36.313,34.872],[36.203,34.551],[36.28,34.551],[36.235,34.1],[36.049,33.779],[36.043,33.715],[36.024,33.522],[35.776,33.329]]],[[[33.856,35.001],[33.523,34.744],[33.369,34.744],[33.292,34.744],[33.238,35.001],[33.47,35.001],[33.809,35.323],[33.957,35.258],[33.951,35.194],[34.099,35.13],[34.087,35.001],[33.856,35.001]]],[[[10.851,35.773],[10.851,35.645],[11.083,35.58],[11.083,35.387],[11.006,35.387],[11.006,35.451],[10.619,35.323],[10.542,35.516],[10.851,35.773]]],[[[14.337,35.838],[14.34,36.031],[14.417,36.031],[14.571,35.966],[14.568,35.773],[14.337,35.838]]],[[[-5.986,36.224],[-6.248,36.61],[-6.17,36.61],[-6.005,36.482],[-5.986,36.224]]],[[[10.54,36.739],[10.851,36.997],[11.006,36.997],[11.006,36.804],[10.462,36.417],[10.54,36.224],[10.23,36.288],[10.23,36.417],[9.84,36.739],[9.917,36.739],[10.228,36.868],[10.54,36.739]]],[[[7.665,36.546],[7.272,36.868],[7.346,37.062],[7.659,36.997],[7.66,36.933],[7.971,36.933],[7.665,36.546]]],[[[10.306,36.933],[10.306,36.868],[10.228,36.868],[10.228,36.933],[10.306,36.933]]],[[[9.059,37.062],[9.603,37.319],[9.993,37.19],[10.227,37.255],[10.228,37.062],[10.072,37.126],[9.994,36.933],[9.683,36.997],[9.295,36.739],[8.983,36.868],[8.983,36.933],[8.826,36.997],[8.903,37.126],[9.059,37.062]]]]}},{"type":"Feature","id":"cliopatria-32d725aff39c65215a6eb00a","properties":{"NAME":"Greek City-States","ABBREVN":null,"CONTROL":null,"SUBJECTO":"Greek City-States","PARTOF":null,"BORDERPRECISION":1,"FromYear":-800,"ToYear":-751,"Area":58484.87446344054,"Type":"POLITY","Wikipedia":"Polis","Wikidata":"Q148837","SeshatID":"","Components":"","MemberOf":"","sourceFeatureId":"cliopatria-32d725aff39c65215a6eb00a","datasetId":"cliopatria"},"geometry":{"type":"MultiPolygon","coordinates":[[[[34.529,35.58],[34.034,35.258],[33.957,35.258],[33.809,35.323],[33.47,35.001],[33.238,35.001],[33.292,34.744],[33.286,34.679],[32.889,34.551],[32.747,34.679],[32.367,34.744],[32.229,34.937],[32.246,35.13],[32.555,35.13],[32.875,35.258],[32.887,35.387],[33.737,35.387],[34.31,35.709],[34.387,35.709],[34.542,35.709],[34.529,35.58]]],[[[23.615,35.516],[24.157,35.516],[24.15,35.387],[24.301,35.323],[25.692,35.323],[25.681,35.13],[26.225,35.194],[26.14,35.065],[24.824,35.001],[24.757,35.194],[24.526,35.194],[24.448,35.194],[23.679,35.258],[23.615,35.516]]],[[[28.139,36.031],[27.743,35.902],[27.693,36.288],[28.017,36.482],[28.095,36.482],[28.25,36.482],[28.139,36.031]]],[[[26.865,36.675],[27.039,36.933],[27.117,36.933],[27.185,36.804],[26.865,36.675]]],[[[25.564,36.997],[25.331,36.997],[25.339,37.126],[25.417,37.126],[25.573,37.126],[25.564,36.997]]],[[[27.666,36.997],[27.195,36.933],[27.209,37.126],[27.525,37.19],[27.603,37.19],[27.754,37.126],[27.666,36.997]]],[[[22.936,38.739],[23.167,38.674],[23.313,38.481],[23.626,38.481],[23.563,38.739],[24.03,38.674],[24.179,38.545],[24.159,38.222],[24.002,38.222],[23.979,37.835],[23.443,38.029],[23.208,38.029],[23.201,37.9],[23.044,37.9],[23.108,37.642],[23.342,37.642],[23.402,37.319],[23.169,37.319],[23.176,37.448],[22.949,37.577],[22.714,37.577],[22.701,37.319],[22.853,37.255],[23.056,36.675],[22.833,36.868],[22.599,36.868],[22.512,36.675],[22.356,36.675],[22.22,37.062],[21.909,37.062],[21.899,36.868],[21.744,36.868],[21.681,37.19],[21.603,37.19],[21.697,37.513],[21.244,37.835],[21.416,38.158],[21.729,38.158],[21.738,38.351],[21.272,38.416],[21.278,38.545],[21.602,38.739],[21.912,38.674],[22.386,38.739],[22.55,38.868],[22.561,39.062],[22.344,39.385],[22.588,39.514],[22.532,39.902],[22.623,40.096],[22.702,40.096],[22.611,39.902],[22.765,39.838],[22.757,39.708],[23.135,39.45],[22.816,39.385],[22.797,39.062],[22.958,39.126],[23.108,38.997],[23.344,38.997],[23.489,38.803],[23.179,38.868],[23.183,38.933],[22.943,38.868],[22.936,38.739]]],[[[25.876,38.158],[25.899,38.481],[25.821,38.481],[25.913,38.674],[25.991,38.674],[26.217,38.545],[26.111,38.158],[25.876,38.158]]],[[[23.489,38.803],[23.567,38.803],[23.563,38.739],[23.485,38.739],[23.489,38.803]]]]}},{"type":"Feature","id":"cliopatria-79714bb0ef2d60f6a28850c5","properties":{"NAME":"Kingdom of Israel","ABBREVN":null,"CONTROL":null,"SUBJECTO":"Kingdom of Israel","PARTOF":null,"BORDERPRECISION":1,"FromYear":-800,"ToYear":-751,"Area":13389.527243385972,"Type":"POLITY","Wikipedia":"Kingdom of Israel (united monarchy)","Wikidata":"Q3185305","SeshatID":"il_yisrael","Components":"","MemberOf":"","sourceFeatureId":"cliopatria-79714bb0ef2d60f6a28850c5","datasetId":"cliopatria"},"geometry":{"type":"MultiPolygon","coordinates":[[[[35.881,31.979],[35.805,31.979],[35.864,31.786],[35.706,31.722],[35.63,31.722],[35.571,31.915],[35.036,31.915],[35.141,32.236],[35.005,32.429],[34.852,32.429],[34.857,32.493],[35.022,32.622],[35.056,33.007],[35.215,33.072],[35.221,33.136],[35.445,33.072],[35.776,33.329],[35.77,33.264],[36.07,33.2],[35.952,32.75],[36.175,32.686],[36.31,32.493],[35.91,32.3],[35.899,32.172],[36.046,32.107],[35.881,31.979]]]]}},{"type":"Feature","id":"cliopatria-9acd2937aa6e1cc0cfee38f7","properties":{"NAME":"Kingdom of Judah","ABBREVN":null,"CONTROL":null,"SUBJECTO":"Kingdom of Judah","PARTOF":null,"BORDERPRECISION":1,"FromYear":-800,"ToYear":-751,"Area":4404.193935807169,"Type":"POLITY","Wikipedia":"Kingdom of Judah","Wikidata":"Q48685","SeshatID":"","Components":"","MemberOf":"","sourceFeatureId":"cliopatria-9acd2937aa6e1cc0cfee38f7","datasetId":"cliopatria"},"geometry":{"type":"MultiPolygon","coordinates":[[[[35.571,31.915],[35.63,31.722],[35.554,31.722],[35.532,31.465],[35.216,31.336],[34.607,31.336],[34.612,31.4],[35.036,31.915],[35.571,31.915]]]]}},{"type":"Feature","id":"cliopatria-362d93566b1d85a95a69d4ec","properties":{"NAME":"Kingdom of Urartu","ABBREVN":null,"CONTROL":null,"SUBJECTO":"Kingdom of Urartu","PARTOF":null,"BORDERPRECISION":1,"FromYear":-800,"ToYear":-751,"Area":53103.98089935511,"Type":"POLITY","Wikipedia":"Urartu","Wikidata":"Q185068","SeshatID":"tr_urartu_k","Components":"","MemberOf":"","sourceFeatureId":"cliopatria-362d93566b1d85a95a69d4ec","datasetId":"cliopatria"},"geometry":{"type":"MultiPolygon","coordinates":[[[[45.68,40.032],[45.668,39.967],[45.961,39.838],[45.758,39.579],[46.095,39.256],[46.108,38.868],[45.636,38.868],[45.123,38.61],[44.993,38.287],[44.523,38.287],[44.444,38.287],[44.318,38.481],[43.281,38.868],[43.222,38.997],[42.898,38.933],[42.682,39.062],[42.005,38.739],[41.77,38.739],[41.72,38.933],[41.484,38.933],[41.494,38.997],[41.592,39.126],[41.296,39.256],[41.493,39.514],[42.044,39.514],[42.421,39.902],[43.221,39.967],[43.332,40.161],[43.569,40.161],[43.591,40.291],[43.817,40.226],[43.795,40.096],[44.416,40.032],[44.518,40.161],[45.071,40.161],[45.116,39.967],[45.454,40.096],[45.68,40.032]]]]}},{"type":"Feature","id":"cliopatria-480b283d6561972a848c62af","properties":{"NAME":"Neo-Assyrian Empire","ABBREVN":null,"CONTROL":null,"SUBJECTO":"Neo-Assyrian Empire","PARTOF":null,"BORDERPRECISION":1,"FromYear":-800,"ToYear":-751,"Area":482045.4711993742,"Type":"POLITY","Wikipedia":"Neo-Assyrian Empire","Wikidata":"Q10914393","SeshatID":"iq_neo_assyrian_emp","Components":"","MemberOf":"","sourceFeatureId":"cliopatria-480b283d6561972a848c62af","datasetId":"cliopatria"},"geometry":{"type":"MultiPolygon","coordinates":[[[[38.233,38.093],[38.328,38.222],[38.258,38.287],[38.51,38.416],[39.102,38.158],[39.311,38.545],[39.563,38.674],[39.938,38.545],[40.2,38.739],[40.749,38.739],[40.856,38.933],[41.475,38.868],[41.484,38.933],[41.72,38.933],[41.77,38.739],[42.005,38.739],[42.682,39.062],[42.898,38.933],[43.222,38.997],[43.281,38.868],[44.318,38.481],[44.444,38.287],[44.434,38.222],[44.306,37.9],[44.462,37.9],[44.599,37.771],[44.637,37.513],[44.852,37.384],[44.862,36.933],[45.066,36.739],[45.106,36.482],[45.388,36.288],[45.369,36.16],[45.447,36.16],[45.35,36.031],[46.329,35.838],[46.068,35.645],[46.04,35.451],[46.244,35.258],[46.226,35.13],[45.898,35.001],[45.862,34.744],[46.175,34.229],[46.148,34.036],[46.379,34.036],[46.285,33.907],[46.787,33.65],[46.684,33.457],[46.828,33.393],[46.555,33.072],[46.606,32.879],[46.41,32.557],[46.377,32.3],[46.617,31.786],[45.923,31.722],[46.044,31.465],[45.937,31.208],[45.016,31.143],[44.81,31.336],[44.581,31.336],[44.459,31.593],[43.153,32.814],[42.709,32.943],[42.578,33.136],[41.489,33.65],[41.212,33.907],[40.912,33.972],[40.85,34.1],[40.473,34.165],[40.418,34.358],[40.118,34.422],[40.056,34.551],[38.804,35.065],[38.179,35.001],[37.758,34.679],[37.744,34.551],[37.325,34.229],[37.389,34.1],[37.235,34.1],[37.055,33.843],[36.728,33.65],[36.767,33.264],[35.77,33.264],[35.776,33.329],[36.024,33.522],[36.043,33.715],[36.049,33.779],[36.235,34.1],[36.28,34.551],[36.203,34.551],[36.313,34.872],[36.165,34.937],[36.185,35.13],[36.353,35.258],[36.373,35.451],[36.232,35.58],[35.993,35.516],[35.916,35.516],[35.878,35.902],[35.956,35.902],[35.99,36.224],[35.849,36.353],[36.265,36.61],[36.204,36.868],[37.602,37.626],[38.045,38.093],[38.077,38.093],[38.233,38.093]]],[[[34.525,36.868],[34.5,36.828],[34.504,36.868],[34.525,36.868]]]]}},{"type":"Feature","id":"cliopatria-251549f0899783f2948cbf3f","properties":{"NAME":"Phoenicia","ABBREVN":null,"CONTROL":null,"SUBJECTO":"Phoenicia","PARTOF":"(Phoenician Empire)","BORDERPRECISION":1,"FromYear":-800,"ToYear":-751,"Area":25425.179299740485,"Type":"POLITY","Wikipedia":"Phoenicia","Wikidata":"Q41642","SeshatID":"lb_phoenician_emp","Components":"","MemberOf":"(Phoenician Empire)","sourceFeatureId":"cliopatria-251549f0899783f2948cbf3f","datasetId":"cliopatria"},"geometry":{"type":"MultiPolygon","coordinates":[[[[14.369,32.557],[14.675,32.557],[14.901,32.365],[14.825,32.365],[14.517,32.172],[14.369,32.557]]],[[[35.776,33.329],[35.445,33.072],[35.221,33.136],[35.227,33.2],[35.398,33.393],[35.346,33.65],[35.499,33.65],[35.447,33.907],[35.684,33.972],[35.644,34.358],[35.792,34.293],[36.049,34.551],[36.068,34.744],[35.927,34.872],[35.96,35.194],[35.882,35.194],[35.986,35.451],[35.993,35.516],[36.232,35.58],[36.373,35.451],[36.353,35.258],[36.185,35.13],[36.165,34.937],[36.313,34.872],[36.203,34.551],[36.28,34.551],[36.235,34.1],[36.049,33.779],[36.043,33.715],[36.024,33.522],[35.776,33.329]]],[[[33.856,35.001],[33.523,34.744],[33.369,34.744],[33.292,34.744],[33.238,35.001],[33.47,35.001],[33.809,35.323],[33.957,35.258],[33.951,35.194],[34.099,35.13],[34.087,35.001],[33.856,35.001]]],[[[10.851,35.773],[10.851,35.645],[11.083,35.58],[11.083,35.387],[11.006,35.387],[11.006,35.451],[10.619,35.323],[10.542,35.516],[10.851,35.773]]],[[[14.337,35.838],[14.34,36.031],[14.417,36.031],[14.571,35.966],[14.568,35.773],[14.337,35.838]]],[[[-5.986,36.224],[-6.248,36.61],[-6.17,36.61],[-6.005,36.482],[-5.986,36.224]]],[[[10.54,36.739],[10.851,36.997],[11.006,36.997],[11.006,36.804],[10.462,36.417],[10.54,36.224],[10.23,36.288],[10.23,36.417],[9.84,36.739],[9.917,36.739],[10.228,36.868],[10.54,36.739]]],[[[7.665,36.546],[7.272,36.868],[7.346,37.062],[7.659,36.997],[7.66,36.933],[7.971,36.933],[7.665,36.546]]],[[[10.306,36.933],[10.306,36.868],[10.228,36.868],[10.228,36.933],[10.306,36.933]]],[[[9.059,37.062],[9.603,37.319],[9.993,37.19],[10.227,37.255],[10.228,37.062],[10.072,37.126],[9.994,36.933],[9.683,36.997],[9.295,36.739],[8.983,36.868],[8.983,36.933],[8.826,36.997],[8.903,37.126],[9.059,37.062]]]]}},{"type":"Feature","id":"cliopatria-97cbf96ee5a8d103465c8b61","properties":{"NAME":"Twenty-second Dynasty of Egypt","ABBREVN":null,"CONTROL":null,"SUBJECTO":"Twenty-second Dynasty of Egypt","PARTOF":null,"BORDERPRECISION":1,"FromYear":-800,"ToYear":-751,"Area":166127.90155902941,"Type":"POLITY","Wikipedia":"Twenty-second Dynasty of Egypt","Wikidata":"Q737629","SeshatID":"eg_thebes_libyan","Components":"","MemberOf":"","sourceFeatureId":"cliopatria-97cbf96ee5a8d103465c8b61","datasetId":"cliopatria"},"geometry":{"type":"MultiPolygon","coordinates":[[[[30.91,28.251],[30.986,28.251],[31.016,27.415],[31.166,27.415],[31.737,26.837],[32.488,26.837],[32.631,26.708],[32.607,26.258],[32.369,26.001],[32.419,23.815],[32.416,23.751],[31.67,23.751],[30.537,23.365],[30.463,23.365],[30.395,23.558],[30.104,23.751],[30.109,23.879],[29.959,23.879],[29.673,24.201],[28.569,24.651],[28.289,25.165],[28.306,25.615],[28.231,25.615],[28.348,26.644],[29.122,27.158],[29.887,27.415],[29.969,27.544],[29.897,27.608],[30.123,27.608],[30.283,27.801],[30.293,27.994],[30.078,28.187],[30.084,28.315],[29.567,28.508],[29.685,29.279],[29.984,29.215],[30.059,29.215],[30.279,29.087],[30.588,29.215],[30.66,29.151],[30.57,28.894],[30.94,28.765],[30.936,28.701],[30.85,28.508],[30.91,28.251]]]]}},{"type":"Feature","id":"cliopatria-0e8417db60cc05e410d3524b","properties":{"NAME":"Twenty-third Dynasty of Egypt","ABBREVN":null,"CONTROL":null,"SUBJECTO":"Twenty-third Dynasty of Egypt","PARTOF":null,"BORDERPRECISION":1,"FromYear":-800,"ToYear":-751,"Area":61633.3224972816,"Type":"POLITY","Wikipedia":"Twenty-third Dynasty of Egypt","Wikidata":"Q748170","SeshatID":"eg_thebes_libyan","Components":"","MemberOf":"","sourceFeatureId":"cliopatria-0e8417db60cc05e410d3524b","datasetId":"cliopatria"},"geometry":{"type":"MultiPolygon","coordinates":[[[[32.237,31.208],[32.313,31.208],[32.532,31.079],[32.836,31.079],[32.746,30.886],[32.822,30.886],[32.732,30.694],[32.79,30.436],[32.557,30.372],[32.602,29.922],[32.437,29.729],[32.214,29.794],[31.979,29.665],[31.6,29.665],[31.592,29.537],[31.138,29.537],[30.974,29.344],[30.944,28.83],[30.94,28.765],[30.57,28.894],[30.66,29.151],[30.588,29.215],[30.279,29.087],[30.059,29.215],[30.063,29.279],[30.301,29.472],[30.002,29.537],[30.085,29.665],[29.79,29.794],[29.877,29.987],[29.294,30.372],[29.305,30.565],[29.093,30.822],[29.397,30.822],[29.485,31.015],[29.633,30.951],[29.87,31.079],[29.802,31.208],[29.882,31.272],[30.339,31.272],[30.271,31.4],[30.352,31.465],[30.809,31.465],[30.966,31.529],[30.975,31.658],[31.203,31.658],[31.118,31.529],[31.266,31.465],[31.875,31.465],[31.781,31.208],[31.937,31.272],[32,31.079],[32.304,31.079],[32.237,31.208]]]]}},{"type":"Feature","id":"cliopatria-40092253661540dc42e04dcd","properties":{"NAME":"Zhou Dynasty","ABBREVN":null,"CONTROL":null,"SUBJECTO":"Zhou Dynasty","PARTOF":null,"BORDERPRECISION":1,"FromYear":-800,"ToYear":-751,"Area":699623.2872120326,"Type":"POLITY","Wikipedia":"Zhou dynasty","Wikidata":"Q35216","SeshatID":"cn_western_zhou_dyn","Components":"","MemberOf":"","sourceFeatureId":"cliopatria-40092253661540dc42e04dcd","datasetId":"cliopatria"},"geometry":{"type":"MultiPolygon","coordinates":[[[[117.642,38.868],[117.602,38.481],[118.054,38.287],[118.067,38.158],[118.583,38.093],[118.648,38.222],[118.804,38.222],[118.772,38.158],[119.457,37.964],[119.393,37.835],[119.237,37.835],[118.984,37.319],[119.14,37.319],[119.156,37.19],[119.701,37.19],[119.827,37.448],[120.202,37.577],[120.188,37.706],[120.754,37.9],[121.112,37.835],[121.171,37.642],[121.483,37.642],[121.497,37.513],[122.154,37.577],[122.121,37.513],[122.713,37.448],[122.474,37.126],[122.566,36.997],[122.394,36.804],[121.912,36.933],[121.212,36.61],[120.979,36.61],[120.965,36.417],[120.732,36.417],[120.659,36.095],[120.318,36.031],[119.986,35.645],[119.619,35.516],[119.228,34.808],[119.459,34.808],[119.431,34.744],[119.711,34.679],[119.732,34.551],[120.342,34.358],[120.489,34.165],[120.55,33.586],[120.926,33.2],[120.919,32.622],[121.403,32.493],[121.503,32.172],[121.961,31.979],[121.937,31.722],[121.836,31.658],[121.301,31.85],[120.919,31.85],[121.634,31.529],[121.484,31.336],[120.75,31.208],[120.29,31.4],[119.352,31.336],[119.247,31.465],[119.123,31.336],[118.919,31.4],[118.443,31.143],[117.659,31.079],[116.078,31.336],[115.896,31.465],[115.943,31.593],[115.714,31.593],[115.68,31.915],[115.475,31.979],[115.523,32.107],[115.093,31.979],[114.888,32.043],[114.783,32.172],[114.831,32.3],[114.679,32.3],[114.65,32.429],[114.393,32.557],[114.14,32.493],[114.007,32.75],[114.029,33.007],[113.75,32.879],[113.493,33.007],[112.933,32.943],[112.752,33.072],[111.676,33.264],[111.596,33.457],[111.21,33.65],[111.106,33.779],[111.156,33.907],[111.002,33.907],[111.078,34.1],[110.717,34.358],[110.768,34.486],[110.665,34.615],[108.199,34.615],[107.374,34.872],[107.347,35.001],[107.088,35.13],[107.139,35.258],[106.984,35.258],[107.397,35.902],[107.733,35.966],[109,36.031],[109.179,35.902],[109.438,35.966],[109.385,35.838],[110.597,35.773],[110.81,36.095],[110.888,36.095],[110.915,36.16],[110.992,36.16],[110.965,36.095],[111.043,36.095],[112.279,37.319],[113.545,38.997],[114.536,39.708],[114.919,39.838],[116.181,39.838],[117.03,40.096],[117.295,40.291],[117.532,40.291],[117.461,40.161],[117.662,40.096],[117.601,39.838],[117.724,39.773],[117.709,39.45],[117.867,39.45],[117.833,39.385],[117.99,39.385],[118.08,39.256],[117.776,39.126],[117.676,38.933],[117.642,38.868]]]]}},{"type":"Feature","id":"cliopatria-8bf0dfc0e4159fd414fc0fe1","properties":{"NAME":"Elam","ABBREVN":null,"CONTROL":null,"SUBJECTO":"Elam","PARTOF":null,"BORDERPRECISION":1,"FromYear":-800,"ToYear":-701,"Area":59563.873808869204,"Type":"POLITY","Wikipedia":"Elam","Wikidata":"Q128904","SeshatID":"ir_neo_elam_1","Components":"","MemberOf":"","sourceFeatureId":"cliopatria-8bf0dfc0e4159fd414fc0fe1","datasetId":"cliopatria"},"geometry":{"type":"MultiPolygon","coordinates":[[[[49.959,32.236],[50.035,32.236],[50.017,32.107],[50.286,31.85],[49.979,31.272],[50.105,31.079],[50.071,30.822],[50.494,30.565],[50.385,30.308],[49.586,29.987],[49.45,30.115],[49.223,30.115],[49.019,30.308],[49.035,30.436],[48.883,30.436],[48.899,30.565],[48.671,30.565],[48.399,30.822],[47.655,30.951],[47.711,31.4],[47.913,31.786],[47.642,32.043],[47.591,32.236],[47.744,32.236],[47.787,32.557],[48.087,33.072],[48.988,32.943],[49.046,32.814],[49.276,32.814],[49.249,32.622],[49.717,32.686],[49.959,32.236]]]]}},{"type":"Feature","id":"cliopatria-1a7d28953953406c8c6c1cff","properties":{"NAME":"Kingdom of Kush","ABBREVN":null,"CONTROL":null,"SUBJECTO":"Kingdom of Kush","PARTOF":null,"BORDERPRECISION":1,"FromYear":-800,"ToYear":-701,"Area":336731.1451620461,"Type":"POLITY","Wikipedia":"Kingdom of Kush","Wikidata":"Q241790","SeshatID":"","Components":"","MemberOf":"","sourceFeatureId":"cliopatria-1a7d28953953406c8c6c1cff","datasetId":"cliopatria"},"geometry":{"type":"MultiPolygon","coordinates":[[[[33.838,22.079],[33.763,22.079],[33.835,22.015],[33.745,21.629],[33.82,21.629],[34.258,19.636],[34.469,19.379],[34.597,18.929],[34.879,18.608],[34.939,18.286],[35.3,18.093],[35.501,17.643],[36.003,17.322],[36.054,16.808],[35.671,16.486],[34.714,16.486],[34.556,16.229],[34.684,15.779],[34.098,15.843],[33.862,15.458],[32.529,15.2],[32.533,15.329],[32.094,15.393],[31.734,15.586],[31.527,15.972],[31.536,16.229],[31.394,16.358],[31.477,16.615],[31.337,16.808],[31.221,17.643],[31.147,17.643],[30.877,20.343],[30.803,20.343],[30.818,20.793],[30.744,20.793],[30.762,21.308],[30.688,21.308],[30.636,21.951],[30.561,21.951],[30.721,22.272],[30.742,22.851],[30.535,23.301],[30.537,23.365],[31.67,23.751],[32.416,23.751],[32.491,23.751],[33.389,23.815],[33.754,23.622],[33.809,23.172],[33.883,23.172],[33.84,22.143],[33.838,22.079]]]]}},{"type":"Feature","id":"cliopatria-202653ee01a061d36ea08629","properties":{"NAME":"Sabaeans","ABBREVN":null,"CONTROL":null,"SUBJECTO":"Sabaeans","PARTOF":null,"BORDERPRECISION":1,"FromYear":-800,"ToYear":-701,"Area":15043.526637371875,"Type":"POLITY","Wikipedia":"Sabaeans","Wikidata":"Q940785","SeshatID":"ye_sabaean_commonwealth","Components":"","MemberOf":"","sourceFeatureId":"cliopatria-202653ee01a061d36ea08629","datasetId":"cliopatria"},"geometry":{"type":"MultiPolygon","coordinates":[[[[45.844,15.329],[45.848,15.393],[45.921,15.393],[45.918,15.329],[45.844,15.329]]],[[[43.866,15.458],[43.869,15.522],[43.943,15.522],[43.939,15.458],[43.866,15.458]]],[[[43.943,15.522],[43.946,15.586],[44.02,15.586],[44.016,15.522],[43.943,15.522]]],[[[43.996,15.136],[43.939,15.458],[44.479,15.908],[44.928,16.036],[45.067,15.908],[45.366,15.972],[45.943,15.779],[45.848,15.393],[45.175,15.2],[45.102,15.2],[43.996,15.136]]]]}},{"type":"Feature","id":"cliopatria-950a5680b059e22db36ec8c1","properties":{"NAME":"(Phoenician Empire)","ABBREVN":null,"CONTROL":null,"SUBJECTO":"(Phoenician Empire)","PARTOF":null,"BORDERPRECISION":1,"FromYear":-750,"ToYear":-701,"Area":28357.095344493027,"Type":"POLITY","Wikipedia":"Phoenicia","Wikidata":"Q41642","SeshatID":"","Components":"Phoenicia","MemberOf":"","sourceFeatureId":"cliopatria-950a5680b059e22db36ec8c1","datasetId":"cliopatria"},"geometry":{"type":"MultiPolygon","coordinates":[[[[14.369,32.557],[14.675,32.557],[14.901,32.365],[14.825,32.365],[14.517,32.172],[14.369,32.557]]],[[[35.776,33.329],[35.445,33.072],[35.221,33.136],[35.227,33.2],[35.398,33.393],[35.346,33.65],[35.499,33.65],[35.447,33.907],[35.684,33.972],[35.644,34.358],[35.792,34.293],[36.049,34.551],[36.068,34.744],[35.927,34.872],[35.96,35.194],[35.882,35.194],[35.986,35.451],[35.993,35.516],[36.232,35.58],[36.373,35.451],[36.353,35.258],[36.185,35.13],[36.165,34.937],[36.313,34.872],[36.203,34.551],[36.28,34.551],[36.235,34.1],[36.049,33.779],[36.043,33.715],[36.024,33.522],[35.776,33.329]]],[[[33.856,35.001],[33.523,34.744],[33.369,34.744],[33.292,34.744],[33.238,35.001],[33.47,35.001],[33.809,35.323],[33.957,35.258],[33.951,35.194],[34.099,35.13],[34.087,35.001],[33.856,35.001]]],[[[10.542,35.516],[10.851,35.773],[10.851,35.645],[11.083,35.58],[11.083,35.387],[11.006,35.387],[11.006,35.451],[10.619,35.323],[10.542,35.516]]],[[[-3.851,36.804],[-4.469,36.739],[-4.689,36.546],[-5.228,36.482],[-5.288,36.224],[-5.516,36.16],[-5.585,36.031],[-5.831,36.224],[-6.064,36.224],[-6.248,36.61],[-5.918,36.353],[-5.452,36.353],[-5.306,36.482],[-5.31,36.546],[-4.555,36.868],[-3.851,36.804]]],[[[10.54,36.739],[10.851,36.997],[11.006,36.997],[11.006,36.804],[10.462,36.417],[10.54,36.224],[10.23,36.288],[10.23,36.417],[9.84,36.739],[9.917,36.739],[10.228,36.868],[10.54,36.739]]],[[[7.665,36.546],[7.272,36.868],[7.346,37.062],[7.659,36.997],[7.66,36.933],[7.971,36.933],[7.665,36.546]]],[[[10.306,36.933],[10.306,36.868],[10.228,36.868],[10.228,36.933],[10.306,36.933]]],[[[9.059,37.062],[9.603,37.319],[9.993,37.19],[10.227,37.255],[10.228,37.062],[10.072,37.126],[9.994,36.933],[9.683,36.997],[9.295,36.739],[8.983,36.868],[8.983,36.933],[8.826,36.997],[8.903,37.126],[9.059,37.062]]]]}},{"type":"Feature","id":"cliopatria-b6a7b4a8f5a0e21c2a0d52ad","properties":{"NAME":"Chu","ABBREVN":null,"CONTROL":null,"SUBJECTO":"Chu","PARTOF":"(Spring and Autumn States)","BORDERPRECISION":1,"FromYear":-750,"ToYear":-701,"Area":353292.4864529283,"Type":"POLITY","Wikipedia":"Chu (state)","Wikidata":"Q504759","SeshatID":"","Components":"","MemberOf":"(Spring and Autumn States)","sourceFeatureId":"cliopatria-b6a7b4a8f5a0e21c2a0d52ad","datasetId":"cliopatria"},"geometry":{"type":"MultiPolygon","coordinates":[[[[114.952,34.358],[115.595,34.422],[116.107,34.358],[116.616,34.1],[117.231,34.1],[117.739,33.843],[117.763,33.715],[118.044,33.65],[118.118,33.457],[118.449,33.329],[118.575,33.072],[118.906,32.943],[118.319,32.429],[117.11,31.658],[117.021,31.208],[116.837,30.694],[116.119,30.372],[116.043,30.372],[114.113,30.501],[113.951,30.244],[113.584,30.051],[113.267,29.537],[112.904,29.344],[111.996,29.344],[111.809,29.472],[111.299,29.537],[110.662,29.922],[110.227,29.987],[110.406,30.308],[109.916,30.436],[109.476,30.951],[109.486,31.208],[109.356,31.272],[109.475,31.4],[109.312,31.593],[109.629,32.493],[109.552,32.493],[109.816,33.007],[109.711,33.136],[109.783,33.329],[110.215,33.457],[110.212,33.65],[110.491,33.779],[110.489,33.972],[110.872,34.165],[110.897,34.229],[112.155,34.486],[112.232,34.486],[112.309,34.486],[112.386,34.486],[112.617,34.486],[113.03,34.744],[113.028,34.551],[113.387,34.486],[113.591,34.229],[113.927,34.486],[114.156,34.293],[114.875,34.358],[114.952,34.358]]]]}},{"type":"Feature","id":"cliopatria-e67dbd872ec72a80b6c0e83b","properties":{"NAME":"Greek City-States","ABBREVN":null,"CONTROL":null,"SUBJECTO":"Greek City-States","PARTOF":null,"BORDERPRECISION":1,"FromYear":-750,"ToYear":-701,"Area":64105.809261435774,"Type":"POLITY","Wikipedia":"Polis","Wikidata":"Q148837","SeshatID":"","Components":"","MemberOf":"","sourceFeatureId":"cliopatria-e67dbd872ec72a80b6c0e83b","datasetId":"cliopatria"},"geometry":{"type":"MultiPolygon","coordinates":[[[[22.874,36.16],[22.887,36.417],[22.965,36.417],[23.117,36.353],[23.107,36.16],[22.874,36.16]]],[[[24.201,37.642],[24.283,37.706],[24.361,37.706],[24.432,37.577],[24.272,37.513],[24.201,37.642]]],[[[20.613,37.706],[20.621,37.9],[20.699,37.9],[20.934,37.9],[20.922,37.642],[20.613,37.706]]],[[[20.328,38.351],[20.488,38.416],[20.566,38.416],[20.795,38.287],[20.786,38.093],[20.32,38.158],[20.328,38.351]]],[[[23.313,38.481],[23.626,38.481],[23.563,38.739],[24.03,38.674],[24.179,38.545],[24.159,38.222],[24.002,38.222],[23.979,37.835],[23.443,38.029],[23.208,38.029],[23.201,37.9],[23.044,37.9],[23.108,37.642],[23.342,37.642],[23.402,37.319],[23.169,37.319],[23.176,37.448],[22.949,37.577],[22.714,37.577],[22.701,37.319],[22.853,37.255],[23.056,36.675],[22.833,36.868],[22.599,36.868],[22.512,36.675],[22.356,36.675],[22.22,37.062],[21.909,37.062],[21.899,36.868],[21.744,36.868],[21.681,37.19],[21.603,37.19],[21.697,37.513],[21.244,37.835],[21.416,38.158],[21.729,38.158],[21.738,38.351],[21.272,38.416],[21.278,38.545],[21.602,38.739],[21.912,38.674],[22.386,38.739],[22.55,38.868],[22.561,39.062],[22.344,39.385],[22.588,39.514],[22.532,39.902],[22.623,40.096],[22.702,40.096],[22.611,39.902],[22.765,39.838],[22.757,39.708],[23.135,39.45],[22.816,39.385],[22.797,39.062],[23.116,39.126],[23.108,38.997],[23.344,38.997],[23.489,38.803],[23.179,38.868],[23.183,38.933],[22.943,38.868],[22.936,38.739],[23.167,38.674],[23.313,38.481]]],[[[20.497,38.61],[20.587,38.868],[20.666,38.868],[20.744,38.868],[20.732,38.61],[20.497,38.61]]],[[[23.489,38.803],[23.567,38.803],[23.563,38.739],[23.485,38.739],[23.489,38.803]]],[[[23.325,39.967],[23.263,40.226],[23.342,40.226],[23.645,40.032],[23.637,39.902],[23.325,39.967]]],[[[23.504,40.291],[23.5,40.226],[23.421,40.226],[23.425,40.291],[23.504,40.291]]],[[[23.658,40.226],[23.663,40.291],[23.667,40.355],[23.746,40.355],[23.742,40.291],[23.737,40.226],[23.658,40.226]]],[[[34.034,35.258],[33.957,35.258],[33.809,35.323],[33.47,35.001],[33.238,35.001],[33.292,34.744],[33.286,34.679],[32.889,34.551],[32.747,34.679],[32.367,34.744],[32.229,34.937],[32.246,35.13],[32.555,35.13],[32.875,35.258],[32.887,35.387],[33.737,35.387],[34.31,35.709],[34.387,35.709],[34.542,35.709],[34.529,35.58],[34.034,35.258]]],[[[24.157,35.516],[24.15,35.387],[24.301,35.323],[25.692,35.323],[25.681,35.13],[26.225,35.194],[26.14,35.065],[24.824,35.001],[24.757,35.194],[24.526,35.194],[24.448,35.194],[23.679,35.258],[23.615,35.516],[24.157,35.516]]],[[[27.743,35.902],[27.693,36.288],[28.017,36.482],[28.095,36.482],[28.25,36.482],[28.139,36.031],[27.743,35.902]]],[[[27.117,36.933],[27.185,36.804],[26.865,36.675],[27.039,36.933],[27.117,36.933]]],[[[25.339,37.126],[25.417,37.126],[25.573,37.126],[25.564,36.997],[25.331,36.997],[25.339,37.126]]],[[[27.195,36.933],[27.209,37.126],[27.525,37.19],[27.603,37.19],[27.754,37.126],[27.666,36.997],[27.195,36.933]]],[[[25.052,37.513],[24.986,37.706],[25.064,37.706],[25.22,37.706],[25.286,37.513],[25.052,37.513]]],[[[24.682,37.835],[24.694,38.029],[24.772,38.029],[25.068,37.771],[24.83,37.706],[24.682,37.835]]],[[[25.899,38.481],[25.821,38.481],[25.913,38.674],[25.991,38.674],[26.217,38.545],[26.111,38.158],[25.876,38.158],[25.899,38.481]]],[[[24.365,38.997],[24.444,38.997],[24.675,38.933],[24.662,38.739],[24.357,38.868],[24.365,38.997]]]]}},{"type":"Feature","id":"cliopatria-22d1e3bd411548a08641d64f","properties":{"NAME":"Kingdom of Israel","ABBREVN":null,"CONTROL":null,"SUBJECTO":"Kingdom of Israel","PARTOF":null,"BORDERPRECISION":1,"FromYear":-750,"ToYear":-701,"Area":13389.527243385972,"Type":"POLITY","Wikipedia":"Kingdom of Israel (united monarchy)","Wikidata":"Q3185305","SeshatID":"il_yisrael","Components":"","MemberOf":"","sourceFeatureId":"cliopatria-22d1e3bd411548a08641d64f","datasetId":"cliopatria"},"geometry":{"type":"MultiPolygon","coordinates":[[[[35.881,31.979],[35.805,31.979],[35.864,31.786],[35.706,31.722],[35.63,31.722],[35.571,31.915],[35.036,31.915],[35.141,32.236],[35.005,32.429],[34.852,32.429],[34.857,32.493],[35.022,32.622],[35.056,33.007],[35.215,33.072],[35.221,33.136],[35.445,33.072],[35.776,33.329],[35.77,33.264],[36.07,33.2],[35.952,32.75],[36.175,32.686],[36.31,32.493],[35.91,32.3],[35.899,32.172],[36.046,32.107],[35.881,31.979]]]]}},{"type":"Feature","id":"cliopatria-6060487c1b82f25c4982b304","properties":{"NAME":"Kingdom of Judah","ABBREVN":null,"CONTROL":null,"SUBJECTO":"Kingdom of Judah","PARTOF":null,"BORDERPRECISION":1,"FromYear":-750,"ToYear":-701,"Area":4404.193935807169,"Type":"POLITY","Wikipedia":"Kingdom of Judah","Wikidata":"Q48685","SeshatID":"","Components":"","MemberOf":"","sourceFeatureId":"cliopatria-6060487c1b82f25c4982b304","datasetId":"cliopatria"},"geometry":{"type":"MultiPolygon","coordinates":[[[[35.571,31.915],[35.63,31.722],[35.554,31.722],[35.532,31.465],[35.216,31.336],[34.607,31.336],[34.612,31.4],[35.036,31.915],[35.571,31.915]]]]}},{"type":"Feature","id":"cliopatria-21b7084f31c9465836a415ce","properties":{"NAME":"Kingdom of Urartu","ABBREVN":null,"CONTROL":null,"SUBJECTO":"Kingdom of Urartu","PARTOF":null,"BORDERPRECISION":1,"FromYear":-750,"ToYear":-701,"Area":160486.21180255097,"Type":"POLITY","Wikipedia":"Urartu","Wikidata":"Q185068","SeshatID":"tr_urartu_k","Components":"","MemberOf":"","sourceFeatureId":"cliopatria-21b7084f31c9465836a415ce","datasetId":"cliopatria"},"geometry":{"type":"MultiPolygon","coordinates":[[[[37.305,38.803],[37.478,38.933],[37.433,39.191],[37.599,39.256],[38.283,40.226],[38.925,40.291],[39.766,40.096],[40.121,40.355],[40.586,40.291],[40.785,40.55],[40.933,40.485],[41.561,40.938],[41.788,40.874],[41.91,41.133],[42.466,41.133],[42.592,40.938],[42.751,40.938],[42.864,41.133],[43.102,41.133],[43.204,41.263],[44.067,41.198],[44.043,41.068],[44.191,41.003],[44.065,40.744],[44.926,40.679],[44.891,40.485],[45.094,40.291],[45.116,39.967],[45.533,40.096],[45.961,39.838],[45.758,39.579],[45.904,39.514],[45.882,39.385],[46.095,39.256],[46.062,39.062],[46.141,39.062],[46.108,38.868],[45.636,38.868],[45.301,38.739],[45.024,38.481],[44.982,38.222],[45.197,38.093],[45.126,37.642],[45.262,37.513],[45.242,37.384],[44.92,37.319],[44.842,37.319],[44.628,37.448],[44.589,37.706],[44.306,37.9],[44.455,38.351],[44.318,38.481],[43.281,38.868],[43.222,38.997],[42.898,38.933],[42.761,39.062],[42.005,38.739],[41.77,38.739],[41.72,38.933],[41.484,38.933],[41.387,38.803],[40.846,38.868],[40.749,38.739],[40.113,38.674],[40.016,38.545],[39.476,38.61],[39.181,38.158],[38.868,38.158],[38.658,38.351],[38.423,38.351],[38.312,38.093],[38.045,38.093],[38.075,38.125],[37.576,38.466],[37.578,38.481],[37.554,38.481],[37.29,38.661],[37.369,38.748],[37.302,38.782],[37.305,38.803]]]]}},{"type":"Feature","id":"cliopatria-0aa15781b79b0f5c193e49c7","properties":{"NAME":"Neo-Assyrian Empire","ABBREVN":null,"CONTROL":null,"SUBJECTO":"Neo-Assyrian Empire","PARTOF":null,"BORDERPRECISION":1,"FromYear":-750,"ToYear":-701,"Area":479763.8105571484,"Type":"POLITY","Wikipedia":"Neo-Assyrian Empire","Wikidata":"Q10914393","SeshatID":"iq_neo_assyrian_emp","Components":"","MemberOf":"","sourceFeatureId":"cliopatria-0aa15781b79b0f5c193e49c7","datasetId":"cliopatria"},"geometry":{"type":"MultiPolygon","coordinates":[[[[38.312,38.093],[38.423,38.351],[38.658,38.351],[38.868,38.158],[39.181,38.158],[39.476,38.61],[40.016,38.545],[40.113,38.674],[40.749,38.739],[40.846,38.868],[41.387,38.803],[41.484,38.933],[41.72,38.933],[41.77,38.739],[42.005,38.739],[42.761,39.062],[42.898,38.933],[43.222,38.997],[43.281,38.868],[44.318,38.481],[44.455,38.351],[44.306,37.9],[44.589,37.706],[44.628,37.448],[44.842,37.319],[44.832,37.255],[44.92,36.804],[45.066,36.739],[45.106,36.482],[45.447,36.16],[45.35,36.031],[46.329,35.838],[46.068,35.645],[46.04,35.451],[46.244,35.258],[46.226,35.13],[45.898,35.001],[45.862,34.744],[46.175,34.229],[46.148,34.036],[46.379,34.036],[46.285,33.907],[46.787,33.65],[46.684,33.457],[46.819,33.329],[46.555,33.072],[46.606,32.879],[46.529,32.879],[46.377,32.3],[46.617,31.786],[45.923,31.722],[46.044,31.465],[45.937,31.208],[45.016,31.143],[44.81,31.336],[44.581,31.336],[44.459,31.593],[43.153,32.814],[42.709,32.943],[42.578,33.136],[41.489,33.65],[41.212,33.907],[40.912,33.972],[40.85,34.1],[40.473,34.165],[40.418,34.358],[40.118,34.422],[40.056,34.551],[38.804,35.065],[38.179,35.001],[37.758,34.679],[37.744,34.551],[37.325,34.229],[37.389,34.1],[37.235,34.1],[37.055,33.843],[36.728,33.65],[36.767,33.264],[35.77,33.264],[35.776,33.329],[36.024,33.522],[36.043,33.715],[36.049,33.779],[36.235,34.1],[36.28,34.551],[36.203,34.551],[36.313,34.872],[36.165,34.937],[36.185,35.13],[36.353,35.258],[36.373,35.451],[36.232,35.58],[35.993,35.516],[35.916,35.516],[35.878,35.902],[35.956,35.902],[35.99,36.224],[35.849,36.353],[36.265,36.61],[36.204,36.868],[37.602,37.626],[38.045,38.093],[38.312,38.093]]],[[[34.525,36.868],[34.5,36.828],[34.504,36.868],[34.525,36.868]]]]}},{"type":"Feature","id":"cliopatria-75ba53acf2faba9cc00ada8e","properties":{"NAME":"Philistia","ABBREVN":null,"CONTROL":null,"SUBJECTO":"Philistia","PARTOF":null,"BORDERPRECISION":1,"FromYear":-750,"ToYear":-701,"Area":3190.23647363243,"Type":"POLITY","Wikipedia":"Philistia","Wikidata":"Q7185566","SeshatID":"","Components":"","MemberOf":"","sourceFeatureId":"cliopatria-75ba53acf2faba9cc00ada8e","datasetId":"cliopatria"},"geometry":{"type":"MultiPolygon","coordinates":[[[[34.557,31.658],[34.633,31.658],[34.573,31.85],[34.813,31.979],[34.759,32.236],[34.846,32.365],[34.852,32.429],[35.005,32.429],[35.141,32.236],[35.036,31.915],[34.612,31.4],[34.536,31.4],[34.297,31.272],[34.557,31.658]]]]}},{"type":"Feature","id":"cliopatria-8a66478a88ad450b0ad59ded","properties":{"NAME":"Phrygia","ABBREVN":null,"CONTROL":null,"SUBJECTO":"Phrygia","PARTOF":null,"BORDERPRECISION":1,"FromYear":-750,"ToYear":-701,"Area":78628.26226151675,"Type":"POLITY","Wikipedia":"Phrygia","Wikidata":"Q32579","SeshatID":"tr_phrygian_k","Components":"","MemberOf":"","sourceFeatureId":"cliopatria-8a66478a88ad450b0ad59ded","datasetId":"cliopatria"},"geometry":{"type":"MultiPolygon","coordinates":[[[[34.373,41.198],[34.364,41.133],[34.269,41.003],[34.348,41.003],[34.395,40.744],[33.99,40.679],[34.07,40.032],[33.517,40.032],[33.416,39.838],[33.165,39.708],[33.129,39.385],[33.358,39.32],[33.479,38.997],[33.786,38.933],[33.701,38.868],[33.758,38.674],[33.587,38.545],[33.195,38.545],[33.144,38.803],[33.001,38.933],[32.418,38.61],[32.261,38.61],[32.196,38.739],[31.797,38.674],[31.659,38.868],[31.836,39.062],[31.757,39.062],[31.784,39.32],[31.705,39.32],[31.811,39.579],[31.66,39.644],[31.674,39.773],[30.727,39.773],[30.74,39.902],[30.51,39.967],[30.529,40.161],[30.45,40.161],[30.47,40.355],[30.793,40.42],[30.755,40.809],[30.928,40.938],[30.869,41.133],[31.346,41.133],[31.534,41.392],[32.027,41.522],[32.042,41.652],[32.193,41.587],[32.695,41.782],[32.631,41.911],[32.862,41.847],[33.277,41.976],[34.474,41.976],[34.352,41.652],[34.75,41.652],[34.733,41.522],[34.565,41.457],[34.54,41.263],[34.373,41.198]]]]}},{"type":"Feature","id":"cliopatria-8038c6d7e16aa95d92b5c642","properties":{"NAME":"Roman Kingdom","ABBREVN":null,"CONTROL":null,"SUBJECTO":"Roman Kingdom","PARTOF":null,"BORDERPRECISION":1,"FromYear":-750,"ToYear":-701,"Area":858.8106751773288,"Type":"POLITY","Wikipedia":"Roman Kingdom","Wikidata":"Q201038","SeshatID":"","Components":"","MemberOf":"","sourceFeatureId":"cliopatria-8038c6d7e16aa95d92b5c642","datasetId":"cliopatria"},"geometry":{"type":"MultiPolygon","coordinates":[[[[12.131,41.911],[12.131,41.976],[11.973,42.106],[12.452,42.106],[12.448,41.782],[12.131,41.911]]]]}},{"type":"Feature","id":"cliopatria-9e68d713f48d5d098090e535","properties":{"NAME":"Tabal Kingdom","ABBREVN":null,"CONTROL":null,"SUBJECTO":"Tabal Kingdom","PARTOF":null,"BORDERPRECISION":1,"FromYear":-750,"ToYear":-701,"Area":38587.13148898826,"Type":"POLITY","Wikipedia":"Tabal (state)","Wikidata":"Q727710","SeshatID":"tr_tabal_k","Components":"","MemberOf":"","sourceFeatureId":"cliopatria-9e68d713f48d5d098090e535","datasetId":"cliopatria"},"geometry":{"type":"MultiPolygon","coordinates":[[[[35.353,36.557],[34.525,36.746],[35.077,37.75],[35.633,37.853],[35.754,38.123],[36.185,38.351],[36.232,38.56],[36.366,38.612],[36.559,38.444],[36.785,38.732],[37.266,38.8],[37.369,38.748],[37.29,38.661],[38.075,38.125],[37.602,37.626],[36.835,37.159],[36.156,36.846],[35.973,36.928],[35.604,36.619],[35.353,36.557]]]]}},{"type":"Feature","id":"cliopatria-eb36ae5d8d778db401d9e597","properties":{"NAME":"Twenty-second Dynasty of Egypt","ABBREVN":null,"CONTROL":null,"SUBJECTO":"Twenty-second Dynasty of Egypt","PARTOF":null,"BORDERPRECISION":1,"FromYear":-750,"ToYear":-701,"Area":166127.90155902941,"Type":"POLITY","Wikipedia":"Twenty-second Dynasty of Egypt","Wikidata":"Q737629","SeshatID":"eg_thebes_libyan","Components":"","MemberOf":"","sourceFeatureId":"cliopatria-eb36ae5d8d778db401d9e597","datasetId":"cliopatria"},"geometry":{"type":"MultiPolygon","coordinates":[[[[30.91,28.251],[30.986,28.251],[31.016,27.415],[31.166,27.415],[31.737,26.837],[32.488,26.837],[32.631,26.708],[32.607,26.258],[32.369,26.001],[32.419,23.815],[32.416,23.751],[31.67,23.751],[30.537,23.365],[30.463,23.365],[30.395,23.558],[30.104,23.751],[30.109,23.879],[29.959,23.879],[29.673,24.201],[28.569,24.651],[28.289,25.165],[28.306,25.615],[28.231,25.615],[28.348,26.644],[29.122,27.158],[29.887,27.415],[29.969,27.544],[29.897,27.608],[30.123,27.608],[30.283,27.801],[30.293,27.994],[30.078,28.187],[30.084,28.315],[29.567,28.508],[29.685,29.279],[29.984,29.215],[30.059,29.215],[30.279,29.087],[30.588,29.215],[30.66,29.151],[30.57,28.894],[30.94,28.765],[30.936,28.701],[30.85,28.508],[30.91,28.251]]]]}},{"type":"Feature","id":"cliopatria-6bf213cb3c637139f8a29e4d","properties":{"NAME":"Twenty-third Dynasty of Egypt","ABBREVN":null,"CONTROL":null,"SUBJECTO":"Twenty-third Dynasty of Egypt","PARTOF":null,"BORDERPRECISION":1,"FromYear":-750,"ToYear":-701,"Area":61633.3224972816,"Type":"POLITY","Wikipedia":"Twenty-third Dynasty of Egypt","Wikidata":"Q748170","SeshatID":"eg_thebes_libyan","Components":"","MemberOf":"","sourceFeatureId":"cliopatria-6bf213cb3c637139f8a29e4d","datasetId":"cliopatria"},"geometry":{"type":"MultiPolygon","coordinates":[[[[32.237,31.208],[32.313,31.208],[32.532,31.079],[32.836,31.079],[32.746,30.886],[32.822,30.886],[32.732,30.694],[32.79,30.436],[32.557,30.372],[32.602,29.922],[32.437,29.729],[32.214,29.794],[31.979,29.665],[31.6,29.665],[31.592,29.537],[31.138,29.537],[30.974,29.344],[30.944,28.83],[30.94,28.765],[30.57,28.894],[30.66,29.151],[30.588,29.215],[30.279,29.087],[30.059,29.215],[30.063,29.279],[30.301,29.472],[30.002,29.537],[30.085,29.665],[29.79,29.794],[29.877,29.987],[29.294,30.372],[29.305,30.565],[29.093,30.822],[29.397,30.822],[29.485,31.015],[29.633,30.951],[29.87,31.079],[29.802,31.208],[29.882,31.272],[30.339,31.272],[30.271,31.4],[30.352,31.465],[30.809,31.465],[30.966,31.529],[30.975,31.658],[31.203,31.658],[31.118,31.529],[31.266,31.465],[31.875,31.465],[31.781,31.208],[31.937,31.272],[32,31.079],[32.304,31.079],[32.237,31.208]]]]}},{"type":"Feature","id":"cliopatria-a38f5ec953344fa3524939c3","properties":{"NAME":"Phoenicia","ABBREVN":null,"CONTROL":null,"SUBJECTO":"Phoenicia","PARTOF":"(Phoenician Empire)","BORDERPRECISION":1,"FromYear":-750,"ToYear":-676,"Area":28357.095344493027,"Type":"POLITY","Wikipedia":"Phoenicia","Wikidata":"Q41642","SeshatID":"lb_phoenician_emp","Components":"","MemberOf":"(Phoenician Empire)","sourceFeatureId":"cliopatria-a38f5ec953344fa3524939c3","datasetId":"cliopatria"},"geometry":{"type":"MultiPolygon","coordinates":[[[[14.369,32.557],[14.675,32.557],[14.901,32.365],[14.825,32.365],[14.517,32.172],[14.369,32.557]]],[[[35.776,33.329],[35.445,33.072],[35.221,33.136],[35.227,33.2],[35.398,33.393],[35.346,33.65],[35.499,33.65],[35.447,33.907],[35.684,33.972],[35.644,34.358],[35.792,34.293],[36.049,34.551],[36.068,34.744],[35.927,34.872],[35.96,35.194],[35.882,35.194],[35.986,35.451],[35.993,35.516],[36.232,35.58],[36.373,35.451],[36.353,35.258],[36.185,35.13],[36.165,34.937],[36.313,34.872],[36.203,34.551],[36.28,34.551],[36.235,34.1],[36.049,33.779],[36.043,33.715],[36.024,33.522],[35.776,33.329]]],[[[33.856,35.001],[33.523,34.744],[33.369,34.744],[33.292,34.744],[33.238,35.001],[33.47,35.001],[33.809,35.323],[33.957,35.258],[33.951,35.194],[34.099,35.13],[34.087,35.001],[33.856,35.001]]],[[[10.542,35.516],[10.851,35.773],[10.851,35.645],[11.083,35.58],[11.083,35.387],[11.006,35.387],[11.006,35.451],[10.619,35.323],[10.542,35.516]]],[[[-3.851,36.804],[-4.469,36.739],[-4.689,36.546],[-5.228,36.482],[-5.288,36.224],[-5.516,36.16],[-5.585,36.031],[-5.831,36.224],[-6.064,36.224],[-6.248,36.61],[-5.918,36.353],[-5.452,36.353],[-5.306,36.482],[-5.31,36.546],[-4.555,36.868],[-3.851,36.804]]],[[[10.54,36.739],[10.851,36.997],[11.006,36.997],[11.006,36.804],[10.462,36.417],[10.54,36.224],[10.23,36.288],[10.23,36.417],[9.84,36.739],[9.917,36.739],[10.228,36.868],[10.54,36.739]]],[[[7.665,36.546],[7.272,36.868],[7.346,37.062],[7.659,36.997],[7.66,36.933],[7.971,36.933],[7.665,36.546]]],[[[10.306,36.933],[10.306,36.868],[10.228,36.868],[10.228,36.933],[10.306,36.933]]],[[[9.059,37.062],[9.603,37.319],[9.993,37.19],[10.227,37.255],[10.228,37.062],[10.072,37.126],[9.994,36.933],[9.683,36.997],[9.295,36.739],[8.983,36.868],[8.983,36.933],[8.826,36.997],[8.903,37.126],[9.059,37.062]]]]}},{"type":"Feature","id":"cliopatria-e6f63cf6f61e52be8666ae5e","properties":{"NAME":"Etruscans","ABBREVN":null,"CONTROL":null,"SUBJECTO":"Etruscans","PARTOF":null,"BORDERPRECISION":1,"FromYear":-750,"ToYear":-651,"Area":42547.808939615774,"Type":"POLITY","Wikipedia":"Etruscan civilization","Wikidata":"Q17161","SeshatID":"","Components":"","MemberOf":"","sourceFeatureId":"cliopatria-e6f63cf6f61e52be8666ae5e","datasetId":"cliopatria"},"geometry":{"type":"MultiPolygon","coordinates":[[[[11.733,42.171],[11.655,42.366],[11.495,42.301],[11.415,42.431],[11.255,42.431],[11.176,42.626],[11.016,42.626],[11.016,42.821],[10.535,43.082],[10.293,43.798],[11.987,43.798],[12.546,43.407],[12.95,43.472],[13.181,42.821],[13.5,42.691],[13.417,42.561],[13.257,42.561],[13.331,42.171],[13.092,42.236],[13.011,42.106],[13.329,42.041],[13.327,41.911],[13.565,41.847],[13.806,41.911],[14.041,41.717],[14.035,41.392],[13.871,41.133],[13.715,41.263],[13,41.327],[12.368,41.717],[12.452,42.106],[11.973,42.106],[11.893,42.106],[11.733,42.171]]],[[[10.214,42.886],[10.455,42.886],[10.455,42.691],[10.215,42.691],[10.134,42.886],[10.214,42.886]]]]}},{"type":"Feature","id":"cliopatria-baa3f2cdfeab9b9913bd24b2","properties":{"NAME":"(Spring and Autumn States)","ABBREVN":null,"CONTROL":null,"SUBJECTO":"(Spring and Autumn States)","PARTOF":null,"BORDERPRECISION":1,"FromYear":-750,"ToYear":-551,"Area":1008534.3963654933,"Type":"POLITY","Wikipedia":"Spring and Autumn Period","Wikidata":"Q185047","SeshatID":"","Components":"Teng;Qin;Zhu;Cai;Jin;Lu;Zheng;Xu;Yan;Cao;Wey;Qi;Song;Chen;Chu;Wu;Later Zhou","MemberOf":"","sourceFeatureId":"cliopatria-baa3f2cdfeab9b9913bd24b2","datasetId":"cliopatria"},"geometry":{"type":"MultiPolygon","coordinates":[[[[116.043,30.372],[114.113,30.501],[113.951,30.244],[113.584,30.051],[113.267,29.537],[112.904,29.344],[111.996,29.344],[111.809,29.472],[111.299,29.537],[110.662,29.922],[110.227,29.987],[110.406,30.308],[109.916,30.436],[109.476,30.951],[109.486,31.208],[109.356,31.272],[109.475,31.4],[109.312,31.593],[109.629,32.493],[109.552,32.493],[109.816,33.007],[109.711,33.136],[109.783,33.329],[110.215,33.457],[110.212,33.65],[110.491,33.779],[110.489,33.972],[110.872,34.165],[110.897,34.229],[110.82,34.229],[110.743,34.229],[110.359,34.229],[109.69,34.486],[107.943,34.551],[108.453,35.258],[108.298,35.258],[108.35,35.387],[108.17,35.516],[108.222,35.645],[108.79,35.709],[109.655,36.482],[112.094,37.255],[112.172,37.255],[112.201,37.319],[113.267,37.771],[114.107,38.545],[114.092,38.674],[114.359,38.739],[115.448,39.644],[115.831,39.773],[115.9,39.902],[116.023,39.838],[116.102,39.838],[116.136,39.902],[116.452,39.902],[117.567,40.355],[119.344,40.42],[121.227,40.938],[120.647,40.485],[120.5,40.226],[119.38,39.773],[119.319,39.514],[119.284,39.45],[118.989,39.191],[118.45,39.062],[118.057,39.062],[118.046,39.191],[117.888,39.191],[117.676,38.933],[117.622,38.674],[117.602,38.481],[118.054,38.287],[118.067,38.158],[118.583,38.093],[118.648,38.222],[118.804,38.222],[118.772,38.158],[119.131,38.093],[119.209,38.093],[119.177,38.029],[119.457,37.964],[119.393,37.835],[119.237,37.835],[118.984,37.319],[119.14,37.319],[119.156,37.19],[119.701,37.19],[119.827,37.448],[120.202,37.577],[120.188,37.706],[120.754,37.9],[121.112,37.835],[121.171,37.642],[121.483,37.642],[121.497,37.513],[122.154,37.577],[122.121,37.513],[122.713,37.448],[122.474,37.126],[122.566,36.997],[122.394,36.804],[121.912,36.933],[121.212,36.61],[120.979,36.61],[120.965,36.417],[120.81,36.417],[120.732,36.417],[120.701,36.353],[120.659,36.095],[120.318,36.031],[119.986,35.645],[119.619,35.516],[119.256,34.872],[119.228,34.808],[119.305,34.808],[119.711,34.679],[119.732,34.551],[119.985,34.422],[120.342,34.358],[120.314,34.293],[120.489,34.165],[120.55,33.586],[120.926,33.2],[120.919,32.622],[121.403,32.493],[121.503,32.172],[121.783,32.107],[121.987,31.85],[121.836,31.658],[121.683,31.658],[121.581,31.786],[120.995,31.85],[120.919,31.85],[120.894,31.786],[120.97,31.786],[121.047,31.786],[121.634,31.529],[121.584,31.4],[121.737,31.4],[121.995,31.079],[121.899,30.822],[121.519,30.822],[121.197,30.565],[121.045,30.565],[120.68,30.179],[120.809,30.115],[121.105,30.308],[121.484,30.308],[121.62,30.051],[122.03,29.922],[121.82,29.537],[121.42,29.472],[121.312,29.601],[120.242,29.794],[119.778,29.987],[119.226,29.922],[118.36,29.601],[117.981,29.601],[117.96,29.537],[117.884,29.537],[117.905,29.601],[117.527,29.601],[117.191,29.729],[116.736,29.729],[116.27,29.922],[116.097,30.308],[116.119,30.372],[116.043,30.372]]]]}},{"type":"Feature","id":"cliopatria-107e6f7fe63967b8a5440e09","properties":{"NAME":"Jin","ABBREVN":null,"CONTROL":null,"SUBJECTO":"Jin","PARTOF":"(Spring and Autumn States)","BORDERPRECISION":1,"FromYear":-750,"ToYear":-551,"Area":136495.40551245358,"Type":"POLITY","Wikipedia":"Jin (Chinese state)","Wikidata":"Q6201794","SeshatID":"cn_jin_spring_and_autumn","Components":"","MemberOf":"(Spring and Autumn States)","sourceFeatureId":"cliopatria-107e6f7fe63967b8a5440e09","datasetId":"cliopatria"},"geometry":{"type":"MultiPolygon","coordinates":[[[[114.281,35.516],[114.253,35.451],[114.226,35.387],[113.762,35.387],[113.685,35.387],[113.607,35.387],[113.53,35.387],[112.32,35.451],[112.107,34.937],[112.184,34.937],[112.155,34.486],[110.897,34.229],[110.82,34.229],[110.82,34.422],[110.691,34.486],[110.717,34.744],[110.588,34.808],[110.666,35.001],[111.003,35.258],[111.163,35.645],[111.062,35.773],[111.23,36.353],[111.413,36.417],[112.172,37.255],[112.201,37.319],[113.267,37.771],[114.107,38.545],[114.092,38.674],[114.359,38.739],[115.448,39.644],[115.831,39.773],[115.9,39.902],[116.023,39.838],[116.102,39.838],[115.865,39.385],[116.101,39.385],[116.092,39.062],[116.262,38.933],[116.164,38.739],[116.399,38.739],[116.145,38.545],[117.197,38.61],[116.596,38.029],[116.439,37.706],[116.222,37.577],[115.961,37.19],[115.442,36.739],[114.61,36.095],[114.314,35.773],[114.281,35.516]]]]}},{"type":"Feature","id":"cliopatria-29117a1a62b148f985c68d0a","properties":{"NAME":"Qi","ABBREVN":null,"CONTROL":null,"SUBJECTO":"Qi","PARTOF":"(Spring and Autumn States)","BORDERPRECISION":1,"FromYear":-750,"ToYear":-551,"Area":102632.17941643945,"Type":"POLITY","Wikipedia":"Qi (state)","Wikidata":"Q1143524","SeshatID":"cn_qi_spring_autumn","Components":"","MemberOf":"(Spring and Autumn States)","sourceFeatureId":"cliopatria-29117a1a62b148f985c68d0a","datasetId":"cliopatria"},"geometry":{"type":"MultiPolygon","coordinates":[[[[119.131,38.093],[119.209,38.093],[119.177,38.029],[119.457,37.964],[119.393,37.835],[119.237,37.835],[118.984,37.319],[119.14,37.319],[119.156,37.19],[119.701,37.19],[119.827,37.448],[120.202,37.577],[120.188,37.706],[120.754,37.9],[121.112,37.835],[121.171,37.642],[121.483,37.642],[121.497,37.513],[122.154,37.577],[122.121,37.513],[122.713,37.448],[122.474,37.126],[122.566,36.997],[122.394,36.804],[121.912,36.933],[121.212,36.61],[120.979,36.61],[120.965,36.417],[120.81,36.417],[120.732,36.417],[120.529,36.482],[119.895,36.288],[117.353,36.16],[116.046,35.838],[115.765,35.902],[115.802,36.16],[115.598,36.224],[115.52,36.224],[115.636,36.482],[115.442,36.739],[115.961,37.19],[116.222,37.577],[116.439,37.706],[116.596,38.029],[117.197,38.61],[117.23,38.674],[117.622,38.674],[117.602,38.481],[118.054,38.287],[118.067,38.158],[118.583,38.093],[118.648,38.222],[118.804,38.222],[118.772,38.158],[119.131,38.093]]]]}},{"type":"Feature","id":"cliopatria-d2ad7ab22eb1437f68ac2fa7","properties":{"NAME":"Wey","ABBREVN":null,"CONTROL":null,"SUBJECTO":"Wey","PARTOF":"(Spring and Autumn States)","BORDERPRECISION":1,"FromYear":-750,"ToYear":-551,"Area":6979.345291404579,"Type":"POLITY","Wikipedia":"Wey (state)","Wikidata":"Q1147897","SeshatID":"","Components":"","MemberOf":"(Spring and Autumn States)","sourceFeatureId":"cliopatria-d2ad7ab22eb1437f68ac2fa7","datasetId":"cliopatria"},"geometry":{"type":"MultiPolygon","coordinates":[[[[114.253,35.451],[114.281,35.516],[114.314,35.773],[114.61,36.095],[115.442,36.739],[115.636,36.482],[115.52,36.224],[115.598,36.224],[115.117,35.838],[115.039,35.838],[115.011,35.773],[114.856,35.773],[114.408,35.451],[114.331,35.451],[114.303,35.387],[114.226,35.387],[114.253,35.451]]]]}},{"type":"Feature","id":"cliopatria-09a7c7cdeebc7c7ae7c3a607","properties":{"NAME":"Wu","ABBREVN":null,"CONTROL":null,"SUBJECTO":"Wu","PARTOF":"(Spring and Autumn States)","BORDERPRECISION":1,"FromYear":-750,"ToYear":-551,"Area":193430.20533788743,"Type":"POLITY","Wikipedia":"Wu (state)","Wikidata":"Q274488","SeshatID":"","Components":"","MemberOf":"(Spring and Autumn States)","sourceFeatureId":"cliopatria-09a7c7cdeebc7c7ae7c3a607","datasetId":"cliopatria"},"geometry":{"type":"MultiPolygon","coordinates":[[[[117.96,29.537],[117.884,29.537],[117.905,29.601],[117.527,29.601],[117.191,29.729],[116.736,29.729],[116.27,29.922],[116.097,30.308],[116.119,30.372],[116.837,30.694],[117.021,31.208],[117.11,31.658],[118.319,32.429],[118.906,32.943],[118.575,33.072],[118.449,33.329],[118.118,33.457],[118.044,33.65],[117.763,33.715],[117.739,33.843],[117.231,34.1],[117.62,34.293],[117.674,34.422],[117.966,34.744],[118.12,34.744],[118.281,34.937],[118.435,34.937],[118.428,34.744],[119.228,34.808],[119.305,34.808],[119.711,34.679],[119.732,34.551],[119.985,34.422],[120.342,34.358],[120.314,34.293],[120.489,34.165],[120.55,33.586],[120.926,33.2],[120.919,32.622],[121.403,32.493],[121.503,32.172],[121.783,32.107],[121.987,31.85],[121.836,31.658],[121.683,31.658],[121.581,31.786],[120.995,31.85],[120.919,31.85],[120.894,31.786],[120.97,31.786],[121.047,31.786],[121.634,31.529],[121.584,31.4],[121.737,31.4],[121.995,31.079],[121.899,30.822],[121.519,30.822],[121.197,30.565],[121.045,30.565],[120.68,30.179],[120.809,30.115],[121.105,30.308],[121.484,30.308],[121.62,30.051],[122.03,29.922],[121.82,29.537],[121.42,29.472],[121.312,29.601],[120.242,29.794],[119.778,29.987],[119.226,29.922],[118.36,29.601],[117.981,29.601],[117.96,29.537]]]]}},{"type":"Feature","id":"cliopatria-ef9e2134ce4ddc619cfec8d7","properties":{"NAME":"Cai","ABBREVN":null,"CONTROL":null,"SUBJECTO":"Cai","PARTOF":"(Spring and Autumn States)","BORDERPRECISION":1,"FromYear":-750,"ToYear":-481,"Area":3733.2072897097314,"Type":"POLITY","Wikipedia":"Cai (state)","Wikidata":"Q1025803","SeshatID":"","Components":"","MemberOf":"(Spring and Autumn States)","sourceFeatureId":"cliopatria-ef9e2134ce4ddc619cfec8d7","datasetId":"cliopatria"},"geometry":{"type":"MultiPolygon","coordinates":[[[[113.927,34.486],[113.591,34.229],[113.387,34.486],[113.028,34.551],[113.03,34.744],[113.057,34.808],[113.134,34.808],[113.16,34.872],[113.238,34.872],[113.264,34.937],[113.341,34.937],[113.674,34.808],[113.751,34.808],[113.953,34.551],[113.927,34.486]]]]}},{"type":"Feature","id":"cliopatria-6bf40e6ce64228fd9d0d9d94","properties":{"NAME":"Cao","ABBREVN":null,"CONTROL":null,"SUBJECTO":"Cao","PARTOF":"(Spring and Autumn States)","BORDERPRECISION":1,"FromYear":-750,"ToYear":-481,"Area":3839.7471467902633,"Type":"POLITY","Wikipedia":"Cao (state)","Wikidata":"Q204077","SeshatID":"","Components":"","MemberOf":"(Spring and Autumn States)","sourceFeatureId":"cliopatria-6bf40e6ce64228fd9d0d9d94","datasetId":"cliopatria"},"geometry":{"type":"MultiPolygon","coordinates":[[[[115.011,35.773],[114.955,35.645],[115.231,35.387],[114.499,34.937],[114.376,35.194],[114.408,35.451],[114.856,35.773],[115.011,35.773]]]]}},{"type":"Feature","id":"cliopatria-03e85dc73db46cee1998b657","properties":{"NAME":"Chen","ABBREVN":null,"CONTROL":null,"SUBJECTO":"Chen","PARTOF":"(Spring and Autumn States)","BORDERPRECISION":1,"FromYear":-750,"ToYear":-481,"Area":4971.727588222772,"Type":"POLITY","Wikipedia":"Chen (state)","Wikidata":"Q1069690","SeshatID":"","Components":"","MemberOf":"(Spring and Autumn States)","sourceFeatureId":"cliopatria-03e85dc73db46cee1998b657","datasetId":"cliopatria"},"geometry":{"type":"MultiPolygon","coordinates":[[[[114.952,34.358],[114.875,34.358],[114.156,34.293],[113.927,34.486],[113.953,34.551],[113.751,34.808],[114.472,34.872],[114.341,34.744],[114.647,34.551],[115.494,34.551],[115.595,34.422],[114.952,34.358]]]]}},{"type":"Feature","id":"cliopatria-093a745fd1b465f2cf029f20","properties":{"NAME":"Lu","ABBREVN":null,"CONTROL":null,"SUBJECTO":"Lu","PARTOF":"(Spring and Autumn States)","BORDERPRECISION":1,"FromYear":-750,"ToYear":-481,"Area":43470.049307163594,"Type":"POLITY","Wikipedia":"Lu (state)","Wikidata":"Q555994","SeshatID":"","Components":"","MemberOf":"(Spring and Autumn States)","sourceFeatureId":"cliopatria-093a745fd1b465f2cf029f20","datasetId":"cliopatria"},"geometry":{"type":"MultiPolygon","coordinates":[[[[119.228,34.808],[118.428,34.744],[118.435,34.937],[118.281,34.937],[118.12,34.744],[117.966,34.744],[117.635,34.872],[117.768,35.001],[118.056,35.13],[118.304,35.516],[118.255,35.58],[117.587,35.645],[116.96,35.451],[116.672,35.323],[116.286,35.323],[115.99,35.709],[115.231,35.387],[114.955,35.645],[115.011,35.773],[115.039,35.838],[115.117,35.838],[115.598,36.224],[115.802,36.16],[115.765,35.902],[116.046,35.838],[117.353,36.16],[119.895,36.288],[120.529,36.482],[120.732,36.417],[120.701,36.353],[120.659,36.095],[120.318,36.031],[119.986,35.645],[119.619,35.516],[119.256,34.872],[119.228,34.808]]]]}},{"type":"Feature","id":"cliopatria-730c56d006bffdea5dd96a00","properties":{"NAME":"Song","ABBREVN":null,"CONTROL":null,"SUBJECTO":"Song","PARTOF":"(Spring and Autumn States)","BORDERPRECISION":1,"FromYear":-750,"ToYear":-481,"Area":22944.158992377714,"Type":"POLITY","Wikipedia":"Song (state)","Wikidata":"Q7462","SeshatID":"","Components":"","MemberOf":"(Spring and Autumn States)","sourceFeatureId":"cliopatria-730c56d006bffdea5dd96a00","datasetId":"cliopatria"},"geometry":{"type":"MultiPolygon","coordinates":[[[[117.575,34.551],[117.674,34.422],[117.62,34.293],[117.231,34.1],[116.616,34.1],[116.107,34.358],[115.595,34.422],[115.494,34.551],[114.647,34.551],[114.341,34.744],[114.472,34.872],[114.499,34.937],[115.231,35.387],[115.99,35.709],[116.286,35.323],[116.258,35.258],[116.181,35.258],[116.098,35.065],[116.197,34.937],[116.506,34.937],[116.704,34.679],[116.677,34.615],[116.65,34.551],[116.727,34.551],[117.575,34.551]]]]}},{"type":"Feature","id":"cliopatria-1082da62d23bdbf55ebebe51","properties":{"NAME":"Teng","ABBREVN":null,"CONTROL":null,"SUBJECTO":"Teng","PARTOF":"(Spring and Autumn States)","BORDERPRECISION":1,"FromYear":-750,"ToYear":-481,"Area":4224.530070260444,"Type":"POLITY","Wikipedia":"Teng (state)","Wikidata":"Q1356151","SeshatID":"","Components":"","MemberOf":"(Spring and Autumn States)","sourceFeatureId":"cliopatria-1082da62d23bdbf55ebebe51","datasetId":"cliopatria"},"geometry":{"type":"MultiPolygon","coordinates":[[[[116.181,35.258],[116.258,35.258],[116.286,35.323],[116.672,35.323],[116.96,35.451],[116.932,35.387],[116.904,35.323],[116.981,35.323],[116.925,35.194],[117.179,35.065],[116.704,34.679],[116.506,34.937],[116.197,34.937],[116.098,35.065],[116.181,35.258]]]]}},{"type":"Feature","id":"cliopatria-1526fbf767c2381c6f644faf","properties":{"NAME":"Later Zhou","ABBREVN":null,"CONTROL":null,"SUBJECTO":"Later Zhou","PARTOF":"(Spring and Autumn States)","BORDERPRECISION":1,"FromYear":-750,"ToYear":-451,"Area":9655.823385826896,"Type":"POLITY","Wikipedia":"Later Zhou","Wikidata":"Q1154556","SeshatID":"","Components":"","MemberOf":"(Spring and Autumn States)","sourceFeatureId":"cliopatria-1526fbf767c2381c6f644faf","datasetId":"cliopatria"},"geometry":{"type":"MultiPolygon","coordinates":[[[[112.386,34.486],[112.309,34.486],[112.232,34.486],[112.155,34.486],[112.184,34.937],[112.107,34.937],[112.32,35.451],[113.53,35.387],[113.341,34.937],[113.264,34.937],[113.238,34.872],[113.16,34.872],[113.134,34.808],[113.057,34.808],[113.03,34.744],[112.617,34.486],[112.386,34.486]]]]}},{"type":"Feature","id":"cliopatria-9df66b06ab4e2224219e0255","properties":{"NAME":"Qin","ABBREVN":null,"CONTROL":null,"SUBJECTO":"Qin","PARTOF":"(Spring and Autumn States)","BORDERPRECISION":1,"FromYear":-750,"ToYear":-451,"Area":56477.88066636069,"Type":"POLITY","Wikipedia":"Qin (state)","Wikidata":"Q1471995","SeshatID":"","Components":"","MemberOf":"(Spring and Autumn States)","sourceFeatureId":"cliopatria-9df66b06ab4e2224219e0255","datasetId":"cliopatria"},"geometry":{"type":"MultiPolygon","coordinates":[[[[110.743,34.229],[110.359,34.229],[109.69,34.486],[107.943,34.551],[108.453,35.258],[108.298,35.258],[108.35,35.387],[108.17,35.516],[108.222,35.645],[108.79,35.709],[109.655,36.482],[112.094,37.255],[112.172,37.255],[111.413,36.417],[111.23,36.353],[111.062,35.773],[111.163,35.645],[111.003,35.258],[110.666,35.001],[110.588,34.808],[110.717,34.744],[110.691,34.486],[110.82,34.422],[110.82,34.229],[110.743,34.229]]]]}},{"type":"Feature","id":"cliopatria-8ca55c3a56ea59f55a08f522","properties":{"NAME":"Xu","ABBREVN":null,"CONTROL":null,"SUBJECTO":"Xu","PARTOF":"(Spring and Autumn States)","BORDERPRECISION":1,"FromYear":-750,"ToYear":-451,"Area":4786.47214088299,"Type":"POLITY","Wikipedia":"Xu (state)","Wikidata":"Q2650109","SeshatID":"","Components":"","MemberOf":"(Spring and Autumn States)","sourceFeatureId":"cliopatria-8ca55c3a56ea59f55a08f522","datasetId":"cliopatria"},"geometry":{"type":"MultiPolygon","coordinates":[[[[116.727,34.551],[116.65,34.551],[116.677,34.615],[116.704,34.679],[117.179,35.065],[117.768,35.001],[117.635,34.872],[117.966,34.744],[117.674,34.422],[117.575,34.551],[116.727,34.551]]]]}},{"type":"Feature","id":"cliopatria-063a071017d9745ec7643474","properties":{"NAME":"Zheng","ABBREVN":null,"CONTROL":null,"SUBJECTO":"Zheng","PARTOF":"(Spring and Autumn States)","BORDERPRECISION":1,"FromYear":-750,"ToYear":-451,"Area":5552.990150388705,"Type":"POLITY","Wikipedia":"Zheng (state)","Wikidata":"Q197598","SeshatID":"","Components":"","MemberOf":"(Spring and Autumn States)","sourceFeatureId":"cliopatria-063a071017d9745ec7643474","datasetId":"cliopatria"},"geometry":{"type":"MultiPolygon","coordinates":[[[[113.685,35.387],[113.762,35.387],[114.226,35.387],[114.303,35.387],[114.331,35.451],[114.408,35.451],[114.376,35.194],[114.499,34.937],[114.472,34.872],[113.751,34.808],[113.674,34.808],[113.341,34.937],[113.53,35.387],[113.607,35.387],[113.685,35.387]]]]}},{"type":"Feature","id":"cliopatria-edbe618fc68b042697f3041a","properties":{"NAME":"Zhu","ABBREVN":null,"CONTROL":null,"SUBJECTO":"Zhu","PARTOF":"(Spring and Autumn States)","BORDERPRECISION":1,"FromYear":-750,"ToYear":-451,"Area":6449.246183606028,"Type":"POLITY","Wikipedia":"Zhu (state)","Wikidata":"Q227007","SeshatID":"","Components":"","MemberOf":"(Spring and Autumn States)","sourceFeatureId":"cliopatria-edbe618fc68b042697f3041a","datasetId":"cliopatria"},"geometry":{"type":"MultiPolygon","coordinates":[[[[116.981,35.323],[116.904,35.323],[116.932,35.387],[116.96,35.451],[117.587,35.645],[118.255,35.58],[118.304,35.516],[118.056,35.13],[117.768,35.001],[117.179,35.065],[116.925,35.194],[116.981,35.323]]]]}},{"type":"Feature","id":"cliopatria-7c0f799987cb03d113fe0ce7","properties":{"NAME":"Yan","ABBREVN":null,"CONTROL":null,"SUBJECTO":"Yan","PARTOF":"(Spring and Autumn States)","BORDERPRECISION":1,"FromYear":-750,"ToYear":-405,"Area":49598.941432790445,"Type":"POLITY","Wikipedia":"Yan (state)","Wikidata":"Q1472004","SeshatID":"","Components":"","MemberOf":"(Spring and Autumn States)","sourceFeatureId":"cliopatria-7c0f799987cb03d113fe0ce7","datasetId":"cliopatria"},"geometry":{"type":"MultiPolygon","coordinates":[[[[119.319,39.514],[119.284,39.45],[118.989,39.191],[118.45,39.062],[118.057,39.062],[118.046,39.191],[117.888,39.191],[117.676,38.933],[117.622,38.674],[117.23,38.674],[117.197,38.61],[116.145,38.545],[116.399,38.739],[116.164,38.739],[116.262,38.933],[116.092,39.062],[116.101,39.385],[115.865,39.385],[116.102,39.838],[116.136,39.902],[116.452,39.902],[117.567,40.355],[119.344,40.42],[121.227,40.938],[120.647,40.485],[120.5,40.226],[119.38,39.773],[119.319,39.514]]]]}}]}
